<?xml version="1.0" encoding="UTF-8"?>
<gpx creator="StravaGPX" version="1.1" xmlns="http://www.topografix.com/GPX/1/1" xmlns:xsi="http://www.w3.org/2001/XMLSchema-instance" xsi:schemaLocation="http://www.topografix.com/GPX/1/1 http://www.topografix.com/GPX/1/1/gpx.xsd">
 <metadata>
  <time>2017-01-14T14:44:39Z</time>
 </metadata>
 <trk>
  <name>Got really cold so gave up :( </name>
  <type>cycling</type>
  <trkseg>
   <trkpt lat="52.6308110" lon="1.2424490">
    <ele>28.2</ele>
    <time>2017-01-14T14:44:39Z</time>
   </trkpt>
   <trkpt lat="52.6307920" lon="1.2423680">
    <ele>28.2</ele>
    <time>2017-01-14T14:44:41Z</time>
   </trkpt>
   <trkpt lat="52.6307900" lon="1.2423220">
    <ele>28.2</ele>
    <time>2017-01-14T14:44:42Z</time>
   </trkpt>
   <trkpt lat="52.6307600" lon="1.2422620">
    <ele>28.1</ele>
    <time>2017-01-14T14:45:07Z</time>
   </trkpt>
   <trkpt lat="52.6307760" lon="1.2423170">
    <ele>28.0</ele>
    <time>2017-01-14T14:45:11Z</time>
   </trkpt>
   <trkpt lat="52.6307740" lon="1.2423950">
    <ele>28.0</ele>
    <time>2017-01-14T14:45:13Z</time>
   </trkpt>
   <trkpt lat="52.6307830" lon="1.2424510">
    <ele>27.9</ele>
    <time>2017-01-14T14:45:16Z</time>
   </trkpt>
   <trkpt lat="52.6308360" lon="1.2424470">
    <ele>27.9</ele>
    <time>2017-01-14T14:45:18Z</time>
   </trkpt>
   <trkpt lat="52.6308670" lon="1.2424290">
    <ele>27.9</ele>
    <time>2017-01-14T14:45:19Z</time>
   </trkpt>
   <trkpt lat="52.6309000" lon="1.2424000">
    <ele>27.9</ele>
    <time>2017-01-14T14:45:20Z</time>
   </trkpt>
   <trkpt lat="52.6309720" lon="1.2423330">
    <ele>28.0</ele>
    <time>2017-01-14T14:45:21Z</time>
   </trkpt>
   <trkpt lat="52.6309940" lon="1.2422740">
    <ele>28.0</ele>
    <time>2017-01-14T14:45:22Z</time>
   </trkpt>
   <trkpt lat="52.6310360" lon="1.2422050">
    <ele>28.0</ele>
    <time>2017-01-14T14:45:23Z</time>
   </trkpt>
   <trkpt lat="52.6310770" lon="1.2421350">
    <ele>28.0</ele>
    <time>2017-01-14T14:45:24Z</time>
   </trkpt>
   <trkpt lat="52.6311160" lon="1.2420610">
    <ele>28.0</ele>
    <time>2017-01-14T14:45:25Z</time>
   </trkpt>
   <trkpt lat="52.6311420" lon="1.2419810">
    <ele>28.0</ele>
    <time>2017-01-14T14:45:26Z</time>
   </trkpt>
   <trkpt lat="52.6311740" lon="1.2419390">
    <ele>28.0</ele>
    <time>2017-01-14T14:45:27Z</time>
   </trkpt>
   <trkpt lat="52.6312270" lon="1.2417970">
    <ele>27.4</ele>
    <time>2017-01-14T14:45:29Z</time>
   </trkpt>
   <trkpt lat="52.6312550" lon="1.2417260">
    <ele>26.9</ele>
    <time>2017-01-14T14:45:30Z</time>
   </trkpt>
   <trkpt lat="52.6312800" lon="1.2416650">
    <ele>26.4</ele>
    <time>2017-01-14T14:45:31Z</time>
   </trkpt>
   <trkpt lat="52.6312870" lon="1.2415670">
    <ele>26.0</ele>
    <time>2017-01-14T14:45:32Z</time>
   </trkpt>
   <trkpt lat="52.6313160" lon="1.2413620">
    <ele>26.0</ele>
    <time>2017-01-14T14:45:34Z</time>
   </trkpt>
   <trkpt lat="52.6313260" lon="1.2412420">
    <ele>26.0</ele>
    <time>2017-01-14T14:45:35Z</time>
   </trkpt>
   <trkpt lat="52.6313230" lon="1.2411000">
    <ele>26.0</ele>
    <time>2017-01-14T14:45:36Z</time>
   </trkpt>
   <trkpt lat="52.6313500" lon="1.2410090">
    <ele>26.0</ele>
    <time>2017-01-14T14:45:37Z</time>
   </trkpt>
   <trkpt lat="52.6313930" lon="1.2409840">
    <ele>26.0</ele>
    <time>2017-01-14T14:45:38Z</time>
   </trkpt>
   <trkpt lat="52.6314540" lon="1.2409800">
    <ele>26.0</ele>
    <time>2017-01-14T14:45:39Z</time>
   </trkpt>
   <trkpt lat="52.6315030" lon="1.2410380">
    <ele>26.1</ele>
    <time>2017-01-14T14:45:40Z</time>
   </trkpt>
   <trkpt lat="52.6315550" lon="1.2410370">
    <ele>26.4</ele>
    <time>2017-01-14T14:45:41Z</time>
   </trkpt>
   <trkpt lat="52.6316320" lon="1.2410660">
    <ele>26.8</ele>
    <time>2017-01-14T14:45:42Z</time>
   </trkpt>
   <trkpt lat="52.6317010" lon="1.2410810">
    <ele>27.3</ele>
    <time>2017-01-14T14:45:43Z</time>
   </trkpt>
   <trkpt lat="52.6317660" lon="1.2410890">
    <ele>27.7</ele>
    <time>2017-01-14T14:45:44Z</time>
   </trkpt>
   <trkpt lat="52.6318060" lon="1.2410980">
    <ele>28.0</ele>
    <time>2017-01-14T14:45:45Z</time>
   </trkpt>
   <trkpt lat="52.6318580" lon="1.2411020">
    <ele>28.3</ele>
    <time>2017-01-14T14:45:46Z</time>
   </trkpt>
   <trkpt lat="52.6319010" lon="1.2411150">
    <ele>28.6</ele>
    <time>2017-01-14T14:45:47Z</time>
   </trkpt>
   <trkpt lat="52.6319630" lon="1.2411210">
    <ele>29.0</ele>
    <time>2017-01-14T14:45:48Z</time>
   </trkpt>
   <trkpt lat="52.6320430" lon="1.2411140">
    <ele>29.0</ele>
    <time>2017-01-14T14:45:49Z</time>
   </trkpt>
   <trkpt lat="52.6320800" lon="1.2411490">
    <ele>29.0</ele>
    <time>2017-01-14T14:45:50Z</time>
   </trkpt>
   <trkpt lat="52.6321140" lon="1.2411830">
    <ele>29.0</ele>
    <time>2017-01-14T14:45:51Z</time>
   </trkpt>
   <trkpt lat="52.6321050" lon="1.2412530">
    <ele>29.0</ele>
    <time>2017-01-14T14:45:52Z</time>
   </trkpt>
   <trkpt lat="52.6321480" lon="1.2413170">
    <ele>29.1</ele>
    <time>2017-01-14T14:45:53Z</time>
   </trkpt>
   <trkpt lat="52.6321660" lon="1.2413890">
    <ele>29.3</ele>
    <time>2017-01-14T14:45:54Z</time>
   </trkpt>
   <trkpt lat="52.6321720" lon="1.2414460">
    <ele>29.4</ele>
    <time>2017-01-14T14:45:55Z</time>
   </trkpt>
   <trkpt lat="52.6321780" lon="1.2415030">
    <ele>29.4</ele>
    <time>2017-01-14T14:45:56Z</time>
   </trkpt>
   <trkpt lat="52.6321740" lon="1.2416370">
    <ele>29.7</ele>
    <time>2017-01-14T14:45:57Z</time>
   </trkpt>
   <trkpt lat="52.6321810" lon="1.2417430">
    <ele>29.8</ele>
    <time>2017-01-14T14:45:58Z</time>
   </trkpt>
   <trkpt lat="52.6322000" lon="1.2418590">
    <ele>30.0</ele>
    <time>2017-01-14T14:45:59Z</time>
   </trkpt>
   <trkpt lat="52.6322440" lon="1.2419550">
    <ele>30.0</ele>
    <time>2017-01-14T14:46:00Z</time>
   </trkpt>
   <trkpt lat="52.6322650" lon="1.2420200">
    <ele>30.0</ele>
    <time>2017-01-14T14:46:01Z</time>
   </trkpt>
   <trkpt lat="52.6322920" lon="1.2421050">
    <ele>30.0</ele>
    <time>2017-01-14T14:46:02Z</time>
   </trkpt>
   <trkpt lat="52.6323260" lon="1.2421700">
    <ele>30.0</ele>
    <time>2017-01-14T14:46:03Z</time>
   </trkpt>
   <trkpt lat="52.6323620" lon="1.2422580">
    <ele>30.1</ele>
    <time>2017-01-14T14:46:04Z</time>
   </trkpt>
   <trkpt lat="52.6323920" lon="1.2423410">
    <ele>30.3</ele>
    <time>2017-01-14T14:46:05Z</time>
   </trkpt>
   <trkpt lat="52.6323990" lon="1.2424040">
    <ele>30.4</ele>
    <time>2017-01-14T14:46:06Z</time>
   </trkpt>
   <trkpt lat="52.6324240" lon="1.2424850">
    <ele>30.5</ele>
    <time>2017-01-14T14:46:07Z</time>
   </trkpt>
   <trkpt lat="52.6324520" lon="1.2425710">
    <ele>30.7</ele>
    <time>2017-01-14T14:46:08Z</time>
   </trkpt>
   <trkpt lat="52.6324710" lon="1.2426440">
    <ele>30.8</ele>
    <time>2017-01-14T14:46:09Z</time>
   </trkpt>
   <trkpt lat="52.6324860" lon="1.2427260">
    <ele>30.9</ele>
    <time>2017-01-14T14:46:10Z</time>
   </trkpt>
   <trkpt lat="52.6325380" lon="1.2428050">
    <ele>31.0</ele>
    <time>2017-01-14T14:46:11Z</time>
   </trkpt>
   <trkpt lat="52.6325780" lon="1.2428790">
    <ele>31.2</ele>
    <time>2017-01-14T14:46:12Z</time>
   </trkpt>
   <trkpt lat="52.6326090" lon="1.2429530">
    <ele>31.3</ele>
    <time>2017-01-14T14:46:13Z</time>
   </trkpt>
   <trkpt lat="52.6326550" lon="1.2430230">
    <ele>31.5</ele>
    <time>2017-01-14T14:46:14Z</time>
   </trkpt>
   <trkpt lat="52.6326980" lon="1.2431150">
    <ele>31.7</ele>
    <time>2017-01-14T14:46:15Z</time>
   </trkpt>
   <trkpt lat="52.6327300" lon="1.2431950">
    <ele>31.8</ele>
    <time>2017-01-14T14:46:16Z</time>
   </trkpt>
   <trkpt lat="52.6327640" lon="1.2432960">
    <ele>32.0</ele>
    <time>2017-01-14T14:46:17Z</time>
   </trkpt>
   <trkpt lat="52.6328080" lon="1.2433800">
    <ele>32.1</ele>
    <time>2017-01-14T14:46:18Z</time>
   </trkpt>
   <trkpt lat="52.6328410" lon="1.2434620">
    <ele>32.3</ele>
    <time>2017-01-14T14:46:19Z</time>
   </trkpt>
   <trkpt lat="52.6328860" lon="1.2435220">
    <ele>32.5</ele>
    <time>2017-01-14T14:46:20Z</time>
   </trkpt>
   <trkpt lat="52.6329270" lon="1.2435790">
    <ele>32.6</ele>
    <time>2017-01-14T14:46:21Z</time>
   </trkpt>
   <trkpt lat="52.6329600" lon="1.2436540">
    <ele>32.7</ele>
    <time>2017-01-14T14:46:22Z</time>
   </trkpt>
   <trkpt lat="52.6329830" lon="1.2437090">
    <ele>32.8</ele>
    <time>2017-01-14T14:46:23Z</time>
   </trkpt>
   <trkpt lat="52.6330260" lon="1.2437740">
    <ele>32.9</ele>
    <time>2017-01-14T14:46:24Z</time>
   </trkpt>
   <trkpt lat="52.6330580" lon="1.2438500">
    <ele>33.0</ele>
    <time>2017-01-14T14:46:25Z</time>
   </trkpt>
   <trkpt lat="52.6330830" lon="1.2439240">
    <ele>33.0</ele>
    <time>2017-01-14T14:46:26Z</time>
   </trkpt>
   <trkpt lat="52.6331160" lon="1.2439980">
    <ele>33.0</ele>
    <time>2017-01-14T14:46:27Z</time>
   </trkpt>
   <trkpt lat="52.6331490" lon="1.2440580">
    <ele>33.0</ele>
    <time>2017-01-14T14:46:28Z</time>
   </trkpt>
   <trkpt lat="52.6331740" lon="1.2441240">
    <ele>33.0</ele>
    <time>2017-01-14T14:46:29Z</time>
   </trkpt>
   <trkpt lat="52.6332070" lon="1.2441900">
    <ele>33.3</ele>
    <time>2017-01-14T14:46:30Z</time>
   </trkpt>
   <trkpt lat="52.6332450" lon="1.2442600">
    <ele>33.5</ele>
    <time>2017-01-14T14:46:31Z</time>
   </trkpt>
   <trkpt lat="52.6332800" lon="1.2443310">
    <ele>33.8</ele>
    <time>2017-01-14T14:46:32Z</time>
   </trkpt>
   <trkpt lat="52.6333130" lon="1.2443880">
    <ele>34.0</ele>
    <time>2017-01-14T14:46:33Z</time>
   </trkpt>
   <trkpt lat="52.6333380" lon="1.2444240">
    <ele>34.0</ele>
    <time>2017-01-14T14:46:34Z</time>
   </trkpt>
   <trkpt lat="52.6333830" lon="1.2444270">
    <ele>34.0</ele>
    <time>2017-01-14T14:46:35Z</time>
   </trkpt>
   <trkpt lat="52.6334300" lon="1.2444390">
    <ele>34.0</ele>
    <time>2017-01-14T14:46:36Z</time>
   </trkpt>
   <trkpt lat="52.6334740" lon="1.2444140">
    <ele>34.1</ele>
    <time>2017-01-14T14:46:37Z</time>
   </trkpt>
   <trkpt lat="52.6335110" lon="1.2443760">
    <ele>34.2</ele>
    <time>2017-01-14T14:46:38Z</time>
   </trkpt>
   <trkpt lat="52.6335420" lon="1.2443200">
    <ele>34.3</ele>
    <time>2017-01-14T14:46:39Z</time>
   </trkpt>
   <trkpt lat="52.6335700" lon="1.2442720">
    <ele>34.4</ele>
    <time>2017-01-14T14:46:40Z</time>
   </trkpt>
   <trkpt lat="52.6336090" lon="1.2442230">
    <ele>34.5</ele>
    <time>2017-01-14T14:46:41Z</time>
   </trkpt>
   <trkpt lat="52.6336510" lon="1.2441770">
    <ele>34.5</ele>
    <time>2017-01-14T14:46:42Z</time>
   </trkpt>
   <trkpt lat="52.6336990" lon="1.2441200">
    <ele>34.7</ele>
    <time>2017-01-14T14:46:43Z</time>
   </trkpt>
   <trkpt lat="52.6337300" lon="1.2440490">
    <ele>34.7</ele>
    <time>2017-01-14T14:46:44Z</time>
   </trkpt>
   <trkpt lat="52.6337800" lon="1.2439850">
    <ele>34.9</ele>
    <time>2017-01-14T14:46:45Z</time>
   </trkpt>
   <trkpt lat="52.6338190" lon="1.2439160">
    <ele>34.9</ele>
    <time>2017-01-14T14:46:46Z</time>
   </trkpt>
   <trkpt lat="52.6338550" lon="1.2438410">
    <ele>35.0</ele>
    <time>2017-01-14T14:46:47Z</time>
   </trkpt>
   <trkpt lat="52.6338900" lon="1.2437580">
    <ele>35.1</ele>
    <time>2017-01-14T14:46:48Z</time>
   </trkpt>
   <trkpt lat="52.6339210" lon="1.2436890">
    <ele>35.2</ele>
    <time>2017-01-14T14:46:49Z</time>
   </trkpt>
   <trkpt lat="52.6339640" lon="1.2436180">
    <ele>35.3</ele>
    <time>2017-01-14T14:46:50Z</time>
   </trkpt>
   <trkpt lat="52.6340220" lon="1.2435490">
    <ele>35.4</ele>
    <time>2017-01-14T14:46:51Z</time>
   </trkpt>
   <trkpt lat="52.6340590" lon="1.2434720">
    <ele>35.4</ele>
    <time>2017-01-14T14:46:52Z</time>
   </trkpt>
   <trkpt lat="52.6340810" lon="1.2434210">
    <ele>35.5</ele>
    <time>2017-01-14T14:46:53Z</time>
   </trkpt>
   <trkpt lat="52.6341160" lon="1.2433650">
    <ele>35.5</ele>
    <time>2017-01-14T14:46:54Z</time>
   </trkpt>
   <trkpt lat="52.6341400" lon="1.2433120">
    <ele>35.6</ele>
    <time>2017-01-14T14:46:55Z</time>
   </trkpt>
   <trkpt lat="52.6341610" lon="1.2432420">
    <ele>35.7</ele>
    <time>2017-01-14T14:46:56Z</time>
   </trkpt>
   <trkpt lat="52.6341860" lon="1.2431760">
    <ele>35.7</ele>
    <time>2017-01-14T14:46:57Z</time>
   </trkpt>
   <trkpt lat="52.6342060" lon="1.2430860">
    <ele>35.8</ele>
    <time>2017-01-14T14:46:58Z</time>
   </trkpt>
   <trkpt lat="52.6342230" lon="1.2430230">
    <ele>35.8</ele>
    <time>2017-01-14T14:46:59Z</time>
   </trkpt>
   <trkpt lat="52.6342700" lon="1.2429590">
    <ele>35.9</ele>
    <time>2017-01-14T14:47:00Z</time>
   </trkpt>
   <trkpt lat="52.6343000" lon="1.2428750">
    <ele>36.0</ele>
    <time>2017-01-14T14:47:01Z</time>
   </trkpt>
   <trkpt lat="52.6343310" lon="1.2427990">
    <ele>36.0</ele>
    <time>2017-01-14T14:47:02Z</time>
   </trkpt>
   <trkpt lat="52.6343650" lon="1.2427390">
    <ele>36.1</ele>
    <time>2017-01-14T14:47:03Z</time>
   </trkpt>
   <trkpt lat="52.6343860" lon="1.2427000">
    <ele>36.1</ele>
    <time>2017-01-14T14:47:04Z</time>
   </trkpt>
   <trkpt lat="52.6344040" lon="1.2426280">
    <ele>36.1</ele>
    <time>2017-01-14T14:47:05Z</time>
   </trkpt>
   <trkpt lat="52.6344460" lon="1.2425750">
    <ele>36.2</ele>
    <time>2017-01-14T14:47:06Z</time>
   </trkpt>
   <trkpt lat="52.6344650" lon="1.2425170">
    <ele>36.2</ele>
    <time>2017-01-14T14:47:07Z</time>
   </trkpt>
   <trkpt lat="52.6345030" lon="1.2424820">
    <ele>36.3</ele>
    <time>2017-01-14T14:47:08Z</time>
   </trkpt>
   <trkpt lat="52.6345270" lon="1.2424410">
    <ele>36.3</ele>
    <time>2017-01-14T14:47:09Z</time>
   </trkpt>
   <trkpt lat="52.6345450" lon="1.2423680">
    <ele>36.4</ele>
    <time>2017-01-14T14:47:10Z</time>
   </trkpt>
   <trkpt lat="52.6345660" lon="1.2423220">
    <ele>36.4</ele>
    <time>2017-01-14T14:47:11Z</time>
   </trkpt>
   <trkpt lat="52.6345990" lon="1.2422640">
    <ele>36.5</ele>
    <time>2017-01-14T14:47:12Z</time>
   </trkpt>
   <trkpt lat="52.6346240" lon="1.2421980">
    <ele>36.6</ele>
    <time>2017-01-14T14:47:13Z</time>
   </trkpt>
   <trkpt lat="52.6346480" lon="1.2421020">
    <ele>36.6</ele>
    <time>2017-01-14T14:47:14Z</time>
   </trkpt>
   <trkpt lat="52.6346660" lon="1.2420390">
    <ele>36.7</ele>
    <time>2017-01-14T14:47:15Z</time>
   </trkpt>
   <trkpt lat="52.6346990" lon="1.2419760">
    <ele>36.8</ele>
    <time>2017-01-14T14:47:16Z</time>
   </trkpt>
   <trkpt lat="52.6347380" lon="1.2418750">
    <ele>36.9</ele>
    <time>2017-01-14T14:47:17Z</time>
   </trkpt>
   <trkpt lat="52.6347900" lon="1.2418150">
    <ele>36.9</ele>
    <time>2017-01-14T14:47:18Z</time>
   </trkpt>
   <trkpt lat="52.6348030" lon="1.2417250">
    <ele>37.0</ele>
    <time>2017-01-14T14:47:19Z</time>
   </trkpt>
   <trkpt lat="52.6348500" lon="1.2416270">
    <ele>37.1</ele>
    <time>2017-01-14T14:47:20Z</time>
   </trkpt>
   <trkpt lat="52.6349010" lon="1.2415480">
    <ele>37.2</ele>
    <time>2017-01-14T14:47:21Z</time>
   </trkpt>
   <trkpt lat="52.6349320" lon="1.2415000">
    <ele>37.2</ele>
    <time>2017-01-14T14:47:22Z</time>
   </trkpt>
   <trkpt lat="52.6349510" lon="1.2414290">
    <ele>37.3</ele>
    <time>2017-01-14T14:47:23Z</time>
   </trkpt>
   <trkpt lat="52.6349780" lon="1.2413780">
    <ele>37.3</ele>
    <time>2017-01-14T14:47:24Z</time>
   </trkpt>
   <trkpt lat="52.6350040" lon="1.2413370">
    <ele>37.3</ele>
    <time>2017-01-14T14:47:25Z</time>
   </trkpt>
   <trkpt lat="52.6350260" lon="1.2412890">
    <ele>37.4</ele>
    <time>2017-01-14T14:47:26Z</time>
   </trkpt>
   <trkpt lat="52.6350530" lon="1.2412340">
    <ele>37.4</ele>
    <time>2017-01-14T14:47:27Z</time>
   </trkpt>
   <trkpt lat="52.6350830" lon="1.2411940">
    <ele>37.5</ele>
    <time>2017-01-14T14:47:28Z</time>
   </trkpt>
   <trkpt lat="52.6351150" lon="1.2411400">
    <ele>37.5</ele>
    <time>2017-01-14T14:47:29Z</time>
   </trkpt>
   <trkpt lat="52.6351430" lon="1.2410810">
    <ele>37.6</ele>
    <time>2017-01-14T14:47:30Z</time>
   </trkpt>
   <trkpt lat="52.6351720" lon="1.2410070">
    <ele>37.8</ele>
    <time>2017-01-14T14:47:31Z</time>
   </trkpt>
   <trkpt lat="52.6351860" lon="1.2409050">
    <ele>37.9</ele>
    <time>2017-01-14T14:47:32Z</time>
   </trkpt>
   <trkpt lat="52.6352210" lon="1.2408290">
    <ele>38.0</ele>
    <time>2017-01-14T14:47:33Z</time>
   </trkpt>
   <trkpt lat="52.6352510" lon="1.2407570">
    <ele>38.1</ele>
    <time>2017-01-14T14:47:34Z</time>
   </trkpt>
   <trkpt lat="52.6352730" lon="1.2406810">
    <ele>38.2</ele>
    <time>2017-01-14T14:47:35Z</time>
   </trkpt>
   <trkpt lat="52.6353060" lon="1.2406070">
    <ele>38.2</ele>
    <time>2017-01-14T14:47:36Z</time>
   </trkpt>
   <trkpt lat="52.6353290" lon="1.2404900">
    <ele>38.3</ele>
    <time>2017-01-14T14:47:37Z</time>
   </trkpt>
   <trkpt lat="52.6353630" lon="1.2404060">
    <ele>38.4</ele>
    <time>2017-01-14T14:47:38Z</time>
   </trkpt>
   <trkpt lat="52.6353780" lon="1.2403280">
    <ele>38.4</ele>
    <time>2017-01-14T14:47:39Z</time>
   </trkpt>
   <trkpt lat="52.6353860" lon="1.2402100">
    <ele>38.5</ele>
    <time>2017-01-14T14:47:40Z</time>
   </trkpt>
   <trkpt lat="52.6354360" lon="1.2401820">
    <ele>38.5</ele>
    <time>2017-01-14T14:47:41Z</time>
   </trkpt>
   <trkpt lat="52.6354750" lon="1.2401580">
    <ele>38.6</ele>
    <time>2017-01-14T14:47:42Z</time>
   </trkpt>
   <trkpt lat="52.6355010" lon="1.2400710">
    <ele>38.6</ele>
    <time>2017-01-14T14:47:43Z</time>
   </trkpt>
   <trkpt lat="52.6355240" lon="1.2399880">
    <ele>38.6</ele>
    <time>2017-01-14T14:47:44Z</time>
   </trkpt>
   <trkpt lat="52.6355360" lon="1.2398760">
    <ele>38.7</ele>
    <time>2017-01-14T14:47:45Z</time>
   </trkpt>
   <trkpt lat="52.6355550" lon="1.2397940">
    <ele>38.7</ele>
    <time>2017-01-14T14:47:46Z</time>
   </trkpt>
   <trkpt lat="52.6355610" lon="1.2397210">
    <ele>38.7</ele>
    <time>2017-01-14T14:47:47Z</time>
   </trkpt>
   <trkpt lat="52.6355870" lon="1.2396440">
    <ele>38.7</ele>
    <time>2017-01-14T14:47:48Z</time>
   </trkpt>
   <trkpt lat="52.6356100" lon="1.2395940">
    <ele>38.8</ele>
    <time>2017-01-14T14:47:49Z</time>
   </trkpt>
   <trkpt lat="52.6356390" lon="1.2395480">
    <ele>38.8</ele>
    <time>2017-01-14T14:47:50Z</time>
   </trkpt>
   <trkpt lat="52.6356590" lon="1.2394780">
    <ele>38.8</ele>
    <time>2017-01-14T14:47:51Z</time>
   </trkpt>
   <trkpt lat="52.6356630" lon="1.2394330">
    <ele>38.9</ele>
    <time>2017-01-14T14:47:52Z</time>
   </trkpt>
   <trkpt lat="52.6356710" lon="1.2393410">
    <ele>38.9</ele>
    <time>2017-01-14T14:47:53Z</time>
   </trkpt>
   <trkpt lat="52.6356880" lon="1.2392680">
    <ele>38.9</ele>
    <time>2017-01-14T14:47:54Z</time>
   </trkpt>
   <trkpt lat="52.6357020" lon="1.2392280">
    <ele>38.6</ele>
    <time>2017-01-14T14:47:55Z</time>
   </trkpt>
   <trkpt lat="52.6357220" lon="1.2391730">
    <ele>38.2</ele>
    <time>2017-01-14T14:47:56Z</time>
   </trkpt>
   <trkpt lat="52.6357390" lon="1.2391260">
    <ele>37.9</ele>
    <time>2017-01-14T14:47:57Z</time>
   </trkpt>
   <trkpt lat="52.6357540" lon="1.2390830">
    <ele>37.6</ele>
    <time>2017-01-14T14:47:58Z</time>
   </trkpt>
   <trkpt lat="52.6357710" lon="1.2390430">
    <ele>37.3</ele>
    <time>2017-01-14T14:47:59Z</time>
   </trkpt>
   <trkpt lat="52.6357850" lon="1.2390030">
    <ele>37.0</ele>
    <time>2017-01-14T14:48:00Z</time>
   </trkpt>
   <trkpt lat="52.6358070" lon="1.2389420">
    <ele>36.6</ele>
    <time>2017-01-14T14:48:02Z</time>
   </trkpt>
   <trkpt lat="52.6358430" lon="1.2388870">
    <ele>36.1</ele>
    <time>2017-01-14T14:48:04Z</time>
   </trkpt>
   <trkpt lat="52.6358630" lon="1.2388530">
    <ele>36.0</ele>
    <time>2017-01-14T14:48:05Z</time>
   </trkpt>
   <trkpt lat="52.6358920" lon="1.2387950">
    <ele>36.0</ele>
    <time>2017-01-14T14:48:07Z</time>
   </trkpt>
   <trkpt lat="52.6359030" lon="1.2387040">
    <ele>36.0</ele>
    <time>2017-01-14T14:48:09Z</time>
   </trkpt>
   <trkpt lat="52.6359080" lon="1.2386520">
    <ele>36.0</ele>
    <time>2017-01-14T14:48:10Z</time>
   </trkpt>
   <trkpt lat="52.6359240" lon="1.2385940">
    <ele>36.0</ele>
    <time>2017-01-14T14:48:12Z</time>
   </trkpt>
   <trkpt lat="52.6359620" lon="1.2386180">
    <ele>36.0</ele>
    <time>2017-01-14T14:48:14Z</time>
   </trkpt>
   <trkpt lat="52.6359800" lon="1.2386550">
    <ele>36.0</ele>
    <time>2017-01-14T14:48:15Z</time>
   </trkpt>
   <trkpt lat="52.6359870" lon="1.2387090">
    <ele>36.0</ele>
    <time>2017-01-14T14:48:16Z</time>
   </trkpt>
   <trkpt lat="52.6359830" lon="1.2387700">
    <ele>36.0</ele>
    <time>2017-01-14T14:48:17Z</time>
   </trkpt>
   <trkpt lat="52.6359720" lon="1.2388340">
    <ele>36.0</ele>
    <time>2017-01-14T14:48:18Z</time>
   </trkpt>
   <trkpt lat="52.6359510" lon="1.2388960">
    <ele>36.0</ele>
    <time>2017-01-14T14:48:19Z</time>
   </trkpt>
   <trkpt lat="52.6359320" lon="1.2389560">
    <ele>36.0</ele>
    <time>2017-01-14T14:48:20Z</time>
   </trkpt>
   <trkpt lat="52.6359100" lon="1.2390180">
    <ele>36.0</ele>
    <time>2017-01-14T14:48:21Z</time>
   </trkpt>
   <trkpt lat="52.6358750" lon="1.2390930">
    <ele>36.6</ele>
    <time>2017-01-14T14:48:22Z</time>
   </trkpt>
   <trkpt lat="52.6358520" lon="1.2391700">
    <ele>37.2</ele>
    <time>2017-01-14T14:48:23Z</time>
   </trkpt>
   <trkpt lat="52.6358140" lon="1.2392150">
    <ele>37.8</ele>
    <time>2017-01-14T14:48:24Z</time>
   </trkpt>
   <trkpt lat="52.6357930" lon="1.2392820">
    <ele>38.3</ele>
    <time>2017-01-14T14:48:25Z</time>
   </trkpt>
   <trkpt lat="52.6357840" lon="1.2393570">
    <ele>38.9</ele>
    <time>2017-01-14T14:48:26Z</time>
   </trkpt>
   <trkpt lat="52.6357540" lon="1.2394190">
    <ele>38.7</ele>
    <time>2017-01-14T14:48:27Z</time>
   </trkpt>
   <trkpt lat="52.6357240" lon="1.2394970">
    <ele>38.3</ele>
    <time>2017-01-14T14:48:28Z</time>
   </trkpt>
   <trkpt lat="52.6356810" lon="1.2395660">
    <ele>38.1</ele>
    <time>2017-01-14T14:48:29Z</time>
   </trkpt>
   <trkpt lat="52.6356510" lon="1.2396390">
    <ele>37.9</ele>
    <time>2017-01-14T14:48:30Z</time>
   </trkpt>
   <trkpt lat="52.6356160" lon="1.2397250">
    <ele>37.7</ele>
    <time>2017-01-14T14:48:31Z</time>
   </trkpt>
   <trkpt lat="52.6355820" lon="1.2398020">
    <ele>37.5</ele>
    <time>2017-01-14T14:48:32Z</time>
   </trkpt>
   <trkpt lat="52.6355600" lon="1.2398850">
    <ele>37.4</ele>
    <time>2017-01-14T14:48:33Z</time>
   </trkpt>
   <trkpt lat="52.6355260" lon="1.2399620">
    <ele>37.1</ele>
    <time>2017-01-14T14:48:34Z</time>
   </trkpt>
   <trkpt lat="52.6354910" lon="1.2400090">
    <ele>37.1</ele>
    <time>2017-01-14T14:48:35Z</time>
   </trkpt>
   <trkpt lat="52.6354590" lon="1.2401040">
    <ele>37.0</ele>
    <time>2017-01-14T14:48:36Z</time>
   </trkpt>
   <trkpt lat="52.6354320" lon="1.2401960">
    <ele>37.0</ele>
    <time>2017-01-14T14:48:37Z</time>
   </trkpt>
   <trkpt lat="52.6354090" lon="1.2402730">
    <ele>37.0</ele>
    <time>2017-01-14T14:48:38Z</time>
   </trkpt>
   <trkpt lat="52.6353800" lon="1.2403540">
    <ele>37.0</ele>
    <time>2017-01-14T14:48:39Z</time>
   </trkpt>
   <trkpt lat="52.6353650" lon="1.2404330">
    <ele>37.0</ele>
    <time>2017-01-14T14:48:40Z</time>
   </trkpt>
   <trkpt lat="52.6353330" lon="1.2405170">
    <ele>37.0</ele>
    <time>2017-01-14T14:48:41Z</time>
   </trkpt>
   <trkpt lat="52.6353000" lon="1.2406090">
    <ele>37.0</ele>
    <time>2017-01-14T14:48:42Z</time>
   </trkpt>
   <trkpt lat="52.6352660" lon="1.2406940">
    <ele>37.0</ele>
    <time>2017-01-14T14:48:43Z</time>
   </trkpt>
   <trkpt lat="52.6352320" lon="1.2407740">
    <ele>37.0</ele>
    <time>2017-01-14T14:48:44Z</time>
   </trkpt>
   <trkpt lat="52.6352140" lon="1.2408660">
    <ele>37.1</ele>
    <time>2017-01-14T14:48:45Z</time>
   </trkpt>
   <trkpt lat="52.6351820" lon="1.2409560">
    <ele>37.1</ele>
    <time>2017-01-14T14:48:46Z</time>
   </trkpt>
   <trkpt lat="52.6351610" lon="1.2409980">
    <ele>37.1</ele>
    <time>2017-01-14T14:48:47Z</time>
   </trkpt>
   <trkpt lat="52.6351360" lon="1.2410880">
    <ele>37.1</ele>
    <time>2017-01-14T14:48:48Z</time>
   </trkpt>
   <trkpt lat="52.6351120" lon="1.2411630">
    <ele>37.1</ele>
    <time>2017-01-14T14:48:49Z</time>
   </trkpt>
   <trkpt lat="52.6350780" lon="1.2412520">
    <ele>37.1</ele>
    <time>2017-01-14T14:48:50Z</time>
   </trkpt>
   <trkpt lat="52.6350450" lon="1.2413270">
    <ele>37.1</ele>
    <time>2017-01-14T14:48:51Z</time>
   </trkpt>
   <trkpt lat="52.6350120" lon="1.2413970">
    <ele>37.1</ele>
    <time>2017-01-14T14:48:52Z</time>
   </trkpt>
   <trkpt lat="52.6349780" lon="1.2414790">
    <ele>37.1</ele>
    <time>2017-01-14T14:48:53Z</time>
   </trkpt>
   <trkpt lat="52.6349460" lon="1.2415660">
    <ele>37.1</ele>
    <time>2017-01-14T14:48:54Z</time>
   </trkpt>
   <trkpt lat="52.6349140" lon="1.2416660">
    <ele>37.1</ele>
    <time>2017-01-14T14:48:55Z</time>
   </trkpt>
   <trkpt lat="52.6348770" lon="1.2417390">
    <ele>37.1</ele>
    <time>2017-01-14T14:48:56Z</time>
   </trkpt>
   <trkpt lat="52.6348300" lon="1.2418060">
    <ele>37.0</ele>
    <time>2017-01-14T14:48:57Z</time>
   </trkpt>
   <trkpt lat="52.6347980" lon="1.2419030">
    <ele>37.0</ele>
    <time>2017-01-14T14:48:58Z</time>
   </trkpt>
   <trkpt lat="52.6347610" lon="1.2420070">
    <ele>37.0</ele>
    <time>2017-01-14T14:48:59Z</time>
   </trkpt>
   <trkpt lat="52.6347330" lon="1.2420970">
    <ele>37.0</ele>
    <time>2017-01-14T14:49:00Z</time>
   </trkpt>
   <trkpt lat="52.6346950" lon="1.2421710">
    <ele>36.9</ele>
    <time>2017-01-14T14:49:01Z</time>
   </trkpt>
   <trkpt lat="52.6346600" lon="1.2422560">
    <ele>36.9</ele>
    <time>2017-01-14T14:49:02Z</time>
   </trkpt>
   <trkpt lat="52.6346030" lon="1.2423290">
    <ele>36.8</ele>
    <time>2017-01-14T14:49:03Z</time>
   </trkpt>
   <trkpt lat="52.6345610" lon="1.2424080">
    <ele>36.7</ele>
    <time>2017-01-14T14:49:04Z</time>
   </trkpt>
   <trkpt lat="52.6345180" lon="1.2424870">
    <ele>36.6</ele>
    <time>2017-01-14T14:49:05Z</time>
   </trkpt>
   <trkpt lat="52.6344860" lon="1.2425630">
    <ele>36.6</ele>
    <time>2017-01-14T14:49:06Z</time>
   </trkpt>
   <trkpt lat="52.6344430" lon="1.2426420">
    <ele>36.5</ele>
    <time>2017-01-14T14:49:07Z</time>
   </trkpt>
   <trkpt lat="52.6344090" lon="1.2427390">
    <ele>36.4</ele>
    <time>2017-01-14T14:49:08Z</time>
   </trkpt>
   <trkpt lat="52.6343720" lon="1.2428270">
    <ele>36.4</ele>
    <time>2017-01-14T14:49:09Z</time>
   </trkpt>
   <trkpt lat="52.6343250" lon="1.2429210">
    <ele>36.3</ele>
    <time>2017-01-14T14:49:10Z</time>
   </trkpt>
   <trkpt lat="52.6342940" lon="1.2430400">
    <ele>36.2</ele>
    <time>2017-01-14T14:49:11Z</time>
   </trkpt>
   <trkpt lat="52.6342590" lon="1.2431280">
    <ele>36.1</ele>
    <time>2017-01-14T14:49:12Z</time>
   </trkpt>
   <trkpt lat="52.6342290" lon="1.2432190">
    <ele>36.1</ele>
    <time>2017-01-14T14:49:13Z</time>
   </trkpt>
   <trkpt lat="52.6341910" lon="1.2433060">
    <ele>35.9</ele>
    <time>2017-01-14T14:49:14Z</time>
   </trkpt>
   <trkpt lat="52.6341450" lon="1.2434070">
    <ele>35.8</ele>
    <time>2017-01-14T14:49:15Z</time>
   </trkpt>
   <trkpt lat="52.6341040" lon="1.2434970">
    <ele>35.6</ele>
    <time>2017-01-14T14:49:16Z</time>
   </trkpt>
   <trkpt lat="52.6340630" lon="1.2435920">
    <ele>35.4</ele>
    <time>2017-01-14T14:49:17Z</time>
   </trkpt>
   <trkpt lat="52.6340240" lon="1.2436860">
    <ele>35.2</ele>
    <time>2017-01-14T14:49:18Z</time>
   </trkpt>
   <trkpt lat="52.6339790" lon="1.2437420">
    <ele>35.1</ele>
    <time>2017-01-14T14:49:19Z</time>
   </trkpt>
   <trkpt lat="52.6339350" lon="1.2438230">
    <ele>35.0</ele>
    <time>2017-01-14T14:49:20Z</time>
   </trkpt>
   <trkpt lat="52.6339290" lon="1.2438710">
    <ele>34.9</ele>
    <time>2017-01-14T14:49:21Z</time>
   </trkpt>
   <trkpt lat="52.6338820" lon="1.2439630">
    <ele>34.8</ele>
    <time>2017-01-14T14:49:22Z</time>
   </trkpt>
   <trkpt lat="52.6338380" lon="1.2440630">
    <ele>34.7</ele>
    <time>2017-01-14T14:49:23Z</time>
   </trkpt>
   <trkpt lat="52.6338060" lon="1.2441390">
    <ele>34.6</ele>
    <time>2017-01-14T14:49:24Z</time>
   </trkpt>
   <trkpt lat="52.6337670" lon="1.2441990">
    <ele>34.5</ele>
    <time>2017-01-14T14:49:25Z</time>
   </trkpt>
   <trkpt lat="52.6337340" lon="1.2442600">
    <ele>34.4</ele>
    <time>2017-01-14T14:49:26Z</time>
   </trkpt>
   <trkpt lat="52.6336930" lon="1.2443170">
    <ele>34.4</ele>
    <time>2017-01-14T14:49:27Z</time>
   </trkpt>
   <trkpt lat="52.6336550" lon="1.2443620">
    <ele>34.3</ele>
    <time>2017-01-14T14:49:28Z</time>
   </trkpt>
   <trkpt lat="52.6336160" lon="1.2444140">
    <ele>34.2</ele>
    <time>2017-01-14T14:49:29Z</time>
   </trkpt>
   <trkpt lat="52.6335940" lon="1.2444580">
    <ele>34.2</ele>
    <time>2017-01-14T14:49:30Z</time>
   </trkpt>
   <trkpt lat="52.6335610" lon="1.2445100">
    <ele>34.1</ele>
    <time>2017-01-14T14:49:31Z</time>
   </trkpt>
   <trkpt lat="52.6335230" lon="1.2445330">
    <ele>34.0</ele>
    <time>2017-01-14T14:49:32Z</time>
   </trkpt>
   <trkpt lat="52.6334700" lon="1.2445580">
    <ele>34.0</ele>
    <time>2017-01-14T14:49:33Z</time>
   </trkpt>
   <trkpt lat="52.6334350" lon="1.2445790">
    <ele>34.0</ele>
    <time>2017-01-14T14:49:34Z</time>
   </trkpt>
   <trkpt lat="52.6334040" lon="1.2445890">
    <ele>34.0</ele>
    <time>2017-01-14T14:49:35Z</time>
   </trkpt>
   <trkpt lat="52.6333680" lon="1.2445940">
    <ele>34.0</ele>
    <time>2017-01-14T14:49:36Z</time>
   </trkpt>
   <trkpt lat="52.6333400" lon="1.2445010">
    <ele>34.0</ele>
    <time>2017-01-14T14:49:37Z</time>
   </trkpt>
   <trkpt lat="52.6333050" lon="1.2444530">
    <ele>34.0</ele>
    <time>2017-01-14T14:49:38Z</time>
   </trkpt>
   <trkpt lat="52.6332690" lon="1.2444040">
    <ele>33.9</ele>
    <time>2017-01-14T14:49:39Z</time>
   </trkpt>
   <trkpt lat="52.6332420" lon="1.2443110">
    <ele>33.6</ele>
    <time>2017-01-14T14:49:40Z</time>
   </trkpt>
   <trkpt lat="52.6331770" lon="1.2441620">
    <ele>33.0</ele>
    <time>2017-01-14T14:49:42Z</time>
   </trkpt>
   <trkpt lat="52.6331330" lon="1.2440850">
    <ele>33.0</ele>
    <time>2017-01-14T14:49:43Z</time>
   </trkpt>
   <trkpt lat="52.6330880" lon="1.2439990">
    <ele>33.0</ele>
    <time>2017-01-14T14:49:44Z</time>
   </trkpt>
   <trkpt lat="52.6330470" lon="1.2439030">
    <ele>33.0</ele>
    <time>2017-01-14T14:49:45Z</time>
   </trkpt>
   <trkpt lat="52.6330030" lon="1.2437920">
    <ele>33.0</ele>
    <time>2017-01-14T14:49:46Z</time>
   </trkpt>
   <trkpt lat="52.6329560" lon="1.2436820">
    <ele>32.7</ele>
    <time>2017-01-14T14:49:47Z</time>
   </trkpt>
   <trkpt lat="52.6329150" lon="1.2435980">
    <ele>32.6</ele>
    <time>2017-01-14T14:49:48Z</time>
   </trkpt>
   <trkpt lat="52.6328740" lon="1.2435190">
    <ele>32.5</ele>
    <time>2017-01-14T14:49:49Z</time>
   </trkpt>
   <trkpt lat="52.6328470" lon="1.2434590">
    <ele>32.3</ele>
    <time>2017-01-14T14:49:50Z</time>
   </trkpt>
   <trkpt lat="52.6328130" lon="1.2433850">
    <ele>32.1</ele>
    <time>2017-01-14T14:49:51Z</time>
   </trkpt>
   <trkpt lat="52.6327690" lon="1.2433030">
    <ele>32.0</ele>
    <time>2017-01-14T14:49:52Z</time>
   </trkpt>
   <trkpt lat="52.6327390" lon="1.2432260">
    <ele>31.8</ele>
    <time>2017-01-14T14:49:53Z</time>
   </trkpt>
   <trkpt lat="52.6327180" lon="1.2431620">
    <ele>31.7</ele>
    <time>2017-01-14T14:49:54Z</time>
   </trkpt>
   <trkpt lat="52.6326860" lon="1.2430930">
    <ele>31.6</ele>
    <time>2017-01-14T14:49:55Z</time>
   </trkpt>
   <trkpt lat="52.6326600" lon="1.2430000">
    <ele>31.4</ele>
    <time>2017-01-14T14:49:56Z</time>
   </trkpt>
   <trkpt lat="52.6326210" lon="1.2429350">
    <ele>31.3</ele>
    <time>2017-01-14T14:49:57Z</time>
   </trkpt>
   <trkpt lat="52.6325760" lon="1.2428570">
    <ele>31.1</ele>
    <time>2017-01-14T14:49:58Z</time>
   </trkpt>
   <trkpt lat="52.6325420" lon="1.2427800">
    <ele>31.0</ele>
    <time>2017-01-14T14:49:59Z</time>
   </trkpt>
   <trkpt lat="52.6325090" lon="1.2427090">
    <ele>30.9</ele>
    <time>2017-01-14T14:50:00Z</time>
   </trkpt>
   <trkpt lat="52.6324750" lon="1.2426510">
    <ele>30.8</ele>
    <time>2017-01-14T14:50:01Z</time>
   </trkpt>
   <trkpt lat="52.6324400" lon="1.2425780">
    <ele>30.7</ele>
    <time>2017-01-14T14:50:02Z</time>
   </trkpt>
   <trkpt lat="52.6323990" lon="1.2424930">
    <ele>30.5</ele>
    <time>2017-01-14T14:50:03Z</time>
   </trkpt>
   <trkpt lat="52.6323590" lon="1.2424210">
    <ele>30.3</ele>
    <time>2017-01-14T14:50:04Z</time>
   </trkpt>
   <trkpt lat="52.6323310" lon="1.2423460">
    <ele>30.2</ele>
    <time>2017-01-14T14:50:05Z</time>
   </trkpt>
   <trkpt lat="52.6322960" lon="1.2422740">
    <ele>30.0</ele>
    <time>2017-01-14T14:50:06Z</time>
   </trkpt>
   <trkpt lat="52.6322590" lon="1.2422020">
    <ele>30.0</ele>
    <time>2017-01-14T14:50:07Z</time>
   </trkpt>
   <trkpt lat="52.6322290" lon="1.2421390">
    <ele>30.0</ele>
    <time>2017-01-14T14:50:08Z</time>
   </trkpt>
   <trkpt lat="52.6321930" lon="1.2420610">
    <ele>30.0</ele>
    <time>2017-01-14T14:50:09Z</time>
   </trkpt>
   <trkpt lat="52.6321600" lon="1.2419910">
    <ele>30.0</ele>
    <time>2017-01-14T14:50:10Z</time>
   </trkpt>
   <trkpt lat="52.6320930" lon="1.2418900">
    <ele>30.0</ele>
    <time>2017-01-14T14:50:12Z</time>
   </trkpt>
   <trkpt lat="52.6320530" lon="1.2418670">
    <ele>30.0</ele>
    <time>2017-01-14T14:50:13Z</time>
   </trkpt>
   <trkpt lat="52.6319920" lon="1.2418860">
    <ele>30.0</ele>
    <time>2017-01-14T14:50:14Z</time>
   </trkpt>
   <trkpt lat="52.6319630" lon="1.2418760">
    <ele>30.0</ele>
    <time>2017-01-14T14:50:15Z</time>
   </trkpt>
   <trkpt lat="52.6319110" lon="1.2418780">
    <ele>30.0</ele>
    <time>2017-01-14T14:50:16Z</time>
   </trkpt>
   <trkpt lat="52.6318570" lon="1.2418760">
    <ele>30.0</ele>
    <time>2017-01-14T14:50:17Z</time>
   </trkpt>
   <trkpt lat="52.6318040" lon="1.2418700">
    <ele>30.0</ele>
    <time>2017-01-14T14:50:18Z</time>
   </trkpt>
   <trkpt lat="52.6317470" lon="1.2418580">
    <ele>30.0</ele>
    <time>2017-01-14T14:50:19Z</time>
   </trkpt>
   <trkpt lat="52.6316970" lon="1.2418460">
    <ele>29.7</ele>
    <time>2017-01-14T14:50:20Z</time>
   </trkpt>
   <trkpt lat="52.6316420" lon="1.2418380">
    <ele>29.4</ele>
    <time>2017-01-14T14:50:21Z</time>
   </trkpt>
   <trkpt lat="52.6315850" lon="1.2418240">
    <ele>29.0</ele>
    <time>2017-01-14T14:50:22Z</time>
   </trkpt>
   <trkpt lat="52.6315290" lon="1.2418110">
    <ele>28.6</ele>
    <time>2017-01-14T14:50:23Z</time>
   </trkpt>
   <trkpt lat="52.6314840" lon="1.2417920">
    <ele>28.3</ele>
    <time>2017-01-14T14:50:24Z</time>
   </trkpt>
   <trkpt lat="52.6314420" lon="1.2417690">
    <ele>28.1</ele>
    <time>2017-01-14T14:50:25Z</time>
   </trkpt>
   <trkpt lat="52.6314080" lon="1.2417590">
    <ele>27.6</ele>
    <time>2017-01-14T14:50:26Z</time>
   </trkpt>
   <trkpt lat="52.6313700" lon="1.2417680">
    <ele>27.1</ele>
    <time>2017-01-14T14:50:27Z</time>
   </trkpt>
   <trkpt lat="52.6313180" lon="1.2417850">
    <ele>26.7</ele>
    <time>2017-01-14T14:50:28Z</time>
   </trkpt>
   <trkpt lat="52.6312840" lon="1.2418210">
    <ele>27.1</ele>
    <time>2017-01-14T14:50:29Z</time>
   </trkpt>
   <trkpt lat="52.6312540" lon="1.2418880">
    <ele>27.6</ele>
    <time>2017-01-14T14:50:30Z</time>
   </trkpt>
   <trkpt lat="52.6312010" lon="1.2419630">
    <ele>28.0</ele>
    <time>2017-01-14T14:50:31Z</time>
   </trkpt>
   <trkpt lat="52.6311800" lon="1.2420150">
    <ele>28.0</ele>
    <time>2017-01-14T14:50:32Z</time>
   </trkpt>
   <trkpt lat="52.6311410" lon="1.2421000">
    <ele>28.0</ele>
    <time>2017-01-14T14:50:33Z</time>
   </trkpt>
   <trkpt lat="52.6311000" lon="1.2421510">
    <ele>28.0</ele>
    <time>2017-01-14T14:50:34Z</time>
   </trkpt>
   <trkpt lat="52.6310710" lon="1.2422050">
    <ele>28.0</ele>
    <time>2017-01-14T14:50:35Z</time>
   </trkpt>
   <trkpt lat="52.6310400" lon="1.2422750">
    <ele>28.0</ele>
    <time>2017-01-14T14:50:36Z</time>
   </trkpt>
   <trkpt lat="52.6310120" lon="1.2423290">
    <ele>27.9</ele>
    <time>2017-01-14T14:50:37Z</time>
   </trkpt>
   <trkpt lat="52.6309870" lon="1.2423690">
    <ele>27.9</ele>
    <time>2017-01-14T14:50:38Z</time>
   </trkpt>
   <trkpt lat="52.6309550" lon="1.2424030">
    <ele>27.9</ele>
    <time>2017-01-14T14:50:39Z</time>
   </trkpt>
   <trkpt lat="52.6309270" lon="1.2423900">
    <ele>27.9</ele>
    <time>2017-01-14T14:50:40Z</time>
   </trkpt>
   <trkpt lat="52.6308900" lon="1.2424270">
    <ele>27.9</ele>
    <time>2017-01-14T14:50:41Z</time>
   </trkpt>
   <trkpt lat="52.6308630" lon="1.2424470">
    <ele>28.0</ele>
    <time>2017-01-14T14:50:42Z</time>
   </trkpt>
   <trkpt lat="52.6308150" lon="1.2424240">
    <ele>28.1</ele>
    <time>2017-01-14T14:50:44Z</time>
   </trkpt>
   <trkpt lat="52.6307840" lon="1.2423940">
    <ele>28.2</ele>
    <time>2017-01-14T14:50:46Z</time>
   </trkpt>
   <trkpt lat="52.6307740" lon="1.2423510">
    <ele>28.3</ele>
    <time>2017-01-14T14:50:51Z</time>
   </trkpt>
   <trkpt lat="52.6307490" lon="1.2423120">
    <ele>28.4</ele>
    <time>2017-01-14T14:51:04Z</time>
   </trkpt>
  </trkseg>
 </trk>
</gpx>
