<?xml version="1.0" encoding="UTF-8"?>
<gpx xmlns="http://www.topografix.com/GPX/1/1" xmlns:xsi="http://www.w3.org/2001/XMLSchema-instance" xsi:schemaLocation="http://www.topografix.com/GPX/1/1 http://www.topografix.com/GPX/1/1/gpx.xsd" version="1.1" creator="gpx.py -- https://github.com/tkrajina/gpxpy">
  <trk>
    <trkseg>
      <trkpt lat="50.541027411818504" lon="3.013833062723279">
        <ele>23.600000000000023</ele>
        <time>2025-04-10T06:29:56</time>
      </trkpt>
      <trkpt lat="50.541076865047216" lon="3.0140892136842012">
        <ele>23.600000000000023</ele>
        <time>2025-04-10T06:30:03</time>
      </trkpt>
      <trkpt lat="50.541091030463576" lon="3.014245619997382">
        <ele>23.600000000000023</ele>
        <time>2025-04-10T06:30:08</time>
      </trkpt>
      <trkpt lat="50.5410813074559" lon="3.0142653174698353">
        <ele>23.600000000000023</ele>
        <time>2025-04-10T06:30:09</time>
      </trkpt>
      <trkpt lat="50.54100134409964" lon="3.0143203865736723">
        <ele>23.600000000000023</ele>
        <time>2025-04-10T06:30:14</time>
      </trkpt>
      <trkpt lat="50.54098625667393" lon="3.0143241584300995">
        <ele>23.600000000000023</ele>
        <time>2025-04-10T06:30:20</time>
      </trkpt>
      <trkpt lat="50.54098768159747" lon="3.0143267568200827">
        <ele>23.600000000000023</ele>
        <time>2025-04-10T06:30:36</time>
      </trkpt>
      <trkpt lat="50.5409880168736" lon="3.014325499534607">
        <ele>23.600000000000023</ele>
        <time>2025-04-10T06:31:04</time>
      </trkpt>
      <trkpt lat="50.540970331057906" lon="3.014321392402053">
        <ele>23.600000000000023</ele>
        <time>2025-04-10T06:31:15</time>
      </trkpt>
      <trkpt lat="50.54095675237477" lon="3.014319548383355">
        <ele>23.600000000000023</ele>
        <time>2025-04-10T06:31:16</time>
      </trkpt>
      <trkpt lat="50.54089715704322" lon="3.0143301095813513">
        <ele>23.600000000000023</ele>
        <time>2025-04-10T06:31:20</time>
      </trkpt>
      <trkpt lat="50.54085952229798" lon="3.014308987185359">
        <ele>23.600000000000023</ele>
        <time>2025-04-10T06:31:25</time>
      </trkpt>
      <trkpt lat="50.54084770381451" lon="3.014318458735943">
        <ele>23.600000000000023</ele>
        <time>2025-04-10T06:31:32</time>
      </trkpt>
      <trkpt lat="50.54083865135908" lon="3.014362882822752">
        <ele>23.799999999999955</ele>
        <time>2025-04-10T06:31:42</time>
      </trkpt>
      <trkpt lat="50.540832951664925" lon="3.0143738631159067">
        <ele>23.799999999999955</ele>
        <time>2025-04-10T06:31:43</time>
      </trkpt>
      <trkpt lat="50.54079766385257" lon="3.0143895372748375">
        <ele>23.799999999999955</ele>
        <time>2025-04-10T06:31:47</time>
      </trkpt>
      <trkpt lat="50.54077805019915" lon="3.014411749318242">
        <ele>23.799999999999955</ele>
        <time>2025-04-10T06:31:49</time>
      </trkpt>
      <trkpt lat="50.54077612236142" lon="3.014464136213064">
        <ele>23.600000000000023</ele>
        <time>2025-04-10T06:31:52</time>
      </trkpt>
      <trkpt lat="50.54078919813037" lon="3.0145038664340973">
        <ele>23.600000000000023</ele>
        <time>2025-04-10T06:31:56</time>
      </trkpt>
      <trkpt lat="50.54079992696643" lon="3.0145465303212404">
        <ele>23.600000000000023</ele>
        <time>2025-04-10T06:31:59</time>
      </trkpt>
      <trkpt lat="50.5408064648509" lon="3.014595815911889">
        <ele>23.600000000000023</ele>
        <time>2025-04-10T06:32:06</time>
      </trkpt>
      <trkpt lat="50.5408064648509" lon="3.014598833397031">
        <ele>23.600000000000023</ele>
        <time>2025-04-10T06:32:19</time>
      </trkpt>
      <trkpt lat="50.540819708257914" lon="3.0146042816340923">
        <ele>23.600000000000023</ele>
        <time>2025-04-10T06:32:29</time>
      </trkpt>
      <trkpt lat="50.54082146845758" lon="3.0145995877683163">
        <ele>23.600000000000023</ele>
        <time>2025-04-10T06:32:30</time>
      </trkpt>
      <trkpt lat="50.54080529138446" lon="3.0145583488047123">
        <ele>23.600000000000023</ele>
        <time>2025-04-10T06:32:35</time>
      </trkpt>
      <trkpt lat="50.54081954061985" lon="3.0144399125128984">
        <ele>23.600000000000023</ele>
        <time>2025-04-10T06:32:38</time>
      </trkpt>
      <trkpt lat="50.5409100651741" lon="3.0143514834344387">
        <ele>23.600000000000023</ele>
        <time>2025-04-10T06:32:41</time>
      </trkpt>
      <trkpt lat="50.54094719700515" lon="3.0143348034471273">
        <ele>23.600000000000023</ele>
        <time>2025-04-10T06:32:42</time>
      </trkpt>
      <trkpt lat="50.54117292165756" lon="3.0142918042838573">
        <ele>23.600000000000023</ele>
        <time>2025-04-10T06:32:48</time>
      </trkpt>
      <trkpt lat="50.541438376531005" lon="3.014397332444787">
        <ele>23.600000000000023</ele>
        <time>2025-04-10T06:32:55</time>
      </trkpt>
      <trkpt lat="50.54163945838809" lon="3.0146236438304186">
        <ele>23.399999999999977</ele>
        <time>2025-04-10T06:33:02</time>
      </trkpt>
      <trkpt lat="50.54176242090762" lon="3.0148984026163816">
        <ele>23.399999999999977</ele>
        <time>2025-04-10T06:33:08</time>
      </trkpt>
      <trkpt lat="50.54186065681279" lon="3.015317330136895">
        <ele>23.600000000000023</ele>
        <time>2025-04-10T06:33:16</time>
      </trkpt>
      <trkpt lat="50.54190382361412" lon="3.0156208388507366">
        <ele>23.600000000000023</ele>
        <time>2025-04-10T06:33:22</time>
      </trkpt>
      <trkpt lat="50.541936345398426" lon="3.0158693622797728">
        <ele>23.600000000000023</ele>
        <time>2025-04-10T06:33:28</time>
      </trkpt>
      <trkpt lat="50.54198403842747" lon="3.015966508537531">
        <ele>23.399999999999977</ele>
        <time>2025-04-10T06:33:32</time>
      </trkpt>
      <trkpt lat="50.54200063459575" lon="3.0160052329301834">
        <ele>23.399999999999977</ele>
        <time>2025-04-10T06:33:34</time>
      </trkpt>
      <trkpt lat="50.54201806895435" lon="3.0160128604620695">
        <ele>23.399999999999977</ele>
        <time>2025-04-10T06:33:36</time>
      </trkpt>
      <trkpt lat="50.5420187395066" lon="3.0160125251859426">
        <ele>23.399999999999977</ele>
        <time>2025-04-10T06:33:38</time>
      </trkpt>
      <trkpt lat="50.54201815277338" lon="3.0160090047866106">
        <ele>23.399999999999977</ele>
        <time>2025-04-10T06:33:51</time>
      </trkpt>
      <trkpt lat="50.54201815277338" lon="3.0160061549395323">
        <ele>23.399999999999977</ele>
        <time>2025-04-10T06:34:03</time>
      </trkpt>
      <trkpt lat="50.542028630152345" lon="3.0160019639879465">
        <ele>23.399999999999977</ele>
        <time>2025-04-10T06:34:12</time>
      </trkpt>
      <trkpt lat="50.542090237140656" lon="3.015962988138199">
        <ele>23.600000000000023</ele>
        <time>2025-04-10T06:34:16</time>
      </trkpt>
      <trkpt lat="50.54210322909057" lon="3.0159474816173315">
        <ele>23.600000000000023</ele>
        <time>2025-04-10T06:34:17</time>
      </trkpt>
      <trkpt lat="50.542208002880216" lon="3.0158749781548977">
        <ele>23.600000000000023</ele>
        <time>2025-04-10T06:34:21</time>
      </trkpt>
      <trkpt lat="50.54257856681943" lon="3.0156662687659264">
        <ele>23.399999999999977</ele>
        <time>2025-04-10T06:34:31</time>
      </trkpt>
      <trkpt lat="50.54285500198603" lon="3.015521429479122">
        <ele>23.399999999999977</ele>
        <time>2025-04-10T06:34:39</time>
      </trkpt>
      <trkpt lat="50.54301979020238" lon="3.0154327489435673">
        <ele>23.399999999999977</ele>
        <time>2025-04-10T06:34:45</time>
      </trkpt>
      <trkpt lat="50.54315758869052" lon="3.015507012605667">
        <ele>23.600000000000023</ele>
        <time>2025-04-10T06:34:49</time>
      </trkpt>
      <trkpt lat="50.54318759590387" lon="3.0155475810170174">
        <ele>23.600000000000023</ele>
        <time>2025-04-10T06:34:50</time>
      </trkpt>
      <trkpt lat="50.54325909353793" lon="3.015714045614004">
        <ele>23.600000000000023</ele>
        <time>2025-04-10T06:34:53</time>
      </trkpt>
      <trkpt lat="50.543289268389344" lon="3.015903476625681">
        <ele>23.600000000000023</ele>
        <time>2025-04-10T06:34:56</time>
      </trkpt>
      <trkpt lat="50.54331894032657" lon="3.016098439693451">
        <ele>23.399999999999977</ele>
        <time>2025-04-10T06:34:59</time>
      </trkpt>
      <trkpt lat="50.543418349698186" lon="3.016714258119464">
        <ele>23.0</ele>
        <time>2025-04-10T06:35:08</time>
      </trkpt>
      <trkpt lat="50.54348045960069" lon="3.017465528100729">
        <ele>22.600000000000023</ele>
        <time>2025-04-10T06:35:18</time>
      </trkpt>
      <trkpt lat="50.5434675514698" lon="3.017626041546464">
        <ele>22.600000000000023</ele>
        <time>2025-04-10T06:35:20</time>
      </trkpt>
      <trkpt lat="50.54341617040336" lon="3.017929717898369">
        <ele>22.399999999999977</ele>
        <time>2025-04-10T06:35:24</time>
      </trkpt>
      <trkpt lat="50.543274180963635" lon="3.0184838455170393">
        <ele>22.399999999999977</ele>
        <time>2025-04-10T06:35:31</time>
      </trkpt>
      <trkpt lat="50.54309271275997" lon="3.0189013481140137">
        <ele>22.600000000000023</ele>
        <time>2025-04-10T06:35:37</time>
      </trkpt>
      <trkpt lat="50.54283371195197" lon="3.0192907713353634">
        <ele>23.0</ele>
        <time>2025-04-10T06:35:44</time>
      </trkpt>
      <trkpt lat="50.542639000341296" lon="3.0195124726742506">
        <ele>23.600000000000023</ele>
        <time>2025-04-10T06:35:49</time>
      </trkpt>
      <trkpt lat="50.542529532685876" lon="3.0196432303637266">
        <ele>23.799999999999955</ele>
        <time>2025-04-10T06:35:52</time>
      </trkpt>
      <trkpt lat="50.54227874614298" lon="3.019939363002777">
        <ele>23.799999999999955</ele>
        <time>2025-04-10T06:35:59</time>
      </trkpt>
      <trkpt lat="50.54207858629525" lon="3.0202466435730457">
        <ele>23.799999999999955</ele>
        <time>2025-04-10T06:36:06</time>
      </trkpt>
      <trkpt lat="50.54188295267522" lon="3.020485443994403">
        <ele>24.0</ele>
        <time>2025-04-10T06:36:13</time>
      </trkpt>
      <trkpt lat="50.541857136413455" lon="3.0205220729112625">
        <ele>24.200000000000045</ele>
        <time>2025-04-10T06:36:19</time>
      </trkpt>
      <trkpt lat="50.541859064251184" lon="3.020523078739643">
        <ele>24.399999999999977</ele>
        <time>2025-04-10T06:36:33</time>
      </trkpt>
      <trkpt lat="50.54186082445085" lon="3.0205246713012457">
        <ele>24.399999999999977</ele>
        <time>2025-04-10T06:36:49</time>
      </trkpt>
      <trkpt lat="50.54186090826988" lon="3.0205244198441505">
        <ele>24.600000000000023</ele>
        <time>2025-04-10T06:37:01</time>
      </trkpt>
      <trkpt lat="50.54186082445085" lon="3.0205241683870554">
        <ele>24.600000000000023</ele>
        <time>2025-04-10T06:37:03</time>
      </trkpt>
      <trkpt lat="50.54186065681279" lon="3.020524000748992">
        <ele>24.600000000000023</ele>
        <time>2025-04-10T06:37:04</time>
      </trkpt>
      <trkpt lat="50.54181975312531" lon="3.020590888336301">
        <ele>24.600000000000023</ele>
        <time>2025-04-10T06:37:07</time>
      </trkpt>
      <trkpt lat="50.54183961823583" lon="3.0207291059195995">
        <ele>24.799999999999955</ele>
        <time>2025-04-10T06:37:10</time>
      </trkpt>
      <trkpt lat="50.54192125797272" lon="3.0208653956651688">
        <ele>24.799999999999955</ele>
        <time>2025-04-10T06:37:13</time>
      </trkpt>
      <trkpt lat="50.54197842255235" lon="3.020953740924597">
        <ele>24.799999999999955</ele>
        <time>2025-04-10T06:37:15</time>
      </trkpt>
      <trkpt lat="50.54212753660977" lon="3.0211449321359396">
        <ele>24.799999999999955</ele>
        <time>2025-04-10T06:37:20</time>
      </trkpt>
      <trkpt lat="50.54239433258772" lon="3.0214318446815014">
        <ele>24.799999999999955</ele>
        <time>2025-04-10T06:37:27</time>
      </trkpt>
      <trkpt lat="50.54269985295832" lon="3.021802408620715">
        <ele>24.600000000000023</ele>
        <time>2025-04-10T06:37:35</time>
      </trkpt>
      <trkpt lat="50.542979976162314" lon="3.0221507605165243">
        <ele>24.799999999999955</ele>
        <time>2025-04-10T06:37:43</time>
      </trkpt>
      <trkpt lat="50.543285328894854" lon="3.0225562769919634">
        <ele>24.799999999999955</ele>
        <time>2025-04-10T06:37:52</time>
      </trkpt>
      <trkpt lat="50.54356218315661" lon="3.022946622222662">
        <ele>24.799999999999955</ele>
        <time>2025-04-10T06:38:00</time>
      </trkpt>
      <trkpt lat="50.54398781619966" lon="3.02350502461195">
        <ele>24.600000000000023</ele>
        <time>2025-04-10T06:38:12</time>
      </trkpt>
      <trkpt lat="50.544237261638045" lon="3.023829236626625">
        <ele>24.600000000000023</ele>
        <time>2025-04-10T06:38:19</time>
      </trkpt>
      <trkpt lat="50.54444454610348" lon="3.024113215506077">
        <ele>25.0</ele>
        <time>2025-04-10T06:38:25</time>
      </trkpt>
      <trkpt lat="50.54466750472784" lon="3.02439090795815">
        <ele>25.0</ele>
        <time>2025-04-10T06:38:32</time>
      </trkpt>
      <trkpt lat="50.54489649832249" lon="3.0246469751000404">
        <ele>25.200000000000045</ele>
        <time>2025-04-10T06:38:38</time>
      </trkpt>
      <trkpt lat="50.54507394321263" lon="3.0248808301985264">
        <ele>25.200000000000045</ele>
        <time>2025-04-10T06:38:43</time>
      </trkpt>
      <trkpt lat="50.5450995080173" lon="3.024933049455285">
        <ele>25.200000000000045</ele>
        <time>2025-04-10T06:38:44</time>
      </trkpt>
      <trkpt lat="50.54519372060895" lon="3.025062046945095">
        <ele>25.0</ele>
        <time>2025-04-10T06:38:47</time>
      </trkpt>
      <trkpt lat="50.54529187269509" lon="3.0251899547874928">
        <ele>25.200000000000045</ele>
        <time>2025-04-10T06:38:50</time>
      </trkpt>
      <trkpt lat="50.54549085907638" lon="3.025487009435892">
        <ele>25.200000000000045</ele>
        <time>2025-04-10T06:38:57</time>
      </trkpt>
      <trkpt lat="50.54559538140893" lon="3.025654060766101">
        <ele>25.200000000000045</ele>
        <time>2025-04-10T06:39:01</time>
      </trkpt>
      <trkpt lat="50.54566713050008" lon="3.0257339403033257">
        <ele>25.399999999999977</ele>
        <time>2025-04-10T06:39:03</time>
      </trkpt>
      <trkpt lat="50.54570686072111" lon="3.025772077962756">
        <ele>25.399999999999977</ele>
        <time>2025-04-10T06:39:04</time>
      </trkpt>
      <trkpt lat="50.5458231177181" lon="3.0259059369564056">
        <ele>25.600000000000023</ele>
        <time>2025-04-10T06:39:07</time>
      </trkpt>
      <trkpt lat="50.54608597420156" lon="3.0262149777263403">
        <ele>25.600000000000023</ele>
        <time>2025-04-10T06:39:14</time>
      </trkpt>
      <trkpt lat="50.5463704559952" lon="3.026560479775071">
        <ele>25.399999999999977</ele>
        <time>2025-04-10T06:39:22</time>
      </trkpt>
      <trkpt lat="50.54653490893543" lon="3.026738092303276">
        <ele>25.399999999999977</ele>
        <time>2025-04-10T06:39:27</time>
      </trkpt>
      <trkpt lat="50.546566508710384" lon="3.0267639085650444">
        <ele>25.399999999999977</ele>
        <time>2025-04-10T06:39:28</time>
      </trkpt>
      <trkpt lat="50.546706821769476" lon="3.026898857206106">
        <ele>25.200000000000045</ele>
        <time>2025-04-10T06:39:34</time>
      </trkpt>
      <trkpt lat="50.54680673405528" lon="3.026998769491911">
        <ele>25.200000000000045</ele>
        <time>2025-04-10T06:39:39</time>
      </trkpt>
      <trkpt lat="50.547089874744415" lon="3.027267325669527">
        <ele>25.200000000000045</ele>
        <time>2025-04-10T06:39:47</time>
      </trkpt>
      <trkpt lat="50.54735843092203" lon="3.0275072995573282">
        <ele>25.200000000000045</ele>
        <time>2025-04-10T06:39:54</time>
      </trkpt>
      <trkpt lat="50.54765892215073" lon="3.0277855787426233">
        <ele>25.200000000000045</ele>
        <time>2025-04-10T06:40:02</time>
      </trkpt>
      <trkpt lat="50.54769437760115" lon="3.0278264824301004">
        <ele>25.200000000000045</ele>
        <time>2025-04-10T06:40:03</time>
      </trkpt>
      <trkpt lat="50.54776646196842" lon="3.0279006622731686">
        <ele>25.200000000000045</ele>
        <time>2025-04-10T06:40:05</time>
      </trkpt>
      <trkpt lat="50.54795798845589" lon="3.028054889291525">
        <ele>25.399999999999977</ele>
        <time>2025-04-10T06:40:10</time>
      </trkpt>
      <trkpt lat="50.547999227419496" lon="3.028088668361306">
        <ele>25.399999999999977</ele>
        <time>2025-04-10T06:40:11</time>
      </trkpt>
      <trkpt lat="50.54814658127725" lon="3.028225041925907">
        <ele>25.399999999999977</ele>
        <time>2025-04-10T06:40:15</time>
      </trkpt>
      <trkpt lat="50.54818170145154" lon="3.028257815167308">
        <ele>25.399999999999977</ele>
        <time>2025-04-10T06:40:16</time>
      </trkpt>
      <trkpt lat="50.54841237142682" lon="3.028442971408367">
        <ele>25.600000000000023</ele>
        <time>2025-04-10T06:40:22</time>
      </trkpt>
      <trkpt lat="50.548719903454185" lon="3.0287143774330616">
        <ele>25.799999999999955</ele>
        <time>2025-04-10T06:40:31</time>
      </trkpt>
      <trkpt lat="50.54884999059141" lon="3.02886039018631">
        <ele>26.0</ele>
        <time>2025-04-10T06:40:36</time>
      </trkpt>
      <trkpt lat="50.54885694757104" lon="3.028911938890815">
        <ele>26.0</ele>
        <time>2025-04-10T06:40:37</time>
      </trkpt>
      <trkpt lat="50.54882425814867" lon="3.0290748830884695">
        <ele>26.200000000000045</ele>
        <time>2025-04-10T06:40:40</time>
      </trkpt>
      <trkpt lat="50.54880179464817" lon="3.0291306227445602">
        <ele>26.200000000000045</ele>
        <time>2025-04-10T06:40:41</time>
      </trkpt>
      <trkpt lat="50.54859601892531" lon="3.0296337883919477">
        <ele>26.399999999999977</ele>
        <time>2025-04-10T06:40:49</time>
      </trkpt>
      <trkpt lat="50.548413544893265" lon="3.0301298294216394">
        <ele>26.799999999999955</ele>
        <time>2025-04-10T06:40:56</time>
      </trkpt>
      <trkpt lat="50.548279182985425" lon="3.0305547919124365">
        <ele>26.799999999999955</ele>
        <time>2025-04-10T06:41:02</time>
      </trkpt>
      <trkpt lat="50.54809276945889" lon="3.0310174729675055">
        <ele>27.0</ele>
        <time>2025-04-10T06:41:09</time>
      </trkpt>
      <trkpt lat="50.54794583469629" lon="3.0313882045447826">
        <ele>27.0</ele>
        <time>2025-04-10T06:41:16</time>
      </trkpt>
      <trkpt lat="50.54788079112768" lon="3.0315558426082134">
        <ele>27.200000000000045</ele>
        <time>2025-04-10T06:41:19</time>
      </trkpt>
      <trkpt lat="50.54782941006124" lon="3.0317663121968508">
        <ele>27.200000000000045</ele>
        <time>2025-04-10T06:41:22</time>
      </trkpt>
      <trkpt lat="50.5476863309741" lon="3.0323406402021646">
        <ele>27.600000000000023</ele>
        <time>2025-04-10T06:41:30</time>
      </trkpt>
      <trkpt lat="50.54762799292803" lon="3.032569969072938">
        <ele>27.600000000000023</ele>
        <time>2025-04-10T06:41:33</time>
      </trkpt>
      <trkpt lat="50.547499833628535" lon="3.033018736168742">
        <ele>28.200000000000045</ele>
        <time>2025-04-10T06:41:40</time>
      </trkpt>
      <trkpt lat="50.54739078506827" lon="3.0333920661360025">
        <ele>28.200000000000045</ele>
        <time>2025-04-10T06:41:46</time>
      </trkpt>
      <trkpt lat="50.54735876619816" lon="3.0335149448364973">
        <ele>28.399999999999977</ele>
        <time>2025-04-10T06:41:48</time>
      </trkpt>
      <trkpt lat="50.54732565768063" lon="3.033639080822468">
        <ele>28.600000000000023</ele>
        <time>2025-04-10T06:41:50</time>
      </trkpt>
      <trkpt lat="50.54727871902287" lon="3.0338244885206223">
        <ele>29.0</ele>
        <time>2025-04-10T06:41:53</time>
      </trkpt>
      <trkpt lat="50.54727578535676" lon="3.0338882748037577">
        <ele>29.0</ele>
        <time>2025-04-10T06:41:54</time>
      </trkpt>
      <trkpt lat="50.54734996519983" lon="3.034123722463846">
        <ele>29.200000000000045</ele>
        <time>2025-04-10T06:41:58</time>
      </trkpt>
      <trkpt lat="50.54746622219682" lon="3.034223634749651">
        <ele>29.399999999999977</ele>
        <time>2025-04-10T06:42:01</time>
      </trkpt>
      <trkpt lat="50.54755389690399" lon="3.0342679750174284">
        <ele>29.399999999999977</ele>
        <time>2025-04-10T06:42:03</time>
      </trkpt>
      <trkpt lat="50.54807282052934" lon="3.0345206893980503">
        <ele>29.600000000000023</ele>
        <time>2025-04-10T06:42:15</time>
      </trkpt>
      <trkpt lat="50.54815739393234" lon="3.0345631018280983">
        <ele>29.600000000000023</ele>
        <time>2025-04-10T06:42:17</time>
      </trkpt>
      <trkpt lat="50.54845352657139" lon="3.034714898094535">
        <ele>29.799999999999955</ele>
        <time>2025-04-10T06:42:24</time>
      </trkpt>
      <trkpt lat="50.5487899761647" lon="3.034905754029751">
        <ele>29.799999999999955</ele>
        <time>2025-04-10T06:42:33</time>
      </trkpt>
      <trkpt lat="50.54881193675101" lon="3.034935677424073">
        <ele>29.600000000000023</ele>
        <time>2025-04-10T06:42:34</time>
      </trkpt>
      <trkpt lat="50.54884714074433" lon="3.035030895844102">
        <ele>29.600000000000023</ele>
        <time>2025-04-10T06:42:37</time>
      </trkpt>
      <trkpt lat="50.54894302971661" lon="3.0350966937839985">
        <ele>29.600000000000023</ele>
        <time>2025-04-10T06:42:41</time>
      </trkpt>
      <trkpt lat="50.54896985180676" lon="3.035113038495183">
        <ele>29.600000000000023</ele>
        <time>2025-04-10T06:42:42</time>
      </trkpt>
      <trkpt lat="50.549032129347324" lon="3.0351742263883352">
        <ele>29.600000000000023</ele>
        <time>2025-04-10T06:42:45</time>
      </trkpt>
      <trkpt lat="50.54903388954699" lon="3.0352020543068647">
        <ele>29.600000000000023</ele>
        <time>2025-04-10T06:42:46</time>
      </trkpt>
      <trkpt lat="50.54899097420275" lon="3.0352274514734745">
        <ele>29.600000000000023</ele>
        <time>2025-04-10T06:42:49</time>
      </trkpt>
      <trkpt lat="50.54891796782613" lon="3.035188475623727">
        <ele>29.399999999999977</ele>
        <time>2025-04-10T06:42:52</time>
      </trkpt>
      <trkpt lat="50.54884135723114" lon="3.035138687118888">
        <ele>29.200000000000045</ele>
        <time>2025-04-10T06:42:55</time>
      </trkpt>
      <trkpt lat="50.548799028620124" lon="3.035129802301526">
        <ele>29.200000000000045</ele>
        <time>2025-04-10T06:42:58</time>
      </trkpt>
      <trkpt lat="50.54879458621144" lon="3.0351455602794886">
        <ele>29.0</ele>
        <time>2025-04-10T06:42:59</time>
      </trkpt>
      <trkpt lat="50.54881193675101" lon="3.0351674370467663">
        <ele>28.799999999999955</ele>
        <time>2025-04-10T06:43:01</time>
      </trkpt>
      <trkpt lat="50.54885258898139" lon="3.0351888108998537">
        <ele>28.600000000000023</ele>
        <time>2025-04-10T06:43:03</time>
      </trkpt>
      <trkpt lat="50.54890422150493" lon="3.0352241825312376">
        <ele>28.399999999999977</ele>
        <time>2025-04-10T06:43:05</time>
      </trkpt>
      <trkpt lat="50.54901234805584" lon="3.0352806765586138">
        <ele>28.200000000000045</ele>
        <time>2025-04-10T06:43:09</time>
      </trkpt>
      <trkpt lat="50.549059957265854" lon="3.0353561136871576">
        <ele>28.0</ele>
        <time>2025-04-10T06:43:13</time>
      </trkpt>
      <trkpt lat="50.54905350320041" lon="3.0353906471282244">
        <ele>28.0</ele>
        <time>2025-04-10T06:43:14</time>
      </trkpt>
      <trkpt lat="50.54901427589357" lon="3.0354860331863165">
        <ele>27.799999999999955</ele>
        <time>2025-04-10T06:43:17</time>
      </trkpt>
      <trkpt lat="50.54897043853998" lon="3.0355817545205355">
        <ele>27.399999999999977</ele>
        <time>2025-04-10T06:43:20</time>
      </trkpt>
      <trkpt lat="50.54892886430025" lon="3.035689629614353">
        <ele>27.399999999999977</ele>
        <time>2025-04-10T06:43:23</time>
      </trkpt>
      <trkpt lat="50.54889474995434" lon="3.0357286892831326">
        <ele>27.200000000000045</ele>
        <time>2025-04-10T06:43:25</time>
      </trkpt>
      <trkpt lat="50.54888812825084" lon="3.0357472971081734">
        <ele>27.200000000000045</ele>
        <time>2025-04-10T06:43:26</time>
      </trkpt>
      <trkpt lat="50.548834735527635" lon="3.035774789750576">
        <ele>27.200000000000045</ele>
        <time>2025-04-10T06:43:30</time>
      </trkpt>
      <trkpt lat="50.54882702417672" lon="3.0357982590794563">
        <ele>27.200000000000045</ele>
        <time>2025-04-10T06:43:31</time>
      </trkpt>
      <trkpt lat="50.54875963367522" lon="3.0359970778226852">
        <ele>27.200000000000045</ele>
        <time>2025-04-10T06:43:36</time>
      </trkpt>
      <trkpt lat="50.54870498366654" lon="3.0361519753932953">
        <ele>27.399999999999977</ele>
        <time>2025-04-10T06:43:41</time>
      </trkpt>
      <trkpt lat="50.54873331449926" lon="3.036135211586952">
        <ele>27.799999999999955</ele>
        <time>2025-04-10T06:43:44</time>
      </trkpt>
      <trkpt lat="50.54878477938473" lon="3.035959443077445">
        <ele>28.0</ele>
        <time>2025-04-10T06:43:50</time>
      </trkpt>
      <trkpt lat="50.54880363866687" lon="3.035901691764593">
        <ele>28.0</ele>
        <time>2025-04-10T06:43:52</time>
      </trkpt>
      <trkpt lat="50.54883750155568" lon="3.035904373973608">
        <ele>28.200000000000045</ele>
        <time>2025-04-10T06:43:54</time>
      </trkpt>
      <trkpt lat="50.54885745048523" lon="3.0359828285872936">
        <ele>28.399999999999977</ele>
        <time>2025-04-10T06:43:57</time>
      </trkpt>
      <trkpt lat="50.548847895115614" lon="3.0360146798193455">
        <ele>28.399999999999977</ele>
        <time>2025-04-10T06:43:58</time>
      </trkpt>
      <trkpt lat="50.54883540607989" lon="3.036048961803317">
        <ele>28.600000000000023</ele>
        <time>2025-04-10T06:43:59</time>
      </trkpt>
      <trkpt lat="50.54877924732864" lon="3.0362706631422043">
        <ele>29.0</ele>
        <time>2025-04-10T06:44:05</time>
      </trkpt>
      <trkpt lat="50.54874404333532" lon="3.0364920292049646">
        <ele>29.200000000000045</ele>
        <time>2025-04-10T06:44:10</time>
      </trkpt>
      <trkpt lat="50.5486432928592" lon="3.036847673356533">
        <ele>29.399999999999977</ele>
        <time>2025-04-10T06:44:17</time>
      </trkpt>
      <trkpt lat="50.54853122681379" lon="3.037195522338152">
        <ele>29.200000000000045</ele>
        <time>2025-04-10T06:44:24</time>
      </trkpt>
      <trkpt lat="50.548405749723315" lon="3.037572121247649">
        <ele>29.0</ele>
        <time>2025-04-10T06:44:31</time>
      </trkpt>
      <trkpt lat="50.548302149400115" lon="3.037924077361822">
        <ele>28.399999999999977</ele>
        <time>2025-04-10T06:44:38</time>
      </trkpt>
      <trkpt lat="50.54816963151097" lon="3.038278128951788">
        <ele>28.0</ele>
        <time>2025-04-10T06:44:46</time>
      </trkpt>
      <trkpt lat="50.54805035702884" lon="3.038622960448265">
        <ele>27.799999999999955</ele>
        <time>2025-04-10T06:44:53</time>
      </trkpt>
      <trkpt lat="50.54788858629763" lon="3.039025543257594">
        <ele>27.600000000000023</ele>
        <time>2025-04-10T06:45:01</time>
      </trkpt>
      <trkpt lat="50.54774969816208" lon="3.03931119851768">
        <ele>27.600000000000023</ele>
        <time>2025-04-10T06:45:07</time>
      </trkpt>
      <trkpt lat="50.547579042613506" lon="3.039729204028845">
        <ele>27.399999999999977</ele>
        <time>2025-04-10T06:45:14</time>
      </trkpt>
      <trkpt lat="50.547369914129376" lon="3.040201188996434">
        <ele>27.0</ele>
        <time>2025-04-10T06:45:22</time>
      </trkpt>
      <trkpt lat="50.54720629937947" lon="3.0406110640615225">
        <ele>26.799999999999955</ele>
        <time>2025-04-10T06:45:29</time>
      </trkpt>
      <trkpt lat="50.547157265245914" lon="3.0407212022691965">
        <ele>26.799999999999955</ele>
        <time>2025-04-10T06:45:31</time>
      </trkpt>
      <trkpt lat="50.54708459414542" lon="3.0408790335059166">
        <ele>26.799999999999955</ele>
        <time>2025-04-10T06:45:34</time>
      </trkpt>
      <trkpt lat="50.546893402934074" lon="3.0412398744374514">
        <ele>26.799999999999955</ele>
        <time>2025-04-10T06:45:41</time>
      </trkpt>
      <trkpt lat="50.546724339947104" lon="3.0415877234190702">
        <ele>26.799999999999955</ele>
        <time>2025-04-10T06:45:48</time>
      </trkpt>
      <trkpt lat="50.54649903438985" lon="3.0420247558504343">
        <ele>26.799999999999955</ele>
        <time>2025-04-10T06:45:56</time>
      </trkpt>
      <trkpt lat="50.54630700498819" lon="3.0423930566757917">
        <ele>26.799999999999955</ele>
        <time>2025-04-10T06:46:02</time>
      </trkpt>
      <trkpt lat="50.5461236089468" lon="3.0427456833422184">
        <ele>26.799999999999955</ele>
        <time>2025-04-10T06:46:08</time>
      </trkpt>
      <trkpt lat="50.545931831002235" lon="3.0431705620139837">
        <ele>27.0</ele>
        <time>2025-04-10T06:46:16</time>
      </trkpt>
      <trkpt lat="50.545783722773194" lon="3.0435132142156363">
        <ele>27.200000000000045</ele>
        <time>2025-04-10T06:46:22</time>
      </trkpt>
      <trkpt lat="50.545761762186885" lon="3.043574905022979">
        <ele>27.200000000000045</ele>
        <time>2025-04-10T06:46:23</time>
      </trkpt>
      <trkpt lat="50.545653300359845" lon="3.0440353229641914">
        <ele>27.0</ele>
        <time>2025-04-10T06:46:30</time>
      </trkpt>
      <trkpt lat="50.5455916095525" lon="3.0444154422730207">
        <ele>27.200000000000045</ele>
        <time>2025-04-10T06:46:36</time>
      </trkpt>
      <trkpt lat="50.54560921154916" lon="3.0446922965347767">
        <ele>27.200000000000045</ele>
        <time>2025-04-10T06:46:41</time>
      </trkpt>
      <trkpt lat="50.5456056073308" lon="3.045007959008217">
        <ele>27.200000000000045</ele>
        <time>2025-04-10T06:46:46</time>
      </trkpt>
      <trkpt lat="50.54560946300626" lon="3.045075349509716">
        <ele>27.200000000000045</ele>
        <time>2025-04-10T06:46:47</time>
      </trkpt>
      <trkpt lat="50.545674841850996" lon="3.0452553927898407">
        <ele>27.200000000000045</ele>
        <time>2025-04-10T06:46:50</time>
      </trkpt>
      <trkpt lat="50.54579436779022" lon="3.045315993949771">
        <ele>27.200000000000045</ele>
        <time>2025-04-10T06:46:53</time>
      </trkpt>
      <trkpt lat="50.54587835446" lon="3.0453001521527767">
        <ele>27.399999999999977</ele>
        <time>2025-04-10T06:46:55</time>
      </trkpt>
      <trkpt lat="50.54598690010607" lon="3.0453252140432596">
        <ele>27.399999999999977</ele>
        <time>2025-04-10T06:46:58</time>
      </trkpt>
      <trkpt lat="50.54615621455014" lon="3.0454235337674618">
        <ele>27.399999999999977</ele>
        <time>2025-04-10T06:47:03</time>
      </trkpt>
      <trkpt lat="50.546345226466656" lon="3.045535432174802">
        <ele>27.799999999999955</ele>
        <time>2025-04-10T06:47:09</time>
      </trkpt>
      <trkpt lat="50.546454610303044" lon="3.045649593695998">
        <ele>28.0</ele>
        <time>2025-04-10T06:47:15</time>
      </trkpt>
      <trkpt lat="50.546470284461975" lon="3.045675912871957">
        <ele>28.200000000000045</ele>
        <time>2025-04-10T06:47:17</time>
      </trkpt>
      <trkpt lat="50.54650314152241" lon="3.0456883180886507">
        <ele>28.200000000000045</ele>
        <time>2025-04-10T06:47:19</time>
      </trkpt>
      <trkpt lat="50.54660791531205" lon="3.0456925090402365">
        <ele>28.399999999999977</ele>
        <time>2025-04-10T06:47:24</time>
      </trkpt>
      <trkpt lat="50.546713108196855" lon="3.045685049146414">
        <ele>28.399999999999977</ele>
        <time>2025-04-10T06:47:27</time>
      </trkpt>
      <trkpt lat="50.54675007238984" lon="3.0457015614956617">
        <ele>28.399999999999977</ele>
        <time>2025-04-10T06:47:28</time>
      </trkpt>
      <trkpt lat="50.54705391637981" lon="3.045908845961094">
        <ele>28.399999999999977</ele>
        <time>2025-04-10T06:47:36</time>
      </trkpt>
      <trkpt lat="50.54736069403589" lon="3.0462532583624125">
        <ele>28.600000000000023</ele>
        <time>2025-04-10T06:47:45</time>
      </trkpt>
      <trkpt lat="50.5475758574903" lon="3.046629186719656">
        <ele>28.799999999999955</ele>
        <time>2025-04-10T06:47:52</time>
      </trkpt>
      <trkpt lat="50.54776847362518" lon="3.0471164267510176">
        <ele>29.600000000000023</ele>
        <time>2025-04-10T06:48:00</time>
      </trkpt>
      <trkpt lat="50.547853549942374" lon="3.047480955719948">
        <ele>30.0</ele>
        <time>2025-04-10T06:48:06</time>
      </trkpt>
      <trkpt lat="50.54791683331132" lon="3.047982444986701">
        <ele>30.200000000000045</ele>
        <time>2025-04-10T06:48:15</time>
      </trkpt>
      <trkpt lat="50.54787693545222" lon="3.0482867918908596">
        <ele>30.399999999999977</ele>
        <time>2025-04-10T06:48:21</time>
      </trkpt>
      <trkpt lat="50.54785715416074" lon="3.048354685306549">
        <ele>30.600000000000023</ele>
        <time>2025-04-10T06:48:22</time>
      </trkpt>
      <trkpt lat="50.54778842255473" lon="3.0486590322107077">
        <ele>30.799999999999955</ele>
        <time>2025-04-10T06:48:26</time>
      </trkpt>
      <trkpt lat="50.547635201364756" lon="3.0489067174494267">
        <ele>30.799999999999955</ele>
        <time>2025-04-10T06:48:30</time>
      </trkpt>
      <trkpt lat="50.547532774508" lon="3.048990536481142">
        <ele>30.799999999999955</ele>
        <time>2025-04-10T06:48:32</time>
      </trkpt>
      <trkpt lat="50.547319035977125" lon="3.0491506308317184">
        <ele>30.799999999999955</ele>
        <time>2025-04-10T06:48:36</time>
      </trkpt>
      <trkpt lat="50.54682626388967" lon="3.049525050446391">
        <ele>30.0</ele>
        <time>2025-04-10T06:48:45</time>
      </trkpt>
      <trkpt lat="50.54634992033243" lon="3.0499330814927816">
        <ele>29.799999999999955</ele>
        <time>2025-04-10T06:48:54</time>
      </trkpt>
      <trkpt lat="50.545999305322766" lon="3.0503619834780693">
        <ele>29.799999999999955</ele>
        <time>2025-04-10T06:49:02</time>
      </trkpt>
      <trkpt lat="50.545749105513096" lon="3.050826508551836">
        <ele>29.799999999999955</ele>
        <time>2025-04-10T06:49:09</time>
      </trkpt>
      <trkpt lat="50.545556992292404" lon="3.051341073587537">
        <ele>30.0</ele>
        <time>2025-04-10T06:49:16</time>
      </trkpt>
      <trkpt lat="50.545436376705766" lon="3.0518988892436028">
        <ele>30.200000000000045</ele>
        <time>2025-04-10T06:49:23</time>
      </trkpt>
      <trkpt lat="50.54530302062631" lon="3.052781755104661">
        <ele>30.799999999999955</ele>
        <time>2025-04-10T06:49:33</time>
      </trkpt>
      <trkpt lat="50.54519682191312" lon="3.053391119465232">
        <ele>31.600000000000023</ele>
        <time>2025-04-10T06:49:40</time>
      </trkpt>
      <trkpt lat="50.545181818306446" lon="3.0534742679446936">
        <ele>31.799999999999955</ele>
        <time>2025-04-10T06:49:41</time>
      </trkpt>
      <trkpt lat="50.54510730318725" lon="3.0538700614124537">
        <ele>32.799999999999955</ele>
        <time>2025-04-10T06:49:46</time>
      </trkpt>
      <trkpt lat="50.54507126100361" lon="3.054077262058854">
        <ele>33.39999999999998</ele>
        <time>2025-04-10T06:49:49</time>
      </trkpt>
      <trkpt lat="50.54504578001797" lon="3.0542079359292984">
        <ele>34.0</ele>
        <time>2025-04-10T06:49:51</time>
      </trkpt>
      <trkpt lat="50.544950645416975" lon="3.054653685539961">
        <ele>34.799999999999955</ele>
        <time>2025-04-10T06:49:58</time>
      </trkpt>
      <trkpt lat="50.544939916580915" lon="3.054710431024432">
        <ele>35.0</ele>
        <time>2025-04-10T06:49:59</time>
      </trkpt>
      <trkpt lat="50.54490068927407" lon="3.0548950005322695">
        <ele>36.0</ele>
        <time>2025-04-10T06:50:03</time>
      </trkpt>
      <trkpt lat="50.54489188827574" lon="3.0549301207065582">
        <ele>36.200000000000045</ele>
        <time>2025-04-10T06:50:04</time>
      </trkpt>
      <trkpt lat="50.544856851920485" lon="3.055089795961976">
        <ele>37.0</ele>
        <time>2025-04-10T06:50:11</time>
      </trkpt>
      <trkpt lat="50.544855343177915" lon="3.0550964176654816">
        <ele>37.200000000000045</ele>
        <time>2025-04-10T06:50:13</time>
      </trkpt>
      <trkpt lat="50.54485559463501" lon="3.0550965014845133">
        <ele>37.39999999999998</ele>
        <time>2025-04-10T06:50:19</time>
      </trkpt>
      <trkpt lat="50.54485014639795" lon="3.0551420990377665">
        <ele>37.39999999999998</ele>
        <time>2025-04-10T06:50:38</time>
      </trkpt>
      <trkpt lat="50.54484277032316" lon="3.05537436157465">
        <ele>37.39999999999998</ele>
        <time>2025-04-10T06:50:42</time>
      </trkpt>
      <trkpt lat="50.54478485137224" lon="3.0558600928634405">
        <ele>37.39999999999998</ele>
        <time>2025-04-10T06:50:48</time>
      </trkpt>
      <trkpt lat="50.54460774175823" lon="3.056559730321169">
        <ele>38.0</ele>
        <time>2025-04-10T06:50:57</time>
      </trkpt>
      <trkpt lat="50.544558791443706" lon="3.0567217525094748">
        <ele>38.200000000000045</ele>
        <time>2025-04-10T06:50:59</time>
      </trkpt>
      <trkpt lat="50.54446700960398" lon="3.057099189609289">
        <ele>38.200000000000045</ele>
        <time>2025-04-10T06:51:03</time>
      </trkpt>
      <trkpt lat="50.54434019140899" lon="3.0578321032226086">
        <ele>37.39999999999998</ele>
        <time>2025-04-10T06:51:10</time>
      </trkpt>
      <trkpt lat="50.54430205374956" lon="3.058062270283699">
        <ele>37.0</ele>
        <time>2025-04-10T06:51:12</time>
      </trkpt>
      <trkpt lat="50.54420951753855" lon="3.0585943534970284">
        <ele>36.0</ele>
        <time>2025-04-10T06:51:17</time>
      </trkpt>
      <trkpt lat="50.544122848659754" lon="3.0591247603297234">
        <ele>35.200000000000045</ele>
        <time>2025-04-10T06:51:23</time>
      </trkpt>
      <trkpt lat="50.54410943761468" lon="3.0592065677046776">
        <ele>35.200000000000045</ele>
        <time>2025-04-10T06:51:24</time>
      </trkpt>
      <trkpt lat="50.54404255002737" lon="3.059507729485631">
        <ele>35.0</ele>
        <time>2025-04-10T06:51:28</time>
      </trkpt>
      <trkpt lat="50.544008519500494" lon="3.0595715157687664">
        <ele>35.0</ele>
        <time>2025-04-10T06:51:29</time>
      </trkpt>
      <trkpt lat="50.543882539495826" lon="3.0597263295203447">
        <ele>35.200000000000045</ele>
        <time>2025-04-10T06:51:32</time>
      </trkpt>
      <trkpt lat="50.54384767077863" lon="3.059788690879941">
        <ele>35.200000000000045</ele>
        <time>2025-04-10T06:51:33</time>
      </trkpt>
      <trkpt lat="50.543794529512525" lon="3.060092618688941">
        <ele>35.39999999999998</ele>
        <time>2025-04-10T06:51:37</time>
      </trkpt>
      <trkpt lat="50.54383107461035" lon="3.060301411896944">
        <ele>35.60000000000002</ele>
        <time>2025-04-10T06:51:40</time>
      </trkpt>
      <trkpt lat="50.54384306073189" lon="3.0603684671223164">
        <ele>35.799999999999955</ele>
        <time>2025-04-10T06:51:41</time>
      </trkpt>
      <trkpt lat="50.54385001771152" lon="3.0604384560137987">
        <ele>35.799999999999955</ele>
        <time>2025-04-10T06:51:42</time>
      </trkpt>
      <trkpt lat="50.54381967522204" lon="3.0607297271490097">
        <ele>36.0</ele>
        <time>2025-04-10T06:51:46</time>
      </trkpt>
      <trkpt lat="50.54374599829316" lon="3.061136668547988">
        <ele>36.200000000000045</ele>
        <time>2025-04-10T06:51:52</time>
      </trkpt>
      <trkpt lat="50.54373560473323" lon="3.0612016282975674">
        <ele>36.39999999999998</ele>
        <time>2025-04-10T06:51:53</time>
      </trkpt>
      <trkpt lat="50.54365153424442" lon="3.06167378090322">
        <ele>37.0</ele>
        <time>2025-04-10T06:52:01</time>
      </trkpt>
      <trkpt lat="50.54364088922739" lon="3.06173094548285">
        <ele>37.39999999999998</ele>
        <time>2025-04-10T06:52:02</time>
      </trkpt>
      <trkpt lat="50.54358825087547" lon="3.062018696218729">
        <ele>38.60000000000002</ele>
        <time>2025-04-10T06:52:07</time>
      </trkpt>
      <trkpt lat="50.54354608990252" lon="3.062242493033409">
        <ele>39.200000000000045</ele>
        <time>2025-04-10T06:52:11</time>
      </trkpt>
      <trkpt lat="50.54352513514459" lon="3.062352715060115">
        <ele>39.60000000000002</ele>
        <time>2025-04-10T06:52:13</time>
      </trkpt>
      <trkpt lat="50.54346822202206" lon="3.0626708921045065">
        <ele>40.799999999999955</ele>
        <time>2025-04-10T06:52:19</time>
      </trkpt>
      <trkpt lat="50.54344793781638" lon="3.062774743884802">
        <ele>41.200000000000045</ele>
        <time>2025-04-10T06:52:21</time>
      </trkpt>
      <trkpt lat="50.54338725283742" lon="3.0631034821271896">
        <ele>42.0</ele>
        <time>2025-04-10T06:52:27</time>
      </trkpt>
      <trkpt lat="50.54334660060704" lon="3.0633338168263435">
        <ele>42.39999999999998</ele>
        <time>2025-04-10T06:52:31</time>
      </trkpt>
      <trkpt lat="50.54327325895429" lon="3.063741931691766">
        <ele>43.0</ele>
        <time>2025-04-10T06:52:38</time>
      </trkpt>
      <trkpt lat="50.543226320296526" lon="3.063980732113123">
        <ele>43.60000000000002</ele>
        <time>2025-04-10T06:52:42</time>
      </trkpt>
      <trkpt lat="50.54315046407282" lon="3.064357666298747">
        <ele>44.200000000000045</ele>
        <time>2025-04-10T06:52:48</time>
      </trkpt>
      <trkpt lat="50.54308240301907" lon="3.064683051779866">
        <ele>44.60000000000002</ele>
        <time>2025-04-10T06:52:53</time>
      </trkpt>
      <trkpt lat="50.54291962645948" lon="3.0654057394713163">
        <ele>45.39999999999998</ele>
        <time>2025-04-10T06:53:04</time>
      </trkpt>
      <trkpt lat="50.542784593999386" lon="3.065953077748418">
        <ele>45.799999999999955</ele>
        <time>2025-04-10T06:53:12</time>
      </trkpt>
      <trkpt lat="50.542596001178026" lon="3.066702503710985">
        <ele>46.0</ele>
        <time>2025-04-10T06:53:22</time>
      </trkpt>
      <trkpt lat="50.54243196733296" lon="3.067348077893257">
        <ele>45.799999999999955</ele>
        <time>2025-04-10T06:53:30</time>
      </trkpt>
      <trkpt lat="50.54223943501711" lon="3.0681066401302814">
        <ele>45.39999999999998</ele>
        <time>2025-04-10T06:53:39</time>
      </trkpt>
      <trkpt lat="50.5420345813036" lon="3.0688255559653044">
        <ele>44.60000000000002</ele>
        <time>2025-04-10T06:53:47</time>
      </trkpt>
      <trkpt lat="50.54200826212764" lon="3.068920522928238">
        <ele>44.60000000000002</ele>
        <time>2025-04-10T06:53:48</time>
      </trkpt>
      <trkpt lat="50.54184414446354" lon="3.069490659981966">
        <ele>43.39999999999998</ele>
        <time>2025-04-10T06:53:54</time>
      </trkpt>
      <trkpt lat="50.541758397594094" lon="3.069783356040716">
        <ele>43.0</ele>
        <time>2025-04-10T06:53:57</time>
      </trkpt>
      <trkpt lat="50.54163803346455" lon="3.070184765383601">
        <ele>42.200000000000045</ele>
        <time>2025-04-10T06:54:01</time>
      </trkpt>
      <trkpt lat="50.54152269847691" lon="3.070594472810626">
        <ele>41.0</ele>
        <time>2025-04-10T06:54:05</time>
      </trkpt>
      <trkpt lat="50.54149537347257" lon="3.070698995143175">
        <ele>40.60000000000002</ele>
        <time>2025-04-10T06:54:06</time>
      </trkpt>
      <trkpt lat="50.54143032990396" lon="3.0709049385041">
        <ele>39.799999999999955</ele>
        <time>2025-04-10T06:54:08</time>
      </trkpt>
      <trkpt lat="50.541315749287605" lon="3.071171985939145">
        <ele>39.0</ele>
        <time>2025-04-10T06:54:11</time>
      </trkpt>
      <trkpt lat="50.54127308540046" lon="3.0712473392486572">
        <ele>38.60000000000002</ele>
        <time>2025-04-10T06:54:12</time>
      </trkpt>
      <trkpt lat="50.54112774319947" lon="3.0714086908847094">
        <ele>37.39999999999998</ele>
        <time>2025-04-10T06:54:15</time>
      </trkpt>
      <trkpt lat="50.54097234271467" lon="3.0714349262416363">
        <ele>37.200000000000045</ele>
        <time>2025-04-10T06:54:18</time>
      </trkpt>
      <trkpt lat="50.540795903652906" lon="3.071523020043969">
        <ele>36.60000000000002</ele>
        <time>2025-04-10T06:54:22</time>
      </trkpt>
      <trkpt lat="50.54076229222119" lon="3.071560235694051">
        <ele>36.60000000000002</ele>
        <time>2025-04-10T06:54:23</time>
      </trkpt>
      <trkpt lat="50.54068165831268" lon="3.0717123672366142">
        <ele>36.39999999999998</ele>
        <time>2025-04-10T06:54:26</time>
      </trkpt>
      <trkpt lat="50.540655087679625" lon="3.071769867092371">
        <ele>36.200000000000045</ele>
        <time>2025-04-10T06:54:27</time>
      </trkpt>
      <trkpt lat="50.5406254157424" lon="3.0718224216252565">
        <ele>36.0</ele>
        <time>2025-04-10T06:54:28</time>
      </trkpt>
      <trkpt lat="50.5404837615788" lon="3.0719893891364336">
        <ele>35.799999999999955</ele>
        <time>2025-04-10T06:54:32</time>
      </trkpt>
      <trkpt lat="50.54045207798481" lon="3.0720362439751625">
        <ele>35.60000000000002</ele>
        <time>2025-04-10T06:54:33</time>
      </trkpt>
      <trkpt lat="50.54037454538047" lon="3.0721938237547874">
        <ele>35.60000000000002</ele>
        <time>2025-04-10T06:54:36</time>
      </trkpt>
      <trkpt lat="50.540359960868955" lon="3.072255263105035">
        <ele>35.39999999999998</ele>
        <time>2025-04-10T06:54:37</time>
      </trkpt>
      <trkpt lat="50.54028142243624" lon="3.072432205080986">
        <ele>35.200000000000045</ele>
        <time>2025-04-10T06:54:40</time>
      </trkpt>
      <trkpt lat="50.54024973884225" lon="3.072496997192502">
        <ele>35.0</ele>
        <time>2025-04-10T06:54:41</time>
      </trkpt>
      <trkpt lat="50.54001362062991" lon="3.073059758171439">
        <ele>34.39999999999998</ele>
        <time>2025-04-10T06:54:49</time>
      </trkpt>
      <trkpt lat="50.53995452821255" lon="3.0732016637921333">
        <ele>34.39999999999998</ele>
        <time>2025-04-10T06:54:51</time>
      </trkpt>
      <trkpt lat="50.53963501006365" lon="3.073790827766061">
        <ele>34.200000000000045</ele>
        <time>2025-04-10T06:55:00</time>
      </trkpt>
      <trkpt lat="50.53925983607769" lon="3.0744023714214563">
        <ele>34.200000000000045</ele>
        <time>2025-04-10T06:55:09</time>
      </trkpt>
      <trkpt lat="50.53921692073345" lon="3.0744730308651924">
        <ele>34.200000000000045</ele>
        <time>2025-04-10T06:55:10</time>
      </trkpt>
      <trkpt lat="50.5388362146914" lon="3.0750808026641607">
        <ele>34.0</ele>
        <time>2025-04-10T06:55:19</time>
      </trkpt>
      <trkpt lat="50.53871291689575" lon="3.0752818007022142">
        <ele>33.799999999999955</ele>
        <time>2025-04-10T06:55:22</time>
      </trkpt>
      <trkpt lat="50.53854804486036" lon="3.07554985396564">
        <ele>33.39999999999998</ele>
        <time>2025-04-10T06:55:26</time>
      </trkpt>
      <trkpt lat="50.5382508225739" lon="3.0760220903903246">
        <ele>33.39999999999998</ele>
        <time>2025-04-10T06:55:33</time>
      </trkpt>
      <trkpt lat="50.53785762749612" lon="3.076651906594634">
        <ele>33.200000000000045</ele>
        <time>2025-04-10T06:55:42</time>
      </trkpt>
      <trkpt lat="50.53777162916958" lon="3.07679146528244">
        <ele>33.200000000000045</ele>
        <time>2025-04-10T06:55:44</time>
      </trkpt>
      <trkpt lat="50.537407686933875" lon="3.077386748045683">
        <ele>33.0</ele>
        <time>2025-04-10T06:55:53</time>
      </trkpt>
      <trkpt lat="50.53712446242571" lon="3.0778392031788826">
        <ele>32.799999999999955</ele>
        <time>2025-04-10T06:56:00</time>
      </trkpt>
      <trkpt lat="50.53679756820202" lon="3.0783802550286055">
        <ele>32.60000000000002</ele>
        <time>2025-04-10T06:56:08</time>
      </trkpt>
      <trkpt lat="50.53645407781005" lon="3.0790293496102095">
        <ele>32.39999999999998</ele>
        <time>2025-04-10T06:56:17</time>
      </trkpt>
      <trkpt lat="50.53641862235963" lon="3.0791026912629604">
        <ele>32.39999999999998</ele>
        <time>2025-04-10T06:56:18</time>
      </trkpt>
      <trkpt lat="50.536179821938276" lon="3.0796009954065084">
        <ele>32.200000000000045</ele>
        <time>2025-04-10T06:56:25</time>
      </trkpt>
      <trkpt lat="50.53589500486851" lon="3.080247826874256">
        <ele>32.0</ele>
        <time>2025-04-10T06:56:34</time>
      </trkpt>
      <trkpt lat="50.53559887222946" lon="3.080955510959029">
        <ele>31.799999999999955</ele>
        <time>2025-04-10T06:56:43</time>
      </trkpt>
      <trkpt lat="50.535565093159676" lon="3.0810364801436663">
        <ele>31.799999999999955</ele>
        <time>2025-04-10T06:56:44</time>
      </trkpt>
      <trkpt lat="50.535282203927636" lon="3.081761682406068">
        <ele>31.799999999999955</ele>
        <time>2025-04-10T06:56:53</time>
      </trkpt>
      <trkpt lat="50.53505714982748" lon="3.0824891477823257">
        <ele>32.0</ele>
        <time>2025-04-10T06:57:02</time>
      </trkpt>
      <trkpt lat="50.53481977432966" lon="3.083267994225025">
        <ele>32.39999999999998</ele>
        <time>2025-04-10T06:57:12</time>
      </trkpt>
      <trkpt lat="50.53479588590562" lon="3.0833420902490616">
        <ele>32.39999999999998</ele>
        <time>2025-04-10T06:57:13</time>
      </trkpt>
      <trkpt lat="50.53457862697542" lon="3.0839507840573788">
        <ele>32.39999999999998</ele>
        <time>2025-04-10T06:57:22</time>
      </trkpt>
      <trkpt lat="50.53436706773937" lon="3.0844108667224646">
        <ele>32.39999999999998</ele>
        <time>2025-04-10T06:57:30</time>
      </trkpt>
      <trkpt lat="50.534150060266256" lon="3.084785034880042">
        <ele>32.60000000000002</ele>
        <time>2025-04-10T06:57:38</time>
      </trkpt>
      <trkpt lat="50.533991223201156" lon="3.0848175566643476">
        <ele>32.60000000000002</ele>
        <time>2025-04-10T06:57:43</time>
      </trkpt>
      <trkpt lat="50.533944787457585" lon="3.084822501987219">
        <ele>32.799999999999955</ele>
        <time>2025-04-10T06:57:45</time>
      </trkpt>
      <trkpt lat="50.53391369059682" lon="3.084874050691724">
        <ele>32.799999999999955</ele>
        <time>2025-04-10T06:57:47</time>
      </trkpt>
      <trkpt lat="50.53382693789899" lon="3.085025427863002">
        <ele>32.799999999999955</ele>
        <time>2025-04-10T06:57:52</time>
      </trkpt>
      <trkpt lat="50.53372912108898" lon="3.0853571835905313">
        <ele>32.799999999999955</ele>
        <time>2025-04-10T06:57:59</time>
      </trkpt>
      <trkpt lat="50.53364052437246" lon="3.0854478757828474">
        <ele>32.799999999999955</ele>
        <time>2025-04-10T06:58:04</time>
      </trkpt>
      <trkpt lat="50.53364546969533" lon="3.0854408349841833">
        <ele>33.200000000000045</ele>
        <time>2025-04-10T06:58:11</time>
      </trkpt>
      <trkpt lat="50.53366885520518" lon="3.0854163598269224">
        <ele>33.200000000000045</ele>
        <time>2025-04-10T06:58:20</time>
      </trkpt>
      <trkpt lat="50.533687798306346" lon="3.085412671789527">
        <ele>33.200000000000045</ele>
        <time>2025-04-10T06:58:24</time>
      </trkpt>
      <trkpt lat="50.53370883688331" lon="3.085448546335101">
        <ele>33.200000000000045</ele>
        <time>2025-04-10T06:58:26</time>
      </trkpt>
      <trkpt lat="50.5337540153414" lon="3.0856113228946924">
        <ele>33.0</ele>
        <time>2025-04-10T06:58:30</time>
      </trkpt>
      <trkpt lat="50.53379248827696" lon="3.085693549364805">
        <ele>33.0</ele>
        <time>2025-04-10T06:58:32</time>
      </trkpt>
      <trkpt lat="50.53382040001452" lon="3.085718024522066">
        <ele>33.0</ele>
        <time>2025-04-10T06:58:33</time>
      </trkpt>
      <trkpt lat="50.53389902226627" lon="3.0858864169567823">
        <ele>32.799999999999955</ele>
        <time>2025-04-10T06:58:37</time>
      </trkpt>
      <trkpt lat="50.533901285380125" lon="3.0860106367617846">
        <ele>32.60000000000002</ele>
        <time>2025-04-10T06:58:39</time>
      </trkpt>
      <trkpt lat="50.53386876359582" lon="3.086130414158106">
        <ele>32.60000000000002</ele>
        <time>2025-04-10T06:58:41</time>
      </trkpt>
      <trkpt lat="50.53361990489066" lon="3.0866025667637587">
        <ele>32.60000000000002</ele>
        <time>2025-04-10T06:58:50</time>
      </trkpt>
      <trkpt lat="50.533313881605864" lon="3.087105816230178">
        <ele>32.60000000000002</ele>
        <time>2025-04-10T06:59:00</time>
      </trkpt>
      <trkpt lat="50.533026214689016" lon="3.087730687111616">
        <ele>33.0</ele>
        <time>2025-04-10T06:59:10</time>
      </trkpt>
      <trkpt lat="50.53274491801858" lon="3.088407861068845">
        <ele>33.39999999999998</ele>
        <time>2025-04-10T06:59:20</time>
      </trkpt>
      <trkpt lat="50.53271549753845" lon="3.0884740781039">
        <ele>33.39999999999998</ele>
        <time>2025-04-10T06:59:21</time>
      </trkpt>
      <trkpt lat="50.532404612749815" lon="3.0892167147248983">
        <ele>34.0</ele>
        <time>2025-04-10T06:59:32</time>
      </trkpt>
      <trkpt lat="50.53209817036986" lon="3.0899538192898035">
        <ele>34.39999999999998</ele>
        <time>2025-04-10T06:59:43</time>
      </trkpt>
      <trkpt lat="50.53206933662295" lon="3.0900210421532393">
        <ele>34.39999999999998</ele>
        <time>2025-04-10T06:59:44</time>
      </trkpt>
      <trkpt lat="50.53198333829641" lon="3.0902250576764345">
        <ele>34.39999999999998</ele>
        <time>2025-04-10T06:59:47</time>
      </trkpt>
      <trkpt lat="50.53175593726337" lon="3.090763930231333">
        <ele>35.0</ele>
        <time>2025-04-10T06:59:55</time>
      </trkpt>
      <trkpt lat="50.53148981183767" lon="3.091404475271702">
        <ele>35.39999999999998</ele>
        <time>2025-04-10T07:00:05</time>
      </trkpt>
      <trkpt lat="50.531406411901116" lon="3.0916001088917255">
        <ele>35.60000000000002</ele>
        <time>2025-04-10T07:00:08</time>
      </trkpt>
      <trkpt lat="50.53120926953852" lon="3.0920622032135725">
        <ele>36.0</ele>
        <time>2025-04-10T07:00:15</time>
      </trkpt>
      <trkpt lat="50.53090425208211" lon="3.0927798617631197">
        <ele>36.39999999999998</ele>
        <time>2025-04-10T07:00:26</time>
      </trkpt>
      <trkpt lat="50.53079595789313" lon="3.093040371313691">
        <ele>36.60000000000002</ele>
        <time>2025-04-10T07:00:30</time>
      </trkpt>
      <trkpt lat="50.53060686215758" lon="3.0934935808181763">
        <ele>37.0</ele>
        <time>2025-04-10T07:00:37</time>
      </trkpt>
      <trkpt lat="50.53032657131553" lon="3.0941440165042877">
        <ele>37.60000000000002</ele>
        <time>2025-04-10T07:00:47</time>
      </trkpt>
      <trkpt lat="50.53006145171821" lon="3.0947654508054256">
        <ele>38.0</ele>
        <time>2025-04-10T07:00:57</time>
      </trkpt>
      <trkpt lat="50.52975517697632" lon="3.0954844504594803">
        <ele>38.799999999999955</ele>
        <time>2025-04-10T07:01:08</time>
      </trkpt>
      <trkpt lat="50.529498690739274" lon="3.0960937310010195">
        <ele>39.0</ele>
        <time>2025-04-10T07:01:17</time>
      </trkpt>
      <trkpt lat="50.52926550619304" lon="3.0966476909816265">
        <ele>39.200000000000045</ele>
        <time>2025-04-10T07:01:25</time>
      </trkpt>
      <trkpt lat="50.52912569604814" lon="3.0969873256981373">
        <ele>39.200000000000045</ele>
        <time>2025-04-10T07:01:30</time>
      </trkpt>
      <trkpt lat="50.529038440436125" lon="3.09719804674387">
        <ele>39.200000000000045</ele>
        <time>2025-04-10T07:01:33</time>
      </trkpt>
      <trkpt lat="50.52873861975968" lon="3.0979120172560215">
        <ele>39.0</ele>
        <time>2025-04-10T07:01:43</time>
      </trkpt>
      <trkpt lat="50.52864985540509" lon="3.0981231573969126">
        <ele>39.0</ele>
        <time>2025-04-10T07:01:46</time>
      </trkpt>
      <trkpt lat="50.528414407745004" lon="3.0986945517361164">
        <ele>38.39999999999998</ele>
        <time>2025-04-10T07:01:55</time>
      </trkpt>
      <trkpt lat="50.52820947021246" lon="3.09917651116848">
        <ele>38.0</ele>
        <time>2025-04-10T07:02:03</time>
      </trkpt>
      <trkpt lat="50.528127662837505" lon="3.0993476696312428">
        <ele>38.0</ele>
        <time>2025-04-10T07:02:06</time>
      </trkpt>
      <trkpt lat="50.528059685602784" lon="3.09943743981421">
        <ele>38.0</ele>
        <time>2025-04-10T07:02:08</time>
      </trkpt>
      <trkpt lat="50.527855502441525" lon="3.099606418982148">
        <ele>38.0</ele>
        <time>2025-04-10T07:02:13</time>
      </trkpt>
      <trkpt lat="50.527736311778426" lon="3.099722843617201">
        <ele>38.200000000000045</ele>
        <time>2025-04-10T07:02:17</time>
      </trkpt>
      <trkpt lat="50.527669759467244" lon="3.099830048158765">
        <ele>38.39999999999998</ele>
        <time>2025-04-10T07:02:22</time>
      </trkpt>
      <trkpt lat="50.52764939144254" lon="3.0998181458562613">
        <ele>38.39999999999998</ele>
        <time>2025-04-10T07:02:26</time>
      </trkpt>
      <trkpt lat="50.52762852050364" lon="3.0997832771390676">
        <ele>38.39999999999998</ele>
        <time>2025-04-10T07:02:28</time>
      </trkpt>
      <trkpt lat="50.52760999649763" lon="3.0997468158602715">
        <ele>38.39999999999998</ele>
        <time>2025-04-10T07:02:30</time>
      </trkpt>
      <trkpt lat="50.527611672878265" lon="3.099742205813527">
        <ele>38.39999999999998</ele>
        <time>2025-04-10T07:02:33</time>
      </trkpt>
      <trkpt lat="50.527614606544375" lon="3.0997277051210403">
        <ele>38.200000000000045</ele>
        <time>2025-04-10T07:02:44</time>
      </trkpt>
      <trkpt lat="50.52761443890631" lon="3.099723933264613">
        <ele>38.0</ele>
        <time>2025-04-10T07:03:39</time>
      </trkpt>
      <trkpt lat="50.52761544473469" lon="3.0997562874108553">
        <ele>38.0</ele>
        <time>2025-04-10T07:04:16</time>
      </trkpt>
      <trkpt lat="50.52762902341783" lon="3.099778750911355">
        <ele>38.0</ele>
        <time>2025-04-10T07:04:20</time>
      </trkpt>
      <trkpt lat="50.527650313451886" lon="3.099834658205509">
        <ele>38.0</ele>
        <time>2025-04-10T07:04:22</time>
      </trkpt>
      <trkpt lat="50.52764913998544" lon="3.09994756244123">
        <ele>38.200000000000045</ele>
        <time>2025-04-10T07:04:24</time>
      </trkpt>
      <trkpt lat="50.5276495590806" lon="3.1000766437500715">
        <ele>38.200000000000045</ele>
        <time>2025-04-10T07:04:26</time>
      </trkpt>
      <trkpt lat="50.52767529152334" lon="3.100300608202815">
        <ele>38.200000000000045</ele>
        <time>2025-04-10T07:04:31</time>
      </trkpt>
      <trkpt lat="50.52775114774704" lon="3.100377721711993">
        <ele>37.799999999999955</ele>
        <time>2025-04-10T07:04:35</time>
      </trkpt>
      <trkpt lat="50.52784242667258" lon="3.100463720038533">
        <ele>37.799999999999955</ele>
        <time>2025-04-10T07:04:40</time>
      </trkpt>
      <trkpt lat="50.5278482940048" lon="3.1004674918949604">
        <ele>37.799999999999955</ele>
        <time>2025-04-10T07:04:41</time>
      </trkpt>
      <trkpt lat="50.527854496613145" lon="3.1004668213427067">
        <ele>37.60000000000002</ele>
        <time>2025-04-10T07:04:45</time>
      </trkpt>
      <trkpt lat="50.527854496613145" lon="3.1004660669714212">
        <ele>37.200000000000045</ele>
        <time>2025-04-10T07:05:04</time>
      </trkpt>
      <trkpt lat="50.527853071689606" lon="3.1004674918949604">
        <ele>37.200000000000045</ele>
        <time>2025-04-10T07:05:57</time>
      </trkpt>
      <trkpt lat="50.52785290405154" lon="3.100467659533024">
        <ele>36.60000000000002</ele>
        <time>2025-04-10T07:06:14</time>
      </trkpt>
      <trkpt lat="50.52785290405154" lon="3.1004654802381992">
        <ele>36.799999999999955</ele>
        <time>2025-04-10T07:06:27</time>
      </trkpt>
      <trkpt lat="50.52787478081882" lon="3.1004662346094847">
        <ele>36.799999999999955</ele>
        <time>2025-04-10T07:06:29</time>
      </trkpt>
      <trkpt lat="50.52794996649027" lon="3.100454667583108">
        <ele>36.799999999999955</ele>
        <time>2025-04-10T07:06:32</time>
      </trkpt>
      <trkpt lat="50.52807007916272" lon="3.1005495507270098">
        <ele>36.799999999999955</ele>
        <time>2025-04-10T07:06:36</time>
      </trkpt>
      <trkpt lat="50.5282455123961" lon="3.1008715834468603">
        <ele>36.39999999999998</ele>
        <time>2025-04-10T07:06:42</time>
      </trkpt>
      <trkpt lat="50.528362188488245" lon="3.1011435762047768">
        <ele>35.60000000000002</ele>
        <time>2025-04-10T07:06:46</time>
      </trkpt>
      <trkpt lat="50.52850551903248" lon="3.1015103682875633">
        <ele>34.60000000000002</ele>
        <time>2025-04-10T07:06:51</time>
      </trkpt>
      <trkpt lat="50.52875513210893" lon="3.1022651586681604">
        <ele>34.0</ele>
        <time>2025-04-10T07:07:01</time>
      </trkpt>
      <trkpt lat="50.52899627946317" lon="3.1031141616404057">
        <ele>33.60000000000002</ele>
        <time>2025-04-10T07:07:12</time>
      </trkpt>
      <trkpt lat="50.52903978154063" lon="3.1032732501626015">
        <ele>33.60000000000002</ele>
        <time>2025-04-10T07:07:14</time>
      </trkpt>
      <trkpt lat="50.52919149398804" lon="3.103827964514494">
        <ele>33.39999999999998</ele>
        <time>2025-04-10T07:07:21</time>
      </trkpt>
      <trkpt lat="50.529359467327595" lon="3.1044457107782364">
        <ele>33.39999999999998</ele>
        <time>2025-04-10T07:07:29</time>
      </trkpt>
      <trkpt lat="50.52958334796131" lon="3.1052552349865437">
        <ele>33.200000000000045</ele>
        <time>2025-04-10T07:07:40</time>
      </trkpt>
      <trkpt lat="50.52974319085479" lon="3.105854205787182">
        <ele>32.799999999999955</ele>
        <time>2025-04-10T07:07:48</time>
      </trkpt>
      <trkpt lat="50.52982843481004" lon="3.1062176451087">
        <ele>32.60000000000002</ele>
        <time>2025-04-10T07:07:54</time>
      </trkpt>
      <trkpt lat="50.529839834198356" lon="3.1063567847013474">
        <ele>32.60000000000002</ele>
        <time>2025-04-10T07:07:56</time>
      </trkpt>
      <trkpt lat="50.52979985252023" lon="3.106575468555093">
        <ele>32.799999999999955</ele>
        <time>2025-04-10T07:08:00</time>
      </trkpt>
      <trkpt lat="50.52977059967816" lon="3.1067990977317095">
        <ele>32.799999999999955</ele>
        <time>2025-04-10T07:08:05</time>
      </trkpt>
      <trkpt lat="50.529841762036085" lon="3.1070538237690926">
        <ele>33.39999999999998</ele>
        <time>2025-04-10T07:08:10</time>
      </trkpt>
      <trkpt lat="50.52992273122072" lon="3.107189107686281">
        <ele>33.39999999999998</ele>
        <time>2025-04-10T07:08:13</time>
      </trkpt>
      <trkpt lat="50.52994770929217" lon="3.107319362461567">
        <ele>33.39999999999998</ele>
        <time>2025-04-10T07:08:15</time>
      </trkpt>
      <trkpt lat="50.5299480445683" lon="3.1074662134051323">
        <ele>33.39999999999998</ele>
        <time>2025-04-10T07:08:17</time>
      </trkpt>
      <trkpt lat="50.5299306102097" lon="3.1077714823186398">
        <ele>33.39999999999998</ele>
        <time>2025-04-10T07:08:21</time>
      </trkpt>
      <trkpt lat="50.52988786250353" lon="3.1083945091813803">
        <ele>32.60000000000002</ele>
        <time>2025-04-10T07:08:29</time>
      </trkpt>
      <trkpt lat="50.52981644868851" lon="3.1091653928160667">
        <ele>32.60000000000002</ele>
        <time>2025-04-10T07:08:39</time>
      </trkpt>
      <trkpt lat="50.52972332574427" lon="3.109868550673127">
        <ele>33.0</ele>
        <time>2025-04-10T07:08:48</time>
      </trkpt>
      <trkpt lat="50.529618384316564" lon="3.1105133704841137">
        <ele>33.200000000000045</ele>
        <time>2025-04-10T07:08:56</time>
      </trkpt>
      <trkpt lat="50.52948276512325" lon="3.111212169751525">
        <ele>33.39999999999998</ele>
        <time>2025-04-10T07:09:05</time>
      </trkpt>
      <trkpt lat="50.52938310429454" lon="3.111671917140484">
        <ele>33.60000000000002</ele>
        <time>2025-04-10T07:09:11</time>
      </trkpt>
      <trkpt lat="50.52934513427317" lon="3.1118199415504932">
        <ele>33.60000000000002</ele>
        <time>2025-04-10T07:09:13</time>
      </trkpt>
      <trkpt lat="50.529165007174015" lon="3.112490577623248">
        <ele>34.0</ele>
        <time>2025-04-10T07:09:22</time>
      </trkpt>
      <trkpt lat="50.52889795973897" lon="3.113319631665945">
        <ele>33.60000000000002</ele>
        <time>2025-04-10T07:09:33</time>
      </trkpt>
      <trkpt lat="50.528679778799415" lon="3.113919273018837">
        <ele>33.60000000000002</ele>
        <time>2025-04-10T07:09:41</time>
      </trkpt>
      <trkpt lat="50.52837023511529" lon="3.1146444752812386">
        <ele>33.39999999999998</ele>
        <time>2025-04-10T07:09:51</time>
      </trkpt>
      <trkpt lat="50.528110479936004" lon="3.115192148834467">
        <ele>32.799999999999955</ele>
        <time>2025-04-10T07:09:59</time>
      </trkpt>
      <trkpt lat="50.528077371418476" lon="3.115258952602744">
        <ele>32.799999999999955</ele>
        <time>2025-04-10T07:10:00</time>
      </trkpt>
      <trkpt lat="50.52780403755605" lon="3.11578206717968">
        <ele>32.39999999999998</ele>
        <time>2025-04-10T07:10:08</time>
      </trkpt>
      <trkpt lat="50.52746155299246" lon="3.1164297368377447">
        <ele>32.200000000000045</ele>
        <time>2025-04-10T07:10:18</time>
      </trkpt>
      <trkpt lat="50.52711496129632" lon="3.1170983612537384">
        <ele>32.200000000000045</ele>
        <time>2025-04-10T07:10:28</time>
      </trkpt>
      <trkpt lat="50.52708042785525" lon="3.117166757583618">
        <ele>32.0</ele>
        <time>2025-04-10T07:10:29</time>
      </trkpt>
      <trkpt lat="50.5267998855561" lon="3.1176953203976154">
        <ele>32.0</ele>
        <time>2025-04-10T07:10:37</time>
      </trkpt>
      <trkpt lat="50.52653158083558" lon="3.118227571249008">
        <ele>32.39999999999998</ele>
        <time>2025-04-10T07:10:45</time>
      </trkpt>
      <trkpt lat="50.52617233246565" lon="3.118952102959156">
        <ele>32.60000000000002</ele>
        <time>2025-04-10T07:10:56</time>
      </trkpt>
      <trkpt lat="50.52586890757084" lon="3.119547050446272">
        <ele>32.799999999999955</ele>
        <time>2025-04-10T07:11:06</time>
      </trkpt>
      <trkpt lat="50.525604374706745" lon="3.12002289108932">
        <ele>32.799999999999955</ele>
        <time>2025-04-10T07:11:14</time>
      </trkpt>
      <trkpt lat="50.52530111745" lon="3.1205352768301964">
        <ele>32.799999999999955</ele>
        <time>2025-04-10T07:11:22</time>
      </trkpt>
      <trkpt lat="50.524932565167546" lon="3.1212043203413486">
        <ele>32.60000000000002</ele>
        <time>2025-04-10T07:11:31</time>
      </trkpt>
      <trkpt lat="50.524573819711804" lon="3.1218791473656893">
        <ele>32.0</ele>
        <time>2025-04-10T07:11:40</time>
      </trkpt>
      <trkpt lat="50.52449444308877" lon="3.1220280937850475">
        <ele>32.0</ele>
        <time>2025-04-10T07:11:42</time>
      </trkpt>
      <trkpt lat="50.52415866404772" lon="3.122700322419405">
        <ele>31.799999999999955</ele>
        <time>2025-04-10T07:11:51</time>
      </trkpt>
      <trkpt lat="50.523817520588636" lon="3.1233657617121935">
        <ele>32.0</ele>
        <time>2025-04-10T07:12:00</time>
      </trkpt>
      <trkpt lat="50.52373898215592" lon="3.1235082540661097">
        <ele>32.0</ele>
        <time>2025-04-10T07:12:02</time>
      </trkpt>
      <trkpt lat="50.5233755428344" lon="3.124121557921171">
        <ele>32.39999999999998</ele>
        <time>2025-04-10T07:12:11</time>
      </trkpt>
      <trkpt lat="50.523063568398356" lon="3.124585412442684">
        <ele>32.60000000000002</ele>
        <time>2025-04-10T07:12:19</time>
      </trkpt>
      <trkpt lat="50.522922752425075" lon="3.124763611704111">
        <ele>33.0</ele>
        <time>2025-04-10T07:12:23</time>
      </trkpt>
      <trkpt lat="50.52284136414528" lon="3.124808957800269">
        <ele>33.39999999999998</ele>
        <time>2025-04-10T07:12:25</time>
      </trkpt>
      <trkpt lat="50.52275930531323" lon="3.124818094074726">
        <ele>33.799999999999955</ele>
        <time>2025-04-10T07:12:27</time>
      </trkpt>
      <trkpt lat="50.52272183820605" lon="3.1248235423117876">
        <ele>33.799999999999955</ele>
        <time>2025-04-10T07:12:28</time>
      </trkpt>
      <trkpt lat="50.52261765114963" lon="3.124860003590584">
        <ele>34.0</ele>
        <time>2025-04-10T07:12:31</time>
      </trkpt>
      <trkpt lat="50.52248069085181" lon="3.125014565885067">
        <ele>34.0</ele>
        <time>2025-04-10T07:12:37</time>
      </trkpt>
      <trkpt lat="50.522410701960325" lon="3.125220760703087">
        <ele>34.0</ele>
        <time>2025-04-10T07:12:42</time>
      </trkpt>
      <trkpt lat="50.522424867376685" lon="3.125437432900071">
        <ele>34.200000000000045</ele>
        <time>2025-04-10T07:12:46</time>
      </trkpt>
      <trkpt lat="50.522425789386034" lon="3.1254982855170965">
        <ele>34.200000000000045</ele>
        <time>2025-04-10T07:12:47</time>
      </trkpt>
      <trkpt lat="50.52238362841308" lon="3.125665672123432">
        <ele>34.200000000000045</ele>
        <time>2025-04-10T07:12:50</time>
      </trkpt>
      <trkpt lat="50.52236116491258" lon="3.1257200706750154">
        <ele>34.200000000000045</ele>
        <time>2025-04-10T07:12:51</time>
      </trkpt>
      <trkpt lat="50.52219302393496" lon="3.126051826402545">
        <ele>34.200000000000045</ele>
        <time>2025-04-10T07:12:57</time>
      </trkpt>
      <trkpt lat="50.521907871589065" lon="3.126610144972801">
        <ele>34.200000000000045</ele>
        <time>2025-04-10T07:13:06</time>
      </trkpt>
      <trkpt lat="50.52155692130327" lon="3.127290839329362">
        <ele>34.39999999999998</ele>
        <time>2025-04-10T07:13:16</time>
      </trkpt>
      <trkpt lat="50.521489111706614" lon="3.1274278834462166">
        <ele>34.60000000000002</ele>
        <time>2025-04-10T07:13:18</time>
      </trkpt>
      <trkpt lat="50.521138245239854" lon="3.1281085778027773">
        <ele>34.799999999999955</ele>
        <time>2025-04-10T07:13:28</time>
      </trkpt>
      <trkpt lat="50.52106616087258" lon="3.1282398384064436">
        <ele>34.799999999999955</ele>
        <time>2025-04-10T07:13:30</time>
      </trkpt>
      <trkpt lat="50.520728873088956" lon="3.1288866698741913">
        <ele>35.200000000000045</ele>
        <time>2025-04-10T07:13:40</time>
      </trkpt>
      <trkpt lat="50.520401392132044" lon="3.129523443058133">
        <ele>35.39999999999998</ele>
        <time>2025-04-10T07:13:50</time>
      </trkpt>
      <trkpt lat="50.520042311400175" lon="3.1302068196237087">
        <ele>35.60000000000002</ele>
        <time>2025-04-10T07:14:01</time>
      </trkpt>
      <trkpt lat="50.51972304470837" lon="3.1308133341372013">
        <ele>35.799999999999955</ele>
        <time>2025-04-10T07:14:11</time>
      </trkpt>
      <trkpt lat="50.51962774246931" lon="3.1309968139976263">
        <ele>36.0</ele>
        <time>2025-04-10T07:14:14</time>
      </trkpt>
      <trkpt lat="50.519374860450625" lon="3.131491681560874">
        <ele>36.200000000000045</ele>
        <time>2025-04-10T07:14:22</time>
      </trkpt>
      <trkpt lat="50.519102197140455" lon="3.13203239813447">
        <ele>36.200000000000045</ele>
        <time>2025-04-10T07:14:31</time>
      </trkpt>
      <trkpt lat="50.518837412819266" lon="3.1325400061905384">
        <ele>36.39999999999998</ele>
        <time>2025-04-10T07:14:40</time>
      </trkpt>
      <trkpt lat="50.51857287995517" lon="3.1330256536602974">
        <ele>36.799999999999955</ele>
        <time>2025-04-10T07:14:49</time>
      </trkpt>
      <trkpt lat="50.518541783094406" lon="3.1330621149390936">
        <ele>37.0</ele>
        <time>2025-04-10T07:14:50</time>
      </trkpt>
      <trkpt lat="50.518445558846" lon="3.133085248991847">
        <ele>37.0</ele>
        <time>2025-04-10T07:14:53</time>
      </trkpt>
      <trkpt lat="50.518292505294085" lon="3.133088182657957">
        <ele>37.39999999999998</ele>
        <time>2025-04-10T07:14:59</time>
      </trkpt>
      <trkpt lat="50.51819209009409" lon="3.13318507745862">
        <ele>37.799999999999955</ele>
        <time>2025-04-10T07:15:04</time>
      </trkpt>
      <trkpt lat="50.5181551259011" lon="3.1332155037671328">
        <ele>37.799999999999955</ele>
        <time>2025-04-10T07:15:06</time>
      </trkpt>
      <trkpt lat="50.51814028993249" lon="3.1332877557724714">
        <ele>37.799999999999955</ele>
        <time>2025-04-10T07:15:08</time>
      </trkpt>
      <trkpt lat="50.51807910203934" lon="3.133419770747423">
        <ele>37.799999999999955</ele>
        <time>2025-04-10T07:15:12</time>
      </trkpt>
      <trkpt lat="50.517905596643686" lon="3.1334347743541002">
        <ele>37.799999999999955</ele>
        <time>2025-04-10T07:15:18</time>
      </trkpt>
      <trkpt lat="50.51777131855488" lon="3.133375598117709">
        <ele>37.799999999999955</ele>
        <time>2025-04-10T07:15:24</time>
      </trkpt>
      <trkpt lat="50.51771432161331" lon="3.1332979816943407">
        <ele>37.799999999999955</ele>
        <time>2025-04-10T07:15:30</time>
      </trkpt>
      <trkpt lat="50.51770845428109" lon="3.133282642811537">
        <ele>37.799999999999955</ele>
        <time>2025-04-10T07:15:31</time>
      </trkpt>
      <trkpt lat="50.517693534493446" lon="3.133257497102022">
        <ele>38.0</ele>
        <time>2025-04-10T07:15:33</time>
      </trkpt>
      <trkpt lat="50.51767769269645" lon="3.1332262326031923">
        <ele>38.0</ele>
        <time>2025-04-10T07:15:36</time>
      </trkpt>
      <trkpt lat="50.51764818839729" lon="3.1331919506192207">
        <ele>38.200000000000045</ele>
        <time>2025-04-10T07:15:45</time>
      </trkpt>
      <trkpt lat="50.51764969713986" lon="3.1331934593617916">
        <ele>38.39999999999998</ele>
        <time>2025-04-10T07:15:52</time>
      </trkpt>
      <trkpt lat="50.517650535330176" lon="3.1331905256956816">
        <ele>38.200000000000045</ele>
        <time>2025-04-10T07:15:59</time>
      </trkpt>
      <trkpt lat="50.51765204407275" lon="3.1331893522292376">
        <ele>38.200000000000045</ele>
        <time>2025-04-10T07:16:14</time>
      </trkpt>
      <trkpt lat="50.51766788586974" lon="3.133190358057618">
        <ele>38.0</ele>
        <time>2025-04-10T07:19:06</time>
      </trkpt>
      <trkpt lat="50.517673920840025" lon="3.133190106600523">
        <ele>37.799999999999955</ele>
        <time>2025-04-10T07:22:01</time>
      </trkpt>
      <trkpt lat="50.517670568078756" lon="3.133194213733077">
        <ele>37.799999999999955</ele>
        <time>2025-04-10T07:26:10</time>
      </trkpt>
      <trkpt lat="50.51766922697425" lon="3.1331901904195547">
        <ele>37.60000000000002</ele>
        <time>2025-04-10T07:27:38</time>
      </trkpt>
      <trkpt lat="50.517669059336185" lon="3.133184155449271">
        <ele>37.60000000000002</ele>
        <time>2025-04-10T07:29:26</time>
      </trkpt>
      <trkpt lat="50.517670568078756" lon="3.13318507745862">
        <ele>37.60000000000002</ele>
        <time>2025-04-10T07:31:48</time>
      </trkpt>
      <trkpt lat="50.51767073571682" lon="3.1331879273056984">
        <ele>37.799999999999955</ele>
        <time>2025-04-10T07:32:53</time>
      </trkpt>
      <trkpt lat="50.51767132245004" lon="3.1331879273056984">
        <ele>38.200000000000045</ele>
        <time>2025-04-10T07:33:33</time>
      </trkpt>
      <trkpt lat="50.51767224445939" lon="3.133186837658286">
        <ele>38.200000000000045</ele>
        <time>2025-04-10T07:34:13</time>
      </trkpt>
      <trkpt lat="50.51767626777291" lon="3.133193626999855">
        <ele>38.0</ele>
        <time>2025-04-10T07:35:54</time>
      </trkpt>
      <trkpt lat="50.5176786147058" lon="3.13319387845695">
        <ele>37.799999999999955</ele>
        <time>2025-04-10T07:37:15</time>
      </trkpt>
      <trkpt lat="50.517677273601294" lon="3.133189771324396">
        <ele>38.0</ele>
        <time>2025-04-10T07:38:15</time>
      </trkpt>
      <trkpt lat="50.5176770221442" lon="3.1331854965537786">
        <ele>37.799999999999955</ele>
        <time>2025-04-10T07:38:28</time>
      </trkpt>
      <trkpt lat="50.51767417229712" lon="3.1331914477050304">
        <ele>37.799999999999955</ele>
        <time>2025-04-10T07:38:32</time>
      </trkpt>
      <trkpt lat="50.517661683261395" lon="3.133217766880989">
        <ele>37.799999999999955</ele>
        <time>2025-04-10T07:38:38</time>
      </trkpt>
      <trkpt lat="50.51767257973552" lon="3.1332117319107056">
        <ele>37.39999999999998</ele>
        <time>2025-04-10T07:38:50</time>
      </trkpt>
      <trkpt lat="50.517694959416986" lon="3.1332421582192183">
        <ele>37.39999999999998</ele>
        <time>2025-04-10T07:38:57</time>
      </trkpt>
      <trkpt lat="50.517703257501125" lon="3.133246600627899">
        <ele>37.60000000000002</ele>
        <time>2025-04-10T07:39:04</time>
      </trkpt>
      <trkpt lat="50.51771574653685" lon="3.1332621909677982">
        <ele>37.200000000000045</ele>
        <time>2025-04-10T07:39:17</time>
      </trkpt>
      <trkpt lat="50.5177166685462" lon="3.1332624424248934">
        <ele>37.200000000000045</ele>
        <time>2025-04-10T07:39:29</time>
      </trkpt>
      <trkpt lat="50.517716500908136" lon="3.1332639511674643">
        <ele>37.200000000000045</ele>
        <time>2025-04-10T07:39:37</time>
      </trkpt>
      <trkpt lat="50.51772102713585" lon="3.1332617718726397">
        <ele>37.200000000000045</ele>
        <time>2025-04-10T07:39:46</time>
      </trkpt>
      <trkpt lat="50.517737958580256" lon="3.1332514621317387">
        <ele>37.200000000000045</ele>
        <time>2025-04-10T07:39:59</time>
      </trkpt>
      <trkpt lat="50.517743742093444" lon="3.133249031379819">
        <ele>37.200000000000045</ele>
        <time>2025-04-10T07:40:12</time>
      </trkpt>
      <trkpt lat="50.51775380037725" lon="3.1332541443407536">
        <ele>37.200000000000045</ele>
        <time>2025-04-10T07:40:24</time>
      </trkpt>
      <trkpt lat="50.517758410423994" lon="3.1332559045404196">
        <ele>37.39999999999998</ele>
        <time>2025-04-10T07:40:34</time>
      </trkpt>
      <trkpt lat="50.51776008680463" lon="3.1332556530833244">
        <ele>37.39999999999998</ele>
        <time>2025-04-10T07:40:44</time>
      </trkpt>
      <trkpt lat="50.51776737906039" lon="3.1332538090646267">
        <ele>37.39999999999998</ele>
        <time>2025-04-10T07:40:53</time>
      </trkpt>
      <trkpt lat="50.5177650321275" lon="3.133254060521722">
        <ele>37.39999999999998</ele>
        <time>2025-04-10T07:40:56</time>
      </trkpt>
      <trkpt lat="50.51776612177491" lon="3.1332502886652946">
        <ele>37.39999999999998</ele>
        <time>2025-04-10T07:41:02</time>
      </trkpt>
      <trkpt lat="50.51776603795588" lon="3.1332383025437593">
        <ele>37.200000000000045</ele>
        <time>2025-04-10T07:41:12</time>
      </trkpt>
      <trkpt lat="50.51776603795588" lon="3.133225981146097">
        <ele>37.200000000000045</ele>
        <time>2025-04-10T07:41:23</time>
      </trkpt>
      <trkpt lat="50.51776930689812" lon="3.133217766880989">
        <ele>37.39999999999998</ele>
        <time>2025-04-10T07:41:33</time>
      </trkpt>
      <trkpt lat="50.5177719052881" lon="3.1332243885844946">
        <ele>37.60000000000002</ele>
        <time>2025-04-10T07:41:38</time>
      </trkpt>
      <trkpt lat="50.517773581668735" lon="3.133222460746765">
        <ele>37.60000000000002</ele>
        <time>2025-04-10T07:41:40</time>
      </trkpt>
      <trkpt lat="50.51777668297291" lon="3.1332229636609554">
        <ele>37.60000000000002</ele>
        <time>2025-04-10T07:41:50</time>
      </trkpt>
      <trkpt lat="50.51777668297291" lon="3.133217263966799">
        <ele>37.39999999999998</ele>
        <time>2025-04-10T07:41:58</time>
      </trkpt>
      <trkpt lat="50.517772575840354" lon="3.1332105584442616">
        <ele>37.39999999999998</ele>
        <time>2025-04-10T07:42:08</time>
      </trkpt>
      <trkpt lat="50.51777249202132" lon="3.133209887892008">
        <ele>37.39999999999998</ele>
        <time>2025-04-10T07:42:13</time>
      </trkpt>
      <trkpt lat="50.51777098327875" lon="3.1332088820636272">
        <ele>37.39999999999998</ele>
        <time>2025-04-10T07:42:16</time>
      </trkpt>
      <trkpt lat="50.51777039654553" lon="3.1332108099013567">
        <ele>37.39999999999998</ele>
        <time>2025-04-10T07:42:24</time>
      </trkpt>
      <trkpt lat="50.51776612177491" lon="3.133214497938752">
        <ele>37.200000000000045</ele>
        <time>2025-04-10T07:42:34</time>
      </trkpt>
      <trkpt lat="50.517766708508134" lon="3.1332175992429256">
        <ele>37.39999999999998</ele>
        <time>2025-04-10T07:42:42</time>
      </trkpt>
      <trkpt lat="50.5177666246891" lon="3.1332134921103716">
        <ele>37.60000000000002</ele>
        <time>2025-04-10T07:42:55</time>
      </trkpt>
      <trkpt lat="50.51776411011815" lon="3.1332228798419237">
        <ele>37.39999999999998</ele>
        <time>2025-04-10T07:43:07</time>
      </trkpt>
      <trkpt lat="50.5177666246891" lon="3.133223382756114">
        <ele>37.39999999999998</ele>
        <time>2025-04-10T07:43:16</time>
      </trkpt>
      <trkpt lat="50.51776804961264" lon="3.133226651698351">
        <ele>37.39999999999998</ele>
        <time>2025-04-10T07:43:25</time>
      </trkpt>
      <trkpt lat="50.5177634395659" lon="3.133221622556448">
        <ele>37.39999999999998</ele>
        <time>2025-04-10T07:43:38</time>
      </trkpt>
      <trkpt lat="50.517763355746865" lon="3.1332234665751457">
        <ele>37.39999999999998</ele>
        <time>2025-04-10T07:43:48</time>
      </trkpt>
      <trkpt lat="50.517764277756214" lon="3.1332235503941774">
        <ele>37.39999999999998</ele>
        <time>2025-04-10T07:43:58</time>
      </trkpt>
      <trkpt lat="50.51776352338493" lon="3.1332317646592855">
        <ele>37.39999999999998</ele>
        <time>2025-04-10T07:44:08</time>
      </trkpt>
      <trkpt lat="50.51777576096356" lon="3.133239559829235">
        <ele>37.39999999999998</ele>
        <time>2025-04-10T07:44:18</time>
      </trkpt>
      <trkpt lat="50.517776012420654" lon="3.133239056915045">
        <ele>37.39999999999998</ele>
        <time>2025-04-10T07:44:19</time>
      </trkpt>
      <trkpt lat="50.51777785643935" lon="3.1332388054579496">
        <ele>37.200000000000045</ele>
        <time>2025-04-10T07:44:31</time>
      </trkpt>
      <trkpt lat="50.51777819171548" lon="3.1332399789243937">
        <ele>37.200000000000045</ele>
        <time>2025-04-10T07:44:44</time>
      </trkpt>
      <trkpt lat="50.51777676679194" lon="3.1332376319915056">
        <ele>37.200000000000045</ele>
        <time>2025-04-10T07:44:54</time>
      </trkpt>
      <trkpt lat="50.51778104156256" lon="3.133239559829235">
        <ele>37.200000000000045</ele>
        <time>2025-04-10T07:45:03</time>
      </trkpt>
      <trkpt lat="50.517783891409636" lon="3.1332285795360804">
        <ele>37.39999999999998</ele>
        <time>2025-04-10T07:45:08</time>
      </trkpt>
      <trkpt lat="50.51777861081064" lon="3.1332241371273994">
        <ele>37.39999999999998</ele>
        <time>2025-04-10T07:45:11</time>
      </trkpt>
      <trkpt lat="50.517748184502125" lon="3.133200751617551">
        <ele>37.39999999999998</ele>
        <time>2025-04-10T07:45:22</time>
      </trkpt>
      <trkpt lat="50.51774508319795" lon="3.133207457140088">
        <ele>37.60000000000002</ele>
        <time>2025-04-10T07:45:33</time>
      </trkpt>
      <trkpt lat="50.51774550229311" lon="3.13320804387331">
        <ele>37.799999999999955</ele>
        <time>2025-04-10T07:45:35</time>
      </trkpt>
    </trkseg>
  </trk>
</gpx>