<?xml version="1.0" encoding="UTF-8"?>
<gpx xmlns="http://www.topografix.com/GPX/1/1" xmlns:xsi="http://www.w3.org/2001/XMLSchema-instance" xsi:schemaLocation="http://www.topografix.com/GPX/1/1 http://www.topografix.com/GPX/1/1/gpx.xsd" version="1.1" creator="gpx.py -- https://github.com/tkrajina/gpxpy">
  <trk>
    <trkseg>
      <trkpt lat="41.38598947785795" lon="33.75209757126868">
        <ele>985.8</ele>
        <time>2025-06-12T05:09:20</time>
      </trkpt>
      <trkpt lat="41.385949747636914" lon="33.75207292847335">
        <ele>985.8</ele>
        <time>2025-06-12T05:09:30</time>
      </trkpt>
      <trkpt lat="41.385929714888334" lon="33.75205524265766">
        <ele>985.8</ele>
        <time>2025-06-12T05:09:32</time>
      </trkpt>
      <trkpt lat="41.38582510873675" lon="33.751966059207916">
        <ele>986.0</ele>
        <time>2025-06-12T05:09:41</time>
      </trkpt>
      <trkpt lat="41.385726956650615" lon="33.75182893127203">
        <ele>986.5999999999999</ele>
        <time>2025-06-12T05:09:50</time>
      </trkpt>
      <trkpt lat="41.38564850203693" lon="33.75175215303898">
        <ele>986.5999999999999</ele>
        <time>2025-06-12T05:09:57</time>
      </trkpt>
      <trkpt lat="41.38560357503593" lon="33.751700604334474">
        <ele>986.8</ele>
        <time>2025-06-12T05:10:01</time>
      </trkpt>
      <trkpt lat="41.38555269688368" lon="33.75165307894349">
        <ele>987.2</ele>
        <time>2025-06-12T05:10:05</time>
      </trkpt>
      <trkpt lat="41.38550743460655" lon="33.751597087830305">
        <ele>987.8</ele>
        <time>2025-06-12T05:10:09</time>
      </trkpt>
      <trkpt lat="41.385473906993866" lon="33.751555597409606">
        <ele>989.0</ele>
        <time>2025-06-12T05:10:13</time>
      </trkpt>
      <trkpt lat="41.38545320369303" lon="33.75154344365001">
        <ele>989.4000000000001</ele>
        <time>2025-06-12T05:10:18</time>
      </trkpt>
      <trkpt lat="41.38543811626732" lon="33.75152944587171">
        <ele>989.4000000000001</ele>
        <time>2025-06-12T05:10:20</time>
      </trkpt>
      <trkpt lat="41.38541749678552" lon="33.75148384831846">
        <ele>989.5999999999999</ele>
        <time>2025-06-12T05:10:27</time>
      </trkpt>
      <trkpt lat="41.38540375046432" lon="33.751441184431314">
        <ele>989.8</ele>
        <time>2025-06-12T05:10:32</time>
      </trkpt>
      <trkpt lat="41.385352201759815" lon="33.75142232514918">
        <ele>990.4000000000001</ele>
        <time>2025-06-12T05:10:39</time>
      </trkpt>
      <trkpt lat="41.38532764278352" lon="33.751425594091415">
        <ele>990.8</ele>
        <time>2025-06-12T05:10:42</time>
      </trkpt>
      <trkpt lat="41.38531540520489" lon="33.75142961740494">
        <ele>990.8</ele>
        <time>2025-06-12T05:10:43</time>
      </trkpt>
      <trkpt lat="41.38527047820389" lon="33.751478400081396">
        <ele>991.0</ele>
        <time>2025-06-12T05:10:46</time>
      </trkpt>
      <trkpt lat="41.385216834023595" lon="33.75169993378222">
        <ele>991.0</ele>
        <time>2025-06-12T05:10:52</time>
      </trkpt>
      <trkpt lat="41.38513217680156" lon="33.75206831842661">
        <ele>990.8</ele>
        <time>2025-06-12T05:10:59</time>
      </trkpt>
      <trkpt lat="41.38504131697118" lon="33.75240543857217">
        <ele>989.8</ele>
        <time>2025-06-12T05:11:04</time>
      </trkpt>
      <trkpt lat="41.38500208966434" lon="33.752541644498706">
        <ele>989.2</ele>
        <time>2025-06-12T05:11:06</time>
      </trkpt>
      <trkpt lat="41.38493754900992" lon="33.752753203734756">
        <ele>988.5999999999999</ele>
        <time>2025-06-12T05:11:09</time>
      </trkpt>
      <trkpt lat="41.38483361341059" lon="33.75309971161187">
        <ele>987.5999999999999</ele>
        <time>2025-06-12T05:11:14</time>
      </trkpt>
      <trkpt lat="41.3847279176116" lon="33.753433311358094">
        <ele>986.2</ele>
        <time>2025-06-12T05:11:19</time>
      </trkpt>
      <trkpt lat="41.384684750810266" lon="33.753562560305">
        <ele>985.5999999999999</ele>
        <time>2025-06-12T05:11:21</time>
      </trkpt>
      <trkpt lat="41.38466119766235" lon="33.75363213010132">
        <ele>985.2</ele>
        <time>2025-06-12T05:11:22</time>
      </trkpt>
      <trkpt lat="41.38457695953548" lon="33.75392189249396">
        <ele>984.0</ele>
        <time>2025-06-12T05:11:26</time>
      </trkpt>
      <trkpt lat="41.38455701060593" lon="33.75399355776608">
        <ele>983.8</ele>
        <time>2025-06-12T05:11:27</time>
      </trkpt>
      <trkpt lat="41.38450026512146" lon="33.754222970455885">
        <ele>983.0</ele>
        <time>2025-06-12T05:11:30</time>
      </trkpt>
      <trkpt lat="41.384450728073716" lon="33.75446596182883">
        <ele>981.5999999999999</ele>
        <time>2025-06-12T05:11:33</time>
      </trkpt>
      <trkpt lat="41.38442072086036" lon="33.75472638756037">
        <ele>980.5999999999999</ele>
        <time>2025-06-12T05:11:36</time>
      </trkpt>
      <trkpt lat="41.3843877799809" lon="33.75499636866152">
        <ele>979.5999999999999</ele>
        <time>2025-06-12T05:11:39</time>
      </trkpt>
      <trkpt lat="41.38436984270811" lon="33.755072224885225">
        <ele>979.2</ele>
        <time>2025-06-12T05:11:40</time>
      </trkpt>
      <trkpt lat="41.38429926708341" lon="33.75533566810191">
        <ele>978.0</ele>
        <time>2025-06-12T05:11:44</time>
      </trkpt>
      <trkpt lat="41.384248891845345" lon="33.75554798170924">
        <ele>977.0</ele>
        <time>2025-06-12T05:11:47</time>
      </trkpt>
      <trkpt lat="41.38418837450445" lon="33.75582978129387">
        <ele>975.5999999999999</ele>
        <time>2025-06-12T05:11:51</time>
      </trkpt>
      <trkpt lat="41.38415275141597" lon="33.75596657395363">
        <ele>975.0</ele>
        <time>2025-06-12T05:11:53</time>
      </trkpt>
      <trkpt lat="41.384113943204284" lon="33.756106635555625">
        <ele>974.4000000000001</ele>
        <time>2025-06-12T05:11:55</time>
      </trkpt>
      <trkpt lat="41.38404437340796" lon="33.75638449564576">
        <ele>973.0</ele>
        <time>2025-06-12T05:11:59</time>
      </trkpt>
      <trkpt lat="41.384021155536175" lon="33.75645088031888">
        <ele>972.4000000000001</ele>
        <time>2025-06-12T05:12:00</time>
      </trkpt>
      <trkpt lat="41.38396658934653" lon="33.75658725388348">
        <ele>971.5999999999999</ele>
        <time>2025-06-12T05:12:02</time>
      </trkpt>
      <trkpt lat="41.38385435566306" lon="33.75687601044774">
        <ele>970.5999999999999</ele>
        <time>2025-06-12T05:12:06</time>
      </trkpt>
      <trkpt lat="41.38379652053118" lon="33.75702403485775">
        <ele>970.0</ele>
        <time>2025-06-12T05:12:08</time>
      </trkpt>
      <trkpt lat="41.38371211476624" lon="33.757263170555234">
        <ele>969.2</ele>
        <time>2025-06-12T05:12:11</time>
      </trkpt>
      <trkpt lat="41.38362645171583" lon="33.75750934705138">
        <ele>968.0</ele>
        <time>2025-06-12T05:12:14</time>
      </trkpt>
      <trkpt lat="41.38352561742067" lon="33.75774244777858">
        <ele>966.5999999999999</ele>
        <time>2025-06-12T05:12:17</time>
      </trkpt>
      <trkpt lat="41.383455377072096" lon="33.75791679136455">
        <ele>965.4000000000001</ele>
        <time>2025-06-12T05:12:19</time>
      </trkpt>
      <trkpt lat="41.38338865712285" lon="33.75809306278825">
        <ele>964.4000000000001</ele>
        <time>2025-06-12T05:12:21</time>
      </trkpt>
      <trkpt lat="41.383321518078446" lon="33.75825248658657">
        <ele>962.5999999999999</ele>
        <time>2025-06-12T05:12:23</time>
      </trkpt>
      <trkpt lat="41.383251613005996" lon="33.75841962173581">
        <ele>961.0</ele>
        <time>2025-06-12T05:12:25</time>
      </trkpt>
      <trkpt lat="41.3831874076277" lon="33.75859094783664">
        <ele>959.4000000000001</ele>
        <time>2025-06-12T05:12:27</time>
      </trkpt>
      <trkpt lat="41.38315815478563" lon="33.758673928678036">
        <ele>957.8</ele>
        <time>2025-06-12T05:12:28</time>
      </trkpt>
      <trkpt lat="41.38309990055859" lon="33.75883234664798">
        <ele>956.0</ele>
        <time>2025-06-12T05:12:30</time>
      </trkpt>
      <trkpt lat="41.38303284533322" lon="33.758988585323095">
        <ele>954.4000000000001</ele>
        <time>2025-06-12T05:12:32</time>
      </trkpt>
      <trkpt lat="41.38296151533723" lon="33.75913728028536">
        <ele>952.5999999999999</ele>
        <time>2025-06-12T05:12:34</time>
      </trkpt>
      <trkpt lat="41.38288632966578" lon="33.75927549786866">
        <ele>950.8</ele>
        <time>2025-06-12T05:12:36</time>
      </trkpt>
      <trkpt lat="41.38280904851854" lon="33.7594061717391">
        <ele>949.0</ele>
        <time>2025-06-12T05:12:38</time>
      </trkpt>
      <trkpt lat="41.38273193500936" lon="33.75952988862991">
        <ele>947.2</ele>
        <time>2025-06-12T05:12:40</time>
      </trkpt>
      <trkpt lat="41.38263378292322" lon="33.759646397084">
        <ele>945.4000000000001</ele>
        <time>2025-06-12T05:12:42</time>
      </trkpt>
      <trkpt lat="41.38258147984743" lon="33.75970616005361">
        <ele>944.5999999999999</ele>
        <time>2025-06-12T05:12:43</time>
      </trkpt>
      <trkpt lat="41.38252674601972" lon="33.75975955277681">
        <ele>943.5999999999999</ele>
        <time>2025-06-12T05:12:44</time>
      </trkpt>
      <trkpt lat="41.38241761364043" lon="33.759857369586825">
        <ele>942.0</ele>
        <time>2025-06-12T05:12:46</time>
      </trkpt>
      <trkpt lat="41.38231719844043" lon="33.75995577313006">
        <ele>940.2</ele>
        <time>2025-06-12T05:12:48</time>
      </trkpt>
      <trkpt lat="41.38222139328718" lon="33.76006968319416">
        <ele>938.2</ele>
        <time>2025-06-12T05:12:50</time>
      </trkpt>
      <trkpt lat="41.38211670331657" lon="33.760190131142735">
        <ele>936.2</ele>
        <time>2025-06-12T05:12:52</time>
      </trkpt>
      <trkpt lat="41.38201075606048" lon="33.760321056470275">
        <ele>934.4000000000001</ele>
        <time>2025-06-12T05:12:54</time>
      </trkpt>
      <trkpt lat="41.381906820461154" lon="33.76044016331434">
        <ele>931.5999999999999</ele>
        <time>2025-06-12T05:12:56</time>
      </trkpt>
      <trkpt lat="41.38180338777602" lon="33.7605597730726">
        <ele>929.5999999999999</ele>
        <time>2025-06-12T05:12:58</time>
      </trkpt>
      <trkpt lat="41.381752006709576" lon="33.76061886548996">
        <ele>928.5999999999999</ele>
        <time>2025-06-12T05:12:59</time>
      </trkpt>
      <trkpt lat="41.381642119959" lon="33.76074166037142">
        <ele>926.8</ele>
        <time>2025-06-12T05:13:01</time>
      </trkpt>
      <trkpt lat="41.38158411718905" lon="33.76080226153135">
        <ele>925.8</ele>
        <time>2025-06-12T05:13:02</time>
      </trkpt>
      <trkpt lat="41.381528126075864" lon="33.76086269505322">
        <ele>925.0</ele>
        <time>2025-06-12T05:13:03</time>
      </trkpt>
      <trkpt lat="41.38142729178071" lon="33.760980209335685">
        <ele>923.0</ele>
        <time>2025-06-12T05:13:05</time>
      </trkpt>
      <trkpt lat="41.38133601285517" lon="33.76110987737775">
        <ele>921.0</ele>
        <time>2025-06-12T05:13:07</time>
      </trkpt>
      <trkpt lat="41.381291253492236" lon="33.76117735169828">
        <ele>920.0</ele>
        <time>2025-06-12T05:13:08</time>
      </trkpt>
      <trkpt lat="41.38124741613865" lon="33.76124390400946">
        <ele>919.0</ele>
        <time>2025-06-12T05:13:09</time>
      </trkpt>
      <trkpt lat="41.381204249337316" lon="33.76131137832999">
        <ele>918.0</ele>
        <time>2025-06-12T05:13:10</time>
      </trkpt>
      <trkpt lat="41.381119173020124" lon="33.761450769379735">
        <ele>916.0</ele>
        <time>2025-06-12T05:13:12</time>
      </trkpt>
      <trkpt lat="41.38107441365719" lon="33.761519165709615">
        <ele>915.2</ele>
        <time>2025-06-12T05:13:13</time>
      </trkpt>
      <trkpt lat="41.381029738113284" lon="33.76158379018307">
        <ele>914.2</ele>
        <time>2025-06-12T05:13:14</time>
      </trkpt>
      <trkpt lat="41.38094508089125" lon="33.76170348376036">
        <ele>912.4000000000001</ele>
        <time>2025-06-12T05:13:16</time>
      </trkpt>
      <trkpt lat="41.380863189697266" lon="33.76180926337838">
        <ele>911.0</ele>
        <time>2025-06-12T05:13:18</time>
      </trkpt>
      <trkpt lat="41.3807837292552" lon="33.761903224512935">
        <ele>909.4000000000001</ele>
        <time>2025-06-12T05:13:20</time>
      </trkpt>
      <trkpt lat="41.380708208307624" lon="33.761990647763014">
        <ele>908.0</ele>
        <time>2025-06-12T05:13:22</time>
      </trkpt>
      <trkpt lat="41.38066931627691" lon="33.76203624531627">
        <ele>906.2</ele>
        <time>2025-06-12T05:13:23</time>
      </trkpt>
      <trkpt lat="41.380591532215476" lon="33.76213666051626">
        <ele>904.4000000000001</ele>
        <time>2025-06-12T05:13:25</time>
      </trkpt>
      <trkpt lat="41.38051559217274" lon="33.76224160194397">
        <ele>903.0</ele>
        <time>2025-06-12T05:13:27</time>
      </trkpt>
      <trkpt lat="41.38048608787358" lon="33.76230270601809">
        <ele>902.4000000000001</ele>
        <time>2025-06-12T05:13:28</time>
      </trkpt>
      <trkpt lat="41.380460523068905" lon="33.762364983558655">
        <ele>901.4000000000001</ele>
        <time>2025-06-12T05:13:29</time>
      </trkpt>
      <trkpt lat="41.38043881393969" lon="33.76243279315531">
        <ele>900.5999999999999</ele>
        <time>2025-06-12T05:13:30</time>
      </trkpt>
      <trkpt lat="41.38042364269495" lon="33.76250856555998">
        <ele>900.0</ele>
        <time>2025-06-12T05:13:31</time>
      </trkpt>
      <trkpt lat="41.38040880672634" lon="33.762663966044784">
        <ele>898.8</ele>
        <time>2025-06-12T05:13:33</time>
      </trkpt>
      <trkpt lat="41.380404280498624" lon="33.762819450348616">
        <ele>897.4000000000001</ele>
        <time>2025-06-12T05:13:35</time>
      </trkpt>
      <trkpt lat="41.380401430651546" lon="33.76297937706113">
        <ele>896.0</ele>
        <time>2025-06-12T05:13:37</time>
      </trkpt>
      <trkpt lat="41.380404280498624" lon="33.76314307563007">
        <ele>894.4000000000001</ele>
        <time>2025-06-12T05:13:39</time>
      </trkpt>
      <trkpt lat="41.380407297983766" lon="33.76330736093223">
        <ele>892.8</ele>
        <time>2025-06-12T05:13:41</time>
      </trkpt>
      <trkpt lat="41.38040838763118" lon="33.76339034177363">
        <ele>891.8</ele>
        <time>2025-06-12T05:13:42</time>
      </trkpt>
      <trkpt lat="41.38040863908827" lon="33.76347307115793">
        <ele>891.0</ele>
        <time>2025-06-12T05:13:43</time>
      </trkpt>
      <trkpt lat="41.38041098602116" lon="33.76363861374557">
        <ele>889.4000000000001</ele>
        <time>2025-06-12T05:13:45</time>
      </trkpt>
      <trkpt lat="41.38041878119111" lon="33.76380516216159">
        <ele>887.8</ele>
        <time>2025-06-12T05:13:47</time>
      </trkpt>
      <trkpt lat="41.38042381033301" lon="33.76396810635924">
        <ele>886.2</ele>
        <time>2025-06-12T05:13:49</time>
      </trkpt>
      <trkpt lat="41.380424816161394" lon="33.764048824086785">
        <ele>885.5999999999999</ele>
        <time>2025-06-12T05:13:50</time>
      </trkpt>
      <trkpt lat="41.380424397066236" lon="33.764131385833025">
        <ele>883.8</ele>
        <time>2025-06-12T05:13:51</time>
      </trkpt>
      <trkpt lat="41.380416015163064" lon="33.76430304720998">
        <ele>882.0</ele>
        <time>2025-06-12T05:13:53</time>
      </trkpt>
      <trkpt lat="41.38039874844253" lon="33.764480240643024">
        <ele>880.0</ele>
        <time>2025-06-12T05:13:55</time>
      </trkpt>
      <trkpt lat="41.38039036653936" lon="33.76457445323467">
        <ele>879.2</ele>
        <time>2025-06-12T05:13:56</time>
      </trkpt>
      <trkpt lat="41.38037879951298" lon="33.76467159949243">
        <ele>878.4000000000001</ele>
        <time>2025-06-12T05:13:57</time>
      </trkpt>
      <trkpt lat="41.38034242205322" lon="33.76486002467573">
        <ele>876.8</ele>
        <time>2025-06-12T05:13:59</time>
      </trkpt>
      <trkpt lat="41.38029808178544" lon="33.76503814011812">
        <ele>875.2</ele>
        <time>2025-06-12T05:14:01</time>
      </trkpt>
      <trkpt lat="41.38025742955506" lon="33.76520561054349">
        <ele>873.5999999999999</ele>
        <time>2025-06-12T05:14:03</time>
      </trkpt>
      <trkpt lat="41.38022432103753" lon="33.76534919254482">
        <ele>872.5999999999999</ele>
        <time>2025-06-12T05:14:05</time>
      </trkpt>
      <trkpt lat="41.38020537793636" lon="33.76541725359857">
        <ele>872.0</ele>
        <time>2025-06-12T05:14:06</time>
      </trkpt>
      <trkpt lat="41.380163384601474" lon="33.765537114813924">
        <ele>871.4000000000001</ele>
        <time>2025-06-12T05:14:08</time>
      </trkpt>
      <trkpt lat="41.380103286355734" lon="33.76570072956383">
        <ele>870.8</ele>
        <time>2025-06-12T05:14:11</time>
      </trkpt>
      <trkpt lat="41.38003187254071" lon="33.765887981280684">
        <ele>870.4000000000001</ele>
        <time>2025-06-12T05:14:14</time>
      </trkpt>
      <trkpt lat="41.37997638434172" lon="33.766009183600545">
        <ele>870.2</ele>
        <time>2025-06-12T05:14:16</time>
      </trkpt>
      <trkpt lat="41.3798909727484" lon="33.766245134174824">
        <ele>869.4000000000001</ele>
        <time>2025-06-12T05:14:20</time>
      </trkpt>
      <trkpt lat="41.37981771491468" lon="33.766428949311376">
        <ele>868.5999999999999</ele>
        <time>2025-06-12T05:14:23</time>
      </trkpt>
      <trkpt lat="41.37977136299014" lon="33.76654495485127">
        <ele>868.2</ele>
        <time>2025-06-12T05:14:25</time>
      </trkpt>
      <trkpt lat="41.37966834940016" lon="33.76684955321252">
        <ele>867.2</ele>
        <time>2025-06-12T05:14:30</time>
      </trkpt>
      <trkpt lat="41.379648987203836" lon="33.76690596342087">
        <ele>867.0</ele>
        <time>2025-06-12T05:14:31</time>
      </trkpt>
      <trkpt lat="41.379569778218865" lon="33.7671531457454">
        <ele>865.8</ele>
        <time>2025-06-12T05:14:36</time>
      </trkpt>
      <trkpt lat="41.37952744960785" lon="33.767291782423854">
        <ele>864.5999999999999</ele>
        <time>2025-06-12T05:14:40</time>
      </trkpt>
      <trkpt lat="41.379496520385146" lon="33.76745422370732">
        <ele>863.5999999999999</ele>
        <time>2025-06-12T05:14:44</time>
      </trkpt>
      <trkpt lat="41.379490066319704" lon="33.76749923452735">
        <ele>863.4000000000001</ele>
        <time>2025-06-12T05:14:45</time>
      </trkpt>
      <trkpt lat="41.379447570070624" lon="33.767671985551715">
        <ele>862.4000000000001</ele>
        <time>2025-06-12T05:14:50</time>
      </trkpt>
      <trkpt lat="41.37940289452672" lon="33.76772923395038">
        <ele>862.0</ele>
        <time>2025-06-12T05:14:52</time>
      </trkpt>
      <trkpt lat="41.379332318902016" lon="33.76780014485121">
        <ele>861.2</ele>
        <time>2025-06-12T05:14:55</time>
      </trkpt>
      <trkpt lat="41.379308346658945" lon="33.767822440713644">
        <ele>860.8</ele>
        <time>2025-06-12T05:14:56</time>
      </trkpt>
      <trkpt lat="41.379214972257614" lon="33.76791003160179">
        <ele>860.0</ele>
        <time>2025-06-12T05:15:00</time>
      </trkpt>
      <trkpt lat="41.37911472469568" lon="33.76801170408726">
        <ele>859.0</ele>
        <time>2025-06-12T05:15:04</time>
      </trkpt>
      <trkpt lat="41.37894348241389" lon="33.768110275268555">
        <ele>857.8</ele>
        <time>2025-06-12T05:15:09</time>
      </trkpt>
      <trkpt lat="41.378873409703374" lon="33.76813843846321">
        <ele>857.4000000000001</ele>
        <time>2025-06-12T05:15:11</time>
      </trkpt>
      <trkpt lat="41.37879713438451" lon="33.768165512010455">
        <ele>856.4000000000001</ele>
        <time>2025-06-12T05:15:14</time>
      </trkpt>
      <trkpt lat="41.378755224868655" lon="33.76817489974201">
        <ele>855.8</ele>
        <time>2025-06-12T05:15:16</time>
      </trkpt>
      <trkpt lat="41.37870795093477" lon="33.76817557029426">
        <ele>855.2</ele>
        <time>2025-06-12T05:15:19</time>
      </trkpt>
      <trkpt lat="41.3786974735558" lon="33.768170373514295">
        <ele>854.5999999999999</ele>
        <time>2025-06-12T05:15:22</time>
      </trkpt>
      <trkpt lat="41.37869579717517" lon="33.76816961914301">
        <ele>854.0</ele>
        <time>2025-06-12T05:15:25</time>
      </trkpt>
      <trkpt lat="41.37869546189904" lon="33.7681701220572">
        <ele>853.8</ele>
        <time>2025-06-12T05:15:34</time>
      </trkpt>
      <trkpt lat="41.37869453988969" lon="33.768171798437834">
        <ele>854.0</ele>
        <time>2025-06-12T05:16:01</time>
      </trkpt>
      <trkpt lat="41.37867970392108" lon="33.76817640848458">
        <ele>853.8</ele>
        <time>2025-06-12T05:16:12</time>
      </trkpt>
      <trkpt lat="41.378638967871666" lon="33.76818395219743">
        <ele>853.8</ele>
        <time>2025-06-12T05:16:14</time>
      </trkpt>
      <trkpt lat="41.37843294069171" lon="33.76820859499276">
        <ele>853.4000000000001</ele>
        <time>2025-06-12T05:16:21</time>
      </trkpt>
      <trkpt lat="41.3782730139792" lon="33.76822276040912">
        <ele>853.4000000000001</ele>
        <time>2025-06-12T05:16:25</time>
      </trkpt>
      <trkpt lat="41.378194307908416" lon="33.76823902130127">
        <ele>853.2</ele>
        <time>2025-06-12T05:16:27</time>
      </trkpt>
      <trkpt lat="41.378110237419605" lon="33.76826383173466">
        <ele>853.0</ele>
        <time>2025-06-12T05:16:29</time>
      </trkpt>
      <trkpt lat="41.37802138924599" lon="33.7682961858809">
        <ele>852.8</ele>
        <time>2025-06-12T05:16:31</time>
      </trkpt>
      <trkpt lat="41.37794184498489" lon="33.76834027469158">
        <ele>852.5999999999999</ele>
        <time>2025-06-12T05:16:33</time>
      </trkpt>
      <trkpt lat="41.37790379114449" lon="33.76836106181145">
        <ele>852.2</ele>
        <time>2025-06-12T05:16:34</time>
      </trkpt>
      <trkpt lat="41.37786657549441" lon="33.768375562503934">
        <ele>852.0</ele>
        <time>2025-06-12T05:16:35</time>
      </trkpt>
      <trkpt lat="41.377762304618955" lon="33.76840774901211">
        <ele>851.0</ele>
        <time>2025-06-12T05:16:38</time>
      </trkpt>
      <trkpt lat="41.377727603539824" lon="33.76842275261879">
        <ele>850.5999999999999</ele>
        <time>2025-06-12T05:16:39</time>
      </trkpt>
      <trkpt lat="41.3776096701622" lon="33.76847648061812">
        <ele>849.8</ele>
        <time>2025-06-12T05:16:42</time>
      </trkpt>
      <trkpt lat="41.37757069431245" lon="33.768496345728636">
        <ele>849.4000000000001</ele>
        <time>2025-06-12T05:16:43</time>
      </trkpt>
      <trkpt lat="41.37753079645336" lon="33.76851118169725">
        <ele>849.2</ele>
        <time>2025-06-12T05:16:44</time>
      </trkpt>
      <trkpt lat="41.3773678522557" lon="33.76853624358773">
        <ele>848.4000000000001</ele>
        <time>2025-06-12T05:16:48</time>
      </trkpt>
      <trkpt lat="41.37728964909911" lon="33.768549989908934">
        <ele>848.0</ele>
        <time>2025-06-12T05:16:50</time>
      </trkpt>
      <trkpt lat="41.37719091027975" lon="33.76856356859207">
        <ele>847.4000000000001</ele>
        <time>2025-06-12T05:16:53</time>
      </trkpt>
      <trkpt lat="41.37714304961264" lon="33.768617967143655">
        <ele>847.0</ele>
        <time>2025-06-12T05:16:55</time>
      </trkpt>
      <trkpt lat="41.37709460221231" lon="33.76877009868622">
        <ele>846.5999999999999</ele>
        <time>2025-06-12T05:16:58</time>
      </trkpt>
      <trkpt lat="41.37707741931081" lon="33.76882969401777">
        <ele>846.2</ele>
        <time>2025-06-12T05:16:59</time>
      </trkpt>
      <trkpt lat="41.37697683647275" lon="33.769130017608404">
        <ele>844.8</ele>
        <time>2025-06-12T05:17:04</time>
      </trkpt>
      <trkpt lat="41.376961413770914" lon="33.769188188016415">
        <ele>844.4000000000001</ele>
        <time>2025-06-12T05:17:05</time>
      </trkpt>
      <trkpt lat="41.376930233091116" lon="33.76931299455464">
        <ele>843.4000000000001</ele>
        <time>2025-06-12T05:17:07</time>
      </trkpt>
      <trkpt lat="41.37690349482" lon="33.769451631233096">
        <ele>842.2</ele>
        <time>2025-06-12T05:17:09</time>
      </trkpt>
      <trkpt lat="41.376895951107144" lon="33.76952371560037">
        <ele>841.8</ele>
        <time>2025-06-12T05:17:10</time>
      </trkpt>
      <trkpt lat="41.376889664679766" lon="33.769597727805376">
        <ele>841.2</ele>
        <time>2025-06-12T05:17:11</time>
      </trkpt>
      <trkpt lat="41.376883294433355" lon="33.76966771669686">
        <ele>840.5999999999999</ele>
        <time>2025-06-12T05:17:12</time>
      </trkpt>
      <trkpt lat="41.37687952257693" lon="33.76979730091989">
        <ele>839.5999999999999</ele>
        <time>2025-06-12T05:17:14</time>
      </trkpt>
      <trkpt lat="41.376881785690784" lon="33.76991297118366">
        <ele>838.4000000000001</ele>
        <time>2025-06-12T05:17:16</time>
      </trkpt>
      <trkpt lat="41.376886647194624" lon="33.77002109773457">
        <ele>837.2</ele>
        <time>2025-06-12T05:17:18</time>
      </trkpt>
      <trkpt lat="41.376890167593956" lon="33.7701387796551">
        <ele>835.8</ele>
        <time>2025-06-12T05:17:20</time>
      </trkpt>
      <trkpt lat="41.37690098024905" lon="33.77026408910751">
        <ele>834.4000000000001</ele>
        <time>2025-06-12T05:17:22</time>
      </trkpt>
      <trkpt lat="41.37691631913185" lon="33.77039375714958">
        <ele>833.0</ele>
        <time>2025-06-12T05:17:24</time>
      </trkpt>
      <trkpt lat="41.376927802339196" lon="33.77052468247712">
        <ele>831.8</ele>
        <time>2025-06-12T05:17:26</time>
      </trkpt>
      <trkpt lat="41.3769344240427" lon="33.77064839936793">
        <ele>830.8</ele>
        <time>2025-06-12T05:17:28</time>
      </trkpt>
      <trkpt lat="41.37694649398327" lon="33.770819306373596">
        <ele>829.2</ele>
        <time>2025-06-12T05:17:31</time>
      </trkpt>
      <trkpt lat="41.37695085257292" lon="33.77087160944939">
        <ele>828.2</ele>
        <time>2025-06-12T05:17:32</time>
      </trkpt>
      <trkpt lat="41.37696065939963" lon="33.77096691168845">
        <ele>826.8</ele>
        <time>2025-06-12T05:17:34</time>
      </trkpt>
      <trkpt lat="41.376979518681765" lon="33.77105710096657">
        <ele>825.5999999999999</ele>
        <time>2025-06-12T05:17:36</time>
      </trkpt>
      <trkpt lat="41.376983961090446" lon="33.771102698519826">
        <ele>825.0</ele>
        <time>2025-06-12T05:17:37</time>
      </trkpt>
      <trkpt lat="41.37698957696557" lon="33.77114745788276">
        <ele>824.2</ele>
        <time>2025-06-12T05:17:38</time>
      </trkpt>
      <trkpt lat="41.377006843686104" lon="33.771238988265395">
        <ele>822.8</ele>
        <time>2025-06-12T05:17:40</time>
      </trkpt>
      <trkpt lat="41.37703735381365" lon="33.7713249027729">
        <ele>821.5999999999999</ele>
        <time>2025-06-12T05:17:42</time>
      </trkpt>
      <trkpt lat="41.377064511179924" lon="33.771407129243016">
        <ele>820.5999999999999</ele>
        <time>2025-06-12T05:17:44</time>
      </trkpt>
      <trkpt lat="41.37709644623101" lon="33.77147636376321">
        <ele>819.4000000000001</ele>
        <time>2025-06-12T05:17:46</time>
      </trkpt>
      <trkpt lat="41.377128129824996" lon="33.77152573317289">
        <ele>818.2</ele>
        <time>2025-06-12T05:17:48</time>
      </trkpt>
      <trkpt lat="41.37714430689812" lon="33.77154216170311">
        <ele>817.5999999999999</ele>
        <time>2025-06-12T05:17:49</time>
      </trkpt>
      <trkpt lat="41.377156963571906" lon="33.77155817113817">
        <ele>817.0</ele>
        <time>2025-06-12T05:17:50</time>
      </trkpt>
      <trkpt lat="41.37719074264169" lon="33.771627405658364">
        <ele>815.5999999999999</ele>
        <time>2025-06-12T05:17:53</time>
      </trkpt>
      <trkpt lat="41.3772195763886" lon="33.77167266793549">
        <ele>814.8</ele>
        <time>2025-06-12T05:17:55</time>
      </trkpt>
      <trkpt lat="41.37723742984235" lon="33.77169471234083">
        <ele>814.2</ele>
        <time>2025-06-12T05:17:56</time>
      </trkpt>
      <trkpt lat="41.37732418254018" lon="33.7717704847455">
        <ele>813.0</ele>
        <time>2025-06-12T05:18:00</time>
      </trkpt>
      <trkpt lat="41.37734413146973" lon="33.771781884133816">
        <ele>813.0</ele>
        <time>2025-06-12T05:18:01</time>
      </trkpt>
      <trkpt lat="41.37741470709443" lon="33.771795965731144">
        <ele>812.0</ele>
        <time>2025-06-12T05:18:04</time>
      </trkpt>
      <trkpt lat="41.3774939160794" lon="33.77179923467338">
        <ele>810.8</ele>
        <time>2025-06-12T05:18:07</time>
      </trkpt>
      <trkpt lat="41.377519899979234" lon="33.77180309034884">
        <ele>810.4000000000001</ele>
        <time>2025-06-12T05:18:08</time>
      </trkpt>
      <trkpt lat="41.377568850293756" lon="33.771802335977554">
        <ele>809.5999999999999</ele>
        <time>2025-06-12T05:18:10</time>
      </trkpt>
      <trkpt lat="41.37760832905769" lon="33.771783811971545">
        <ele>808.2</ele>
        <time>2025-06-12T05:18:13</time>
      </trkpt>
      <trkpt lat="41.377601623535156" lon="33.771786745637655">
        <ele>806.8</ele>
        <time>2025-06-12T05:18:16</time>
      </trkpt>
      <trkpt lat="41.377600030973554" lon="33.771787667647004">
        <ele>805.4000000000001</ele>
        <time>2025-06-12T05:18:19</time>
      </trkpt>
      <trkpt lat="41.37760019861162" lon="33.77178741618991">
        <ele>804.4000000000001</ele>
        <time>2025-06-12T05:18:22</time>
      </trkpt>
      <trkpt lat="41.377604054287076" lon="33.77178205177188">
        <ele>804.2</ele>
        <time>2025-06-12T05:18:23</time>
      </trkpt>
      <trkpt lat="41.377672953531146" lon="33.771747183054686">
        <ele>804.0</ele>
        <time>2025-06-12T05:18:29</time>
      </trkpt>
      <trkpt lat="41.377764316275716" lon="33.771789595484734">
        <ele>803.5999999999999</ele>
        <time>2025-06-12T05:18:34</time>
      </trkpt>
      <trkpt lat="41.37779088690877" lon="33.77179244533181">
        <ele>803.4000000000001</ele>
        <time>2025-06-12T05:18:36</time>
      </trkpt>
      <trkpt lat="41.377800945192575" lon="33.771785823628306">
        <ele>802.5999999999999</ele>
        <time>2025-06-12T05:18:39</time>
      </trkpt>
      <trkpt lat="41.37780262157321" lon="33.77177878282964">
        <ele>802.4000000000001</ele>
        <time>2025-06-12T05:18:41</time>
      </trkpt>
      <trkpt lat="41.37780161574483" lon="33.77177668735385">
        <ele>801.5999999999999</ele>
        <time>2025-06-12T05:18:50</time>
      </trkpt>
      <trkpt lat="41.37780019082129" lon="33.77177911810577">
        <ele>801.8</ele>
        <time>2025-06-12T05:19:01</time>
      </trkpt>
      <trkpt lat="41.37780010700226" lon="33.77177970483899">
        <ele>801.8</ele>
        <time>2025-06-12T05:19:18</time>
      </trkpt>
      <trkpt lat="41.37780211865902" lon="33.77178196795285">
        <ele>801.8</ele>
        <time>2025-06-12T05:19:32</time>
      </trkpt>
      <trkpt lat="41.37788535095751" lon="33.77177224494517">
        <ele>801.8</ele>
        <time>2025-06-12T05:19:40</time>
      </trkpt>
      <trkpt lat="41.37804485857487" lon="33.771804850548506">
        <ele>801.8</ele>
        <time>2025-06-12T05:19:45</time>
      </trkpt>
      <trkpt lat="41.37824225239456" lon="33.77182027325034">
        <ele>801.2</ele>
        <time>2025-06-12T05:19:50</time>
      </trkpt>
      <trkpt lat="41.37827770784497" lon="33.771824799478054">
        <ele>801.0</ele>
        <time>2025-06-12T05:19:51</time>
      </trkpt>
      <trkpt lat="41.378475185483694" lon="33.771832594648004">
        <ele>800.4000000000001</ele>
        <time>2025-06-12T05:19:57</time>
      </trkpt>
      <trkpt lat="41.378687415272" lon="33.771818513050675">
        <ele>800.4000000000001</ele>
        <time>2025-06-12T05:20:04</time>
      </trkpt>
      <trkpt lat="41.378866620361805" lon="33.77187006175518">
        <ele>800.8</ele>
        <time>2025-06-12T05:20:11</time>
      </trkpt>
      <trkpt lat="41.37887961231172" lon="33.77188900485635">
        <ele>801.0</ele>
        <time>2025-06-12T05:20:12</time>
      </trkpt>
      <trkpt lat="41.37890048325062" lon="33.77196083776653">
        <ele>801.0</ele>
        <time>2025-06-12T05:20:15</time>
      </trkpt>
      <trkpt lat="41.3789170794189" lon="33.77201188355684">
        <ele>801.2</ele>
        <time>2025-06-12T05:20:17</time>
      </trkpt>
      <trkpt lat="41.3789498526603" lon="33.77214909531176">
        <ele>801.4000000000001</ele>
        <time>2025-06-12T05:20:21</time>
      </trkpt>
      <trkpt lat="41.37901606969535" lon="33.77241681329906">
        <ele>801.4000000000001</ele>
        <time>2025-06-12T05:20:28</time>
      </trkpt>
      <trkpt lat="41.3791258726269" lon="33.77271101810038">
        <ele>802.0</ele>
        <time>2025-06-12T05:20:36</time>
      </trkpt>
      <trkpt lat="41.379211116582155" lon="33.7728810030967">
        <ele>802.2</ele>
        <time>2025-06-12T05:20:41</time>
      </trkpt>
      <trkpt lat="41.37929434888065" lon="33.77306171692908">
        <ele>802.2</ele>
        <time>2025-06-12T05:20:46</time>
      </trkpt>
      <trkpt lat="41.37936073355377" lon="33.773327423259616">
        <ele>802.0</ele>
        <time>2025-06-12T05:20:52</time>
      </trkpt>
      <trkpt lat="41.37945712544024" lon="33.773617688566446">
        <ele>800.4000000000001</ele>
        <time>2025-06-12T05:20:58</time>
      </trkpt>
      <trkpt lat="41.37948042713106" lon="33.77365364693105">
        <ele>800.2</ele>
        <time>2025-06-12T05:20:59</time>
      </trkpt>
      <trkpt lat="41.37958754785359" lon="33.77378448843956">
        <ele>799.0</ele>
        <time>2025-06-12T05:21:04</time>
      </trkpt>
      <trkpt lat="41.37967295944691" lon="33.773869816213846">
        <ele>798.0</ele>
        <time>2025-06-12T05:21:08</time>
      </trkpt>
      <trkpt lat="41.379754515364766" lon="33.77392865717411">
        <ele>797.2</ele>
        <time>2025-06-12T05:21:11</time>
      </trkpt>
      <trkpt lat="41.37980304658413" lon="33.77398146316409">
        <ele>796.8</ele>
        <time>2025-06-12T05:21:13</time>
      </trkpt>
      <trkpt lat="41.37990077957511" lon="33.77407684922218">
        <ele>796.8</ele>
        <time>2025-06-12T05:21:17</time>
      </trkpt>
      <trkpt lat="41.3800550904125" lon="33.77417047508061">
        <ele>796.8</ele>
        <time>2025-06-12T05:21:23</time>
      </trkpt>
      <trkpt lat="41.38021493330598" lon="33.77432914450765">
        <ele>797.4000000000001</ele>
        <time>2025-06-12T05:21:29</time>
      </trkpt>
      <trkpt lat="41.380403358489275" lon="33.77449854277074">
        <ele>797.4000000000001</ele>
        <time>2025-06-12T05:21:36</time>
      </trkpt>
      <trkpt lat="41.3805297575891" lon="33.77464598044753">
        <ele>796.8</ele>
        <time>2025-06-12T05:21:42</time>
      </trkpt>
      <trkpt lat="41.38061751611531" lon="33.77477657049894">
        <ele>796.2</ele>
        <time>2025-06-12T05:21:47</time>
      </trkpt>
      <trkpt lat="41.380686750635505" lon="33.77486776560545">
        <ele>795.8</ele>
        <time>2025-06-12T05:21:52</time>
      </trkpt>
      <trkpt lat="41.38070301152766" lon="33.77488679252565">
        <ele>795.5999999999999</ele>
        <time>2025-06-12T05:21:53</time>
      </trkpt>
      <trkpt lat="41.3808009121567" lon="33.77504370175302">
        <ele>795.2</ele>
        <time>2025-06-12T05:21:58</time>
      </trkpt>
      <trkpt lat="41.38091457076371" lon="33.77520932815969">
        <ele>794.5999999999999</ele>
        <time>2025-06-12T05:22:03</time>
      </trkpt>
      <trkpt lat="41.381042981520295" lon="33.77537738531828">
        <ele>793.8</ele>
        <time>2025-06-12T05:22:08</time>
      </trkpt>
      <trkpt lat="41.38109754770994" lon="33.775455420836806">
        <ele>793.4000000000001</ele>
        <time>2025-06-12T05:22:10</time>
      </trkpt>
      <trkpt lat="41.3812121283263" lon="33.775642504915595">
        <ele>792.5999999999999</ele>
        <time>2025-06-12T05:22:14</time>
      </trkpt>
      <trkpt lat="41.3812449015677" lon="33.775681564584374">
        <ele>792.4000000000001</ele>
        <time>2025-06-12T05:22:15</time>
      </trkpt>
      <trkpt lat="41.38141413219273" lon="33.775822799652815">
        <ele>791.4000000000001</ele>
        <time>2025-06-12T05:22:20</time>
      </trkpt>
      <trkpt lat="41.381451850757" lon="33.77583629451692">
        <ele>791.2</ele>
        <time>2025-06-12T05:22:21</time>
      </trkpt>
      <trkpt lat="41.38149292208254" lon="33.77584517933428">
        <ele>791.0</ele>
        <time>2025-06-12T05:22:22</time>
      </trkpt>
      <trkpt lat="41.38166525401175" lon="33.7758753541857">
        <ele>790.0</ele>
        <time>2025-06-12T05:22:26</time>
      </trkpt>
      <trkpt lat="41.38188913464546" lon="33.7758994102478">
        <ele>789.0</ele>
        <time>2025-06-12T05:22:31</time>
      </trkpt>
      <trkpt lat="41.381918136030436" lon="33.77591307274997">
        <ele>788.5999999999999</ele>
        <time>2025-06-12T05:22:32</time>
      </trkpt>
      <trkpt lat="41.381917633116245" lon="33.77602103166282">
        <ele>787.8</ele>
        <time>2025-06-12T05:22:35</time>
      </trkpt>
      <trkpt lat="41.38188838027418" lon="33.77610401250422">
        <ele>787.5999999999999</ele>
        <time>2025-06-12T05:22:37</time>
      </trkpt>
      <trkpt lat="41.381826270371675" lon="33.7762379553169">
        <ele>786.8</ele>
        <time>2025-06-12T05:22:41</time>
      </trkpt>
      <trkpt lat="41.381816463544965" lon="33.776326132938266">
        <ele>786.2</ele>
        <time>2025-06-12T05:22:46</time>
      </trkpt>
      <trkpt lat="41.38180975802243" lon="33.776351027190685">
        <ele>786.0</ele>
        <time>2025-06-12T05:22:47</time>
      </trkpt>
      <trkpt lat="41.38178293593228" lon="33.776411125436425">
        <ele>785.8</ele>
        <time>2025-06-12T05:22:49</time>
      </trkpt>
      <trkpt lat="41.38175527565181" lon="33.776484383270144">
        <ele>785.8</ele>
        <time>2025-06-12T05:22:51</time>
      </trkpt>
      <trkpt lat="41.38168478384614" lon="33.77668261528015">
        <ele>785.5999999999999</ele>
        <time>2025-06-12T05:22:57</time>
      </trkpt>
      <trkpt lat="41.38164388015866" lon="33.77677096053958">
        <ele>785.2</ele>
        <time>2025-06-12T05:23:02</time>
      </trkpt>
      <trkpt lat="41.381486132740974" lon="33.776987632736564">
        <ele>784.8</ele>
        <time>2025-06-12T05:23:09</time>
      </trkpt>
      <trkpt lat="41.38140046969056" lon="33.77711218781769">
        <ele>784.4000000000001</ele>
        <time>2025-06-12T05:23:14</time>
      </trkpt>
      <trkpt lat="41.381413377821445" lon="33.777181170880795">
        <ele>784.0</ele>
        <time>2025-06-12T05:23:20</time>
      </trkpt>
      <trkpt lat="41.38141513802111" lon="33.77718326635659">
        <ele>783.8</ele>
        <time>2025-06-12T05:23:32</time>
      </trkpt>
      <trkpt lat="41.38141295872629" lon="33.77720732241869">
        <ele>783.8</ele>
        <time>2025-06-12T05:23:47</time>
      </trkpt>
      <trkpt lat="41.38142125681043" lon="33.777219308540225">
        <ele>783.8</ele>
        <time>2025-06-12T05:23:51</time>
      </trkpt>
      <trkpt lat="41.38143206946552" lon="33.77725291997194">
        <ele>783.5999999999999</ele>
        <time>2025-06-12T05:24:02</time>
      </trkpt>
      <trkpt lat="41.3814381044358" lon="33.7772670853883">
        <ele>783.8</ele>
        <time>2025-06-12T05:24:15</time>
      </trkpt>
      <trkpt lat="41.381385549902916" lon="33.77736557275057">
        <ele>783.5999999999999</ele>
        <time>2025-06-12T05:24:24</time>
      </trkpt>
      <trkpt lat="41.38130055740476" lon="33.77747621387243">
        <ele>783.4000000000001</ele>
        <time>2025-06-12T05:24:31</time>
      </trkpt>
      <trkpt lat="41.38124364428222" lon="33.777484092861414">
        <ele>783.2</ele>
        <time>2025-06-12T05:24:34</time>
      </trkpt>
      <trkpt lat="41.38118430040777" lon="33.777435310184956">
        <ele>783.2</ele>
        <time>2025-06-12T05:24:37</time>
      </trkpt>
      <trkpt lat="41.381126549094915" lon="33.777401112020016">
        <ele>783.2</ele>
        <time>2025-06-12T05:24:40</time>
      </trkpt>
      <trkpt lat="41.38106854632497" lon="33.77736557275057">
        <ele>783.0</ele>
        <time>2025-06-12T05:24:43</time>
      </trkpt>
      <trkpt lat="41.38102454133332" lon="33.77735895104706">
        <ele>782.5999999999999</ele>
        <time>2025-06-12T05:24:45</time>
      </trkpt>
      <trkpt lat="41.38093393296003" lon="33.77734595909715">
        <ele>782.0</ele>
        <time>2025-06-12T05:24:50</time>
      </trkpt>
      <trkpt lat="41.38092161156237" lon="33.77733380533755">
        <ele>781.8</ele>
        <time>2025-06-12T05:24:51</time>
      </trkpt>
      <trkpt lat="41.380892023444176" lon="33.77731595188379">
        <ele>781.5999999999999</ele>
        <time>2025-06-12T05:24:56</time>
      </trkpt>
      <trkpt lat="41.38088590465486" lon="33.7772929854691">
        <ele>780.5999999999999</ele>
        <time>2025-06-12T05:25:07</time>
      </trkpt>
      <trkpt lat="41.37958352454007" lon="33.776216162368655">
        <ele>778.8</ele>
        <time>2025-06-12T06:31:00</time>
      </trkpt>
      <trkpt lat="41.37958905659616" lon="33.7762258015573">
        <ele>778.8</ele>
        <time>2025-06-12T06:31:02</time>
      </trkpt>
    </trkseg>
  </trk>
</gpx>