<?xml version="1.0" encoding="UTF-8"?>
<gpx xmlns="http://www.topografix.com/GPX/1/1" xmlns:xsi="http://www.w3.org/2001/XMLSchema-instance" xsi:schemaLocation="http://www.topografix.com/GPX/1/1 http://www.topografix.com/GPX/1/1/gpx.xsd" version="1.1" creator="gpx.py -- https://github.com/tkrajina/gpxpy">
  <trk>
    <trkseg>
      <trkpt lat="41.287347888574004" lon="36.29044630564749">
        <ele>50.60000000000002</ele>
        <time>2025-06-13T09:26:54</time>
      </trkpt>
      <trkpt lat="41.28716885112226" lon="36.29043750464916">
        <ele>50.799999999999955</ele>
        <time>2025-06-13T09:27:00</time>
      </trkpt>
      <trkpt lat="41.28699182532728" lon="36.29039232619107">
        <ele>50.799999999999955</ele>
        <time>2025-06-13T09:27:06</time>
      </trkpt>
      <trkpt lat="41.28689534962177" lon="36.29034848883748">
        <ele>50.60000000000002</ele>
        <time>2025-06-13T09:27:11</time>
      </trkpt>
      <trkpt lat="41.28681211732328" lon="36.29028403200209">
        <ele>50.60000000000002</ele>
        <time>2025-06-13T09:27:17</time>
      </trkpt>
      <trkpt lat="41.286664763465524" lon="36.29007196985185">
        <ele>50.60000000000002</ele>
        <time>2025-06-13T09:27:24</time>
      </trkpt>
      <trkpt lat="41.28646577708423" lon="36.28987650386989">
        <ele>50.60000000000002</ele>
        <time>2025-06-13T09:27:31</time>
      </trkpt>
      <trkpt lat="41.28635622560978" lon="36.289855632930994">
        <ele>50.60000000000002</ele>
        <time>2025-06-13T09:27:34</time>
      </trkpt>
      <trkpt lat="41.28632579930127" lon="36.28987792879343">
        <ele>50.60000000000002</ele>
        <time>2025-06-13T09:27:35</time>
      </trkpt>
      <trkpt lat="41.286308197304606" lon="36.29000340588391">
        <ele>50.60000000000002</ele>
        <time>2025-06-13T09:27:38</time>
      </trkpt>
      <trkpt lat="41.286378018558025" lon="36.290179090574384">
        <ele>50.60000000000002</ele>
        <time>2025-06-13T09:27:42</time>
      </trkpt>
      <trkpt lat="41.28640215843916" lon="36.29022183828056">
        <ele>50.60000000000002</ele>
        <time>2025-06-13T09:27:43</time>
      </trkpt>
      <trkpt lat="41.28661036491394" lon="36.29049550741911">
        <ele>50.39999999999998</ele>
        <time>2025-06-13T09:27:50</time>
      </trkpt>
      <trkpt lat="41.28682393580675" lon="36.29064990207553">
        <ele>50.39999999999998</ele>
        <time>2025-06-13T09:27:56</time>
      </trkpt>
      <trkpt lat="41.28700372762978" lon="36.29073363728821">
        <ele>50.200000000000045</ele>
        <time>2025-06-13T09:28:01</time>
      </trkpt>
      <trkpt lat="41.28715711645782" lon="36.2907687574625">
        <ele>50.0</ele>
        <time>2025-06-13T09:28:05</time>
      </trkpt>
      <trkpt lat="41.287463726475835" lon="36.2907566037029">
        <ele>50.200000000000045</ele>
        <time>2025-06-13T09:28:13</time>
      </trkpt>
      <trkpt lat="41.287724152207375" lon="36.29066063091159">
        <ele>50.39999999999998</ele>
        <time>2025-06-13T09:28:20</time>
      </trkpt>
      <trkpt lat="41.28791148774326" lon="36.290487293154">
        <ele>50.0</ele>
        <time>2025-06-13T09:28:26</time>
      </trkpt>
      <trkpt lat="41.288117095828056" lon="36.29018856212497">
        <ele>49.799999999999955</ele>
        <time>2025-06-13T09:28:34</time>
      </trkpt>
      <trkpt lat="41.288246093317866" lon="36.28988379612565">
        <ele>49.799999999999955</ele>
        <time>2025-06-13T09:28:41</time>
      </trkpt>
      <trkpt lat="41.288308035582304" lon="36.289561511948705">
        <ele>49.799999999999955</ele>
        <time>2025-06-13T09:28:47</time>
      </trkpt>
      <trkpt lat="41.28831038251519" lon="36.28950510174036">
        <ele>50.0</ele>
        <time>2025-06-13T09:28:48</time>
      </trkpt>
      <trkpt lat="41.28829621709883" lon="36.28905273042619">
        <ele>50.200000000000045</ele>
        <time>2025-06-13T09:28:56</time>
      </trkpt>
      <trkpt lat="41.288281716406345" lon="36.28859859891236">
        <ele>50.200000000000045</ele>
        <time>2025-06-13T09:29:04</time>
      </trkpt>
      <trkpt lat="41.288267048075795" lon="36.28843557089567">
        <ele>50.0</ele>
        <time>2025-06-13T09:29:07</time>
      </trkpt>
      <trkpt lat="41.28826092928648" lon="36.28827438689768">
        <ele>50.0</ele>
        <time>2025-06-13T09:29:10</time>
      </trkpt>
      <trkpt lat="41.28823067061603" lon="36.28809979185462">
        <ele>50.0</ele>
        <time>2025-06-13T09:29:15</time>
      </trkpt>
      <trkpt lat="41.28822128288448" lon="36.28795017488301">
        <ele>49.60000000000002</ele>
        <time>2025-06-13T09:29:20</time>
      </trkpt>
      <trkpt lat="41.28823201172054" lon="36.28764842636883">
        <ele>49.39999999999998</ele>
        <time>2025-06-13T09:29:26</time>
      </trkpt>
      <trkpt lat="41.28820518963039" lon="36.28750383853912">
        <ele>49.39999999999998</ele>
        <time>2025-06-13T09:29:29</time>
      </trkpt>
      <trkpt lat="41.28818088211119" lon="36.2873565685004">
        <ele>49.200000000000045</ele>
        <time>2025-06-13T09:29:32</time>
      </trkpt>
      <trkpt lat="41.28815431147814" lon="36.287255231291056">
        <ele>49.200000000000045</ele>
        <time>2025-06-13T09:29:34</time>
      </trkpt>
      <trkpt lat="41.288098990917206" lon="36.28717577084899">
        <ele>49.200000000000045</ele>
        <time>2025-06-13T09:29:36</time>
      </trkpt>
      <trkpt lat="41.287972843274474" lon="36.2871736753732">
        <ele>49.200000000000045</ele>
        <time>2025-06-13T09:29:39</time>
      </trkpt>
      <trkpt lat="41.287930849939585" lon="36.28719094209373">
        <ele>49.200000000000045</ele>
        <time>2025-06-13T09:29:40</time>
      </trkpt>
      <trkpt lat="41.28762474283576" lon="36.28735061734915">
        <ele>49.0</ele>
        <time>2025-06-13T09:29:47</time>
      </trkpt>
      <trkpt lat="41.2873375788331" lon="36.28751163370907">
        <ele>49.0</ele>
        <time>2025-06-13T09:29:54</time>
      </trkpt>
      <trkpt lat="41.28724747337401" lon="36.287558572366834">
        <ele>49.39999999999998</ele>
        <time>2025-06-13T09:29:58</time>
      </trkpt>
      <trkpt lat="41.28715954720974" lon="36.28759687766433">
        <ele>49.60000000000002</ele>
        <time>2025-06-13T09:30:03</time>
      </trkpt>
      <trkpt lat="41.287023508921266" lon="36.28765571862459">
        <ele>49.799999999999955</ele>
        <time>2025-06-13T09:30:10</time>
      </trkpt>
      <trkpt lat="41.28684254363179" lon="36.28776560537517">
        <ele>49.799999999999955</ele>
        <time>2025-06-13T09:30:16</time>
      </trkpt>
      <trkpt lat="41.286652609705925" lon="36.28790340386331">
        <ele>49.799999999999955</ele>
        <time>2025-06-13T09:30:22</time>
      </trkpt>
      <trkpt lat="41.28629755228758" lon="36.28802980296314">
        <ele>49.799999999999955</ele>
        <time>2025-06-13T09:30:31</time>
      </trkpt>
      <trkpt lat="41.286018434911966" lon="36.28807959146798">
        <ele>49.799999999999955</ele>
        <time>2025-06-13T09:30:38</time>
      </trkpt>
      <trkpt lat="41.28598155453801" lon="36.28810037858784">
        <ele>49.799999999999955</ele>
        <time>2025-06-13T09:30:39</time>
      </trkpt>
      <trkpt lat="41.2858887668699" lon="36.2882009614259">
        <ele>50.0</ele>
        <time>2025-06-13T09:30:42</time>
      </trkpt>
      <trkpt lat="41.28584987483919" lon="36.28835393115878">
        <ele>50.0</ele>
        <time>2025-06-13T09:30:45</time>
      </trkpt>
      <trkpt lat="41.28584526479244" lon="36.28841017372906">
        <ele>50.0</ele>
        <time>2025-06-13T09:30:46</time>
      </trkpt>
      <trkpt lat="41.28585431724787" lon="36.28880261443555">
        <ele>50.0</ele>
        <time>2025-06-13T09:30:53</time>
      </trkpt>
      <trkpt lat="41.28584962338209" lon="36.2890834081918">
        <ele>50.39999999999998</ele>
        <time>2025-06-13T09:30:58</time>
      </trkpt>
      <trkpt lat="41.28584560006857" lon="36.28925087861717">
        <ele>50.60000000000002</ele>
        <time>2025-06-13T09:31:01</time>
      </trkpt>
      <trkpt lat="41.2858337815851" lon="36.28969076089561">
        <ele>50.799999999999955</ele>
        <time>2025-06-13T09:31:09</time>
      </trkpt>
      <trkpt lat="41.28581743687391" lon="36.290134163573384">
        <ele>50.799999999999955</ele>
        <time>2025-06-13T09:31:17</time>
      </trkpt>
      <trkpt lat="41.2857957277447" lon="36.29065493121743">
        <ele>50.799999999999955</ele>
        <time>2025-06-13T09:31:26</time>
      </trkpt>
      <trkpt lat="41.285783825442195" lon="36.291056256741285">
        <ele>50.60000000000002</ele>
        <time>2025-06-13T09:31:33</time>
      </trkpt>
      <trkpt lat="41.28578005358577" lon="36.2915354501456">
        <ele>50.0</ele>
        <time>2025-06-13T09:31:42</time>
      </trkpt>
      <trkpt lat="41.28577879630029" lon="36.29176955670118">
        <ele>49.799999999999955</ele>
        <time>2025-06-13T09:31:46</time>
      </trkpt>
      <trkpt lat="41.28577661700547" lon="36.29197466187179">
        <ele>49.60000000000002</ele>
        <time>2025-06-13T09:31:49</time>
      </trkpt>
      <trkpt lat="41.285782903432846" lon="36.292045656591654">
        <ele>49.60000000000002</ele>
        <time>2025-06-13T09:31:50</time>
      </trkpt>
      <trkpt lat="41.285815592855215" lon="36.292321421206">
        <ele>49.39999999999998</ele>
        <time>2025-06-13T09:31:54</time>
      </trkpt>
      <trkpt lat="41.285830764099956" lon="36.29245796240866">
        <ele>49.200000000000045</ele>
        <time>2025-06-13T09:31:56</time>
      </trkpt>
      <trkpt lat="41.285894298925996" lon="36.292855348438025">
        <ele>49.200000000000045</ele>
        <time>2025-06-13T09:32:02</time>
      </trkpt>
      <trkpt lat="41.28592908382416" lon="36.29320252686739">
        <ele>49.39999999999998</ele>
        <time>2025-06-13T09:32:08</time>
      </trkpt>
      <trkpt lat="41.28594961948693" lon="36.29348994232714">
        <ele>50.200000000000045</ele>
        <time>2025-06-13T09:32:15</time>
      </trkpt>
      <trkpt lat="41.28595154732466" lon="36.29352212883532">
        <ele>50.39999999999998</ele>
        <time>2025-06-13T09:32:16</time>
      </trkpt>
      <trkpt lat="41.28597074188292" lon="36.29372061230242">
        <ele>51.39999999999998</ele>
        <time>2025-06-13T09:32:22</time>
      </trkpt>
      <trkpt lat="41.28597082570195" lon="36.293754475191236">
        <ele>51.60000000000002</ele>
        <time>2025-06-13T09:32:23</time>
      </trkpt>
      <trkpt lat="41.28597744740546" lon="36.29401624202728">
        <ele>52.60000000000002</ele>
        <time>2025-06-13T09:32:31</time>
      </trkpt>
      <trkpt lat="41.285978788509965" lon="36.29404842853546">
        <ele>52.60000000000002</ele>
        <time>2025-06-13T09:32:32</time>
      </trkpt>
      <trkpt lat="41.28597652539611" lon="36.294238697737455">
        <ele>53.60000000000002</ele>
        <time>2025-06-13T09:32:38</time>
      </trkpt>
      <trkpt lat="41.28597417846322" lon="36.29426971077919">
        <ele>54.0</ele>
        <time>2025-06-13T09:32:39</time>
      </trkpt>
      <trkpt lat="41.28596688620746" lon="36.294331988319755">
        <ele>54.799999999999955</ele>
        <time>2025-06-13T09:32:41</time>
      </trkpt>
      <trkpt lat="41.28596252761781" lon="36.294456124305725">
        <ele>55.799999999999955</ele>
        <time>2025-06-13T09:32:45</time>
      </trkpt>
      <trkpt lat="41.28596059978008" lon="36.29454740323126">
        <ele>56.39999999999998</ele>
        <time>2025-06-13T09:32:48</time>
      </trkpt>
      <trkpt lat="41.285952888429165" lon="36.29460649564862">
        <ele>57.0</ele>
        <time>2025-06-13T09:32:50</time>
      </trkpt>
      <trkpt lat="41.28593863919377" lon="36.2948009558022">
        <ele>57.60000000000002</ele>
        <time>2025-06-13T09:32:57</time>
      </trkpt>
      <trkpt lat="41.2859355378896" lon="36.294850409030914">
        <ele>58.0</ele>
        <time>2025-06-13T09:32:59</time>
      </trkpt>
      <trkpt lat="41.285929922014475" lon="36.294997511431575">
        <ele>58.799999999999955</ele>
        <time>2025-06-13T09:33:05</time>
      </trkpt>
      <trkpt lat="41.28592958673835" lon="36.295022489503026">
        <ele>59.0</ele>
        <time>2025-06-13T09:33:06</time>
      </trkpt>
      <trkpt lat="41.28592229448259" lon="36.29517353139818">
        <ele>60.200000000000045</ele>
        <time>2025-06-13T09:33:12</time>
      </trkpt>
      <trkpt lat="41.28592078574002" lon="36.29524729214609">
        <ele>60.799999999999955</ele>
        <time>2025-06-13T09:33:15</time>
      </trkpt>
      <trkpt lat="41.28591693006456" lon="36.295319460332394">
        <ele>61.200000000000045</ele>
        <time>2025-06-13T09:33:18</time>
      </trkpt>
      <trkpt lat="41.285902513191104" lon="36.295432448387146">
        <ele>62.0</ele>
        <time>2025-06-13T09:33:23</time>
      </trkpt>
      <trkpt lat="41.28586990758777" lon="36.29557628184557">
        <ele>62.39999999999998</ele>
        <time>2025-06-13T09:33:29</time>
      </trkpt>
      <trkpt lat="41.28586923703551" lon="36.29560268484056">
        <ele>62.60000000000002</ele>
        <time>2025-06-13T09:33:30</time>
      </trkpt>
      <trkpt lat="41.28587828949094" lon="36.29573788493872">
        <ele>63.39999999999998</ele>
        <time>2025-06-13T09:33:35</time>
      </trkpt>
      <trkpt lat="41.2858768645674" lon="36.29576303064823">
        <ele>63.39999999999998</ele>
        <time>2025-06-13T09:33:36</time>
      </trkpt>
      <trkpt lat="41.2858715839684" lon="36.29589940421283">
        <ele>64.39999999999998</ele>
        <time>2025-06-13T09:33:41</time>
      </trkpt>
      <trkpt lat="41.285861022770405" lon="36.29600627347827">
        <ele>65.0</ele>
        <time>2025-06-13T09:33:45</time>
      </trkpt>
      <trkpt lat="41.28585247322917" lon="36.296085231006145">
        <ele>65.39999999999998</ele>
        <time>2025-06-13T09:33:48</time>
      </trkpt>
      <trkpt lat="41.28583051264286" lon="36.29626619629562">
        <ele>66.60000000000002</ele>
        <time>2025-06-13T09:33:55</time>
      </trkpt>
      <trkpt lat="41.28580654039979" lon="36.296435091644526">
        <ele>67.60000000000002</ele>
        <time>2025-06-13T09:34:02</time>
      </trkpt>
      <trkpt lat="41.285802349448204" lon="36.29648672416806">
        <ele>67.79999999999995</ele>
        <time>2025-06-13T09:34:04</time>
      </trkpt>
      <trkpt lat="41.28579095005989" lon="36.296588983386755">
        <ele>68.60000000000002</ele>
        <time>2025-06-13T09:34:08</time>
      </trkpt>
      <trkpt lat="41.285778880119324" lon="36.29668956622481">
        <ele>69.20000000000005</ele>
        <time>2025-06-13T09:34:12</time>
      </trkpt>
      <trkpt lat="41.285768151283264" lon="36.296761985868216">
        <ele>69.60000000000002</ele>
        <time>2025-06-13T09:34:15</time>
      </trkpt>
      <trkpt lat="41.28577024675906" lon="36.296837255358696">
        <ele>70.20000000000005</ele>
        <time>2025-06-13T09:34:18</time>
      </trkpt>
      <trkpt lat="41.285769660025835" lon="36.29693574272096">
        <ele>70.79999999999995</ele>
        <time>2025-06-13T09:34:22</time>
      </trkpt>
      <trkpt lat="41.28576974384487" lon="36.29702853038907">
        <ele>71.60000000000002</ele>
        <time>2025-06-13T09:34:26</time>
      </trkpt>
      <trkpt lat="41.285765217617154" lon="36.29707689397037">
        <ele>72.0</ele>
        <time>2025-06-13T09:34:28</time>
      </trkpt>
      <trkpt lat="41.28575826063752" lon="36.297213016077876">
        <ele>73.0</ele>
        <time>2025-06-13T09:34:34</time>
      </trkpt>
      <trkpt lat="41.28575817681849" lon="36.29723430611193">
        <ele>73.0</ele>
        <time>2025-06-13T09:34:35</time>
      </trkpt>
      <trkpt lat="41.28576069138944" lon="36.29736866801977">
        <ele>73.60000000000002</ele>
        <time>2025-06-13T09:34:41</time>
      </trkpt>
      <trkpt lat="41.285760439932346" lon="36.297434382140636">
        <ele>74.20000000000005</ele>
        <time>2025-06-13T09:34:44</time>
      </trkpt>
      <trkpt lat="41.285753566771746" lon="36.29752155393362">
        <ele>75.20000000000005</ele>
        <time>2025-06-13T09:34:48</time>
      </trkpt>
      <trkpt lat="41.28575465641916" lon="36.297611659392715">
        <ele>76.60000000000002</ele>
        <time>2025-06-13T09:34:52</time>
      </trkpt>
      <trkpt lat="41.28575189039111" lon="36.29769975319505">
        <ele>77.60000000000002</ele>
        <time>2025-06-13T09:34:56</time>
      </trkpt>
      <trkpt lat="41.28575071692467" lon="36.297721629962325">
        <ele>77.79999999999995</ele>
        <time>2025-06-13T09:34:57</time>
      </trkpt>
      <trkpt lat="41.28575071692467" lon="36.297808131203055">
        <ele>78.60000000000002</ele>
        <time>2025-06-13T09:35:01</time>
      </trkpt>
      <trkpt lat="41.285745268687606" lon="36.2978938780725">
        <ele>79.20000000000005</ele>
        <time>2025-06-13T09:35:05</time>
      </trkpt>
      <trkpt lat="41.28574258647859" lon="36.29795992746949">
        <ele>80.0</ele>
        <time>2025-06-13T09:35:08</time>
      </trkpt>
      <trkpt lat="41.2857368029654" lon="36.298049530014396">
        <ele>81.20000000000005</ele>
        <time>2025-06-13T09:35:12</time>
      </trkpt>
      <trkpt lat="41.28573470748961" lon="36.29811608232558">
        <ele>81.79999999999995</ele>
        <time>2025-06-13T09:35:15</time>
      </trkpt>
      <trkpt lat="41.28573328256607" lon="36.29816033877432">
        <ele>82.39999999999998</ele>
        <time>2025-06-13T09:35:17</time>
      </trkpt>
      <trkpt lat="41.2857283372432" lon="36.298271315172315">
        <ele>83.60000000000002</ele>
        <time>2025-06-13T09:35:22</time>
      </trkpt>
      <trkpt lat="41.28572691231966" lon="36.29829369485378">
        <ele>83.79999999999995</ele>
        <time>2025-06-13T09:35:23</time>
      </trkpt>
      <trkpt lat="41.285719284787774" lon="36.29844540730119">
        <ele>84.79999999999995</ele>
        <time>2025-06-13T09:35:30</time>
      </trkpt>
      <trkpt lat="41.285715429112315" lon="36.298509361222386">
        <ele>85.39999999999998</ele>
        <time>2025-06-13T09:35:33</time>
      </trkpt>
      <trkpt lat="41.28571358509362" lon="36.29852905869484">
        <ele>85.79999999999995</ele>
        <time>2025-06-13T09:35:34</time>
      </trkpt>
      <trkpt lat="41.28570629283786" lon="36.29865512251854">
        <ele>87.0</ele>
        <time>2025-06-13T09:35:40</time>
      </trkpt>
      <trkpt lat="41.285704700276256" lon="36.2986761610955">
        <ele>87.20000000000005</ele>
        <time>2025-06-13T09:35:41</time>
      </trkpt>
      <trkpt lat="41.28569673746824" lon="36.29882535897195">
        <ele>88.20000000000005</ele>
        <time>2025-06-13T09:35:48</time>
      </trkpt>
      <trkpt lat="41.285694893449545" lon="36.29884564317763">
        <ele>88.60000000000002</ele>
        <time>2025-06-13T09:35:49</time>
      </trkpt>
      <trkpt lat="41.28569237887859" lon="36.298905154690146">
        <ele>89.39999999999998</ele>
        <time>2025-06-13T09:35:52</time>
      </trkpt>
      <trkpt lat="41.28568734973669" lon="36.29898604005575">
        <ele>90.39999999999998</ele>
        <time>2025-06-13T09:35:56</time>
      </trkpt>
      <trkpt lat="41.28568634390831" lon="36.299006240442395">
        <ele>90.39999999999998</ele>
        <time>2025-06-13T09:35:57</time>
      </trkpt>
      <trkpt lat="41.28567796200514" lon="36.299122581258416">
        <ele>91.0</ele>
        <time>2025-06-13T09:36:03</time>
      </trkpt>
      <trkpt lat="41.28567561507225" lon="36.29918033257127">
        <ele>91.39999999999998</ele>
        <time>2025-06-13T09:36:06</time>
      </trkpt>
      <trkpt lat="41.285670418292284" lon="36.29930388182402">
        <ele>92.60000000000002</ele>
        <time>2025-06-13T09:36:12</time>
      </trkpt>
      <trkpt lat="41.28566815517843" lon="36.29932399839163">
        <ele>92.79999999999995</ele>
        <time>2025-06-13T09:36:13</time>
      </trkpt>
      <trkpt lat="41.28565994091332" lon="36.299406392499804">
        <ele>93.79999999999995</ele>
        <time>2025-06-13T09:36:17</time>
      </trkpt>
      <trkpt lat="41.2856540735811" lon="36.299510076642036">
        <ele>95.0</ele>
        <time>2025-06-13T09:36:22</time>
      </trkpt>
      <trkpt lat="41.28564929589629" lon="36.299573527649045">
        <ele>96.20000000000005</ele>
        <time>2025-06-13T09:36:25</time>
      </trkpt>
      <trkpt lat="41.28564057871699" lon="36.29969892092049">
        <ele>97.39999999999998</ele>
        <time>2025-06-13T09:36:31</time>
      </trkpt>
      <trkpt lat="41.28564049489796" lon="36.29971845075488">
        <ele>97.60000000000002</ele>
        <time>2025-06-13T09:36:32</time>
      </trkpt>
      <trkpt lat="41.28563714213669" lon="36.29977863281965">
        <ele>98.39999999999998</ele>
        <time>2025-06-13T09:36:35</time>
      </trkpt>
      <trkpt lat="41.28562934696674" lon="36.29984987899661">
        <ele>98.79999999999995</ele>
        <time>2025-06-13T09:36:39</time>
      </trkpt>
      <trkpt lat="41.2856228929013" lon="36.299942415207624">
        <ele>99.39999999999998</ele>
        <time>2025-06-13T09:36:44</time>
      </trkpt>
      <trkpt lat="41.28561828285456" lon="36.30001659505069">
        <ele>100.20000000000005</ele>
        <time>2025-06-13T09:36:48</time>
      </trkpt>
      <trkpt lat="41.28561585210264" lon="36.300054816529155">
        <ele>100.60000000000002</ele>
        <time>2025-06-13T09:36:50</time>
      </trkpt>
      <trkpt lat="41.28561057150364" lon="36.30014793947339">
        <ele>101.60000000000002</ele>
        <time>2025-06-13T09:36:55</time>
      </trkpt>
      <trkpt lat="41.28560964949429" lon="36.30016780458391">
        <ele>101.79999999999995</ele>
        <time>2025-06-13T09:36:56</time>
      </trkpt>
      <trkpt lat="41.28560344688594" lon="36.300259083509445">
        <ele>102.79999999999995</ele>
        <time>2025-06-13T09:37:01</time>
      </trkpt>
      <trkpt lat="41.28560378216207" lon="36.30029562860727">
        <ele>103.20000000000005</ele>
        <time>2025-06-13T09:37:03</time>
      </trkpt>
      <trkpt lat="41.28560026176274" lon="36.30038598552346">
        <ele>104.0</ele>
        <time>2025-06-13T09:37:08</time>
      </trkpt>
      <trkpt lat="41.28559682518244" lon="36.30044097080827">
        <ele>104.79999999999995</ele>
        <time>2025-06-13T09:37:11</time>
      </trkpt>
      <trkpt lat="41.28559481352568" lon="36.30045932717621">
        <ele>105.0</ele>
        <time>2025-06-13T09:37:12</time>
      </trkpt>
      <trkpt lat="41.285584503784776" lon="36.300570806488395">
        <ele>106.0</ele>
        <time>2025-06-13T09:37:18</time>
      </trkpt>
      <trkpt lat="41.28558215685189" lon="36.300589833408594">
        <ele>106.20000000000005</ele>
        <time>2025-06-13T09:37:19</time>
      </trkpt>
      <trkpt lat="41.28557209856808" lon="36.30069410428405">
        <ele>107.0</ele>
        <time>2025-06-13T09:37:25</time>
      </trkpt>
      <trkpt lat="41.28557201474905" lon="36.300761830061674">
        <ele>108.0</ele>
        <time>2025-06-13T09:37:29</time>
      </trkpt>
      <trkpt lat="41.28556874580681" lon="36.30079820752144">
        <ele>108.39999999999998</ele>
        <time>2025-06-13T09:37:31</time>
      </trkpt>
      <trkpt lat="41.28555474802852" lon="36.30088143981993">
        <ele>109.0</ele>
        <time>2025-06-13T09:37:36</time>
      </trkpt>
      <trkpt lat="41.28555340692401" lon="36.30091840401292">
        <ele>109.39999999999998</ele>
        <time>2025-06-13T09:37:38</time>
      </trkpt>
      <trkpt lat="41.285545863211155" lon="36.30099719390273">
        <ele>110.20000000000005</ele>
        <time>2025-06-13T09:37:42</time>
      </trkpt>
      <trkpt lat="41.285552736371756" lon="36.301139602437615">
        <ele>111.39999999999998</ele>
        <time>2025-06-13T09:37:50</time>
      </trkpt>
      <trkpt lat="41.28554318100214" lon="36.301228534430265">
        <ele>112.60000000000002</ele>
        <time>2025-06-13T09:37:55</time>
      </trkpt>
      <trkpt lat="41.28553538583219" lon="36.30129927769303">
        <ele>113.60000000000002</ele>
        <time>2025-06-13T09:37:59</time>
      </trkpt>
      <trkpt lat="41.28550613299012" lon="36.30144386552274">
        <ele>114.60000000000002</ele>
        <time>2025-06-13T09:38:07</time>
      </trkpt>
      <trkpt lat="41.28549925982952" lon="36.30147797986865">
        <ele>115.20000000000005</ele>
        <time>2025-06-13T09:38:09</time>
      </trkpt>
      <trkpt lat="41.285490710288286" lon="36.301555847749114">
        <ele>115.79999999999995</ele>
        <time>2025-06-13T09:38:13</time>
      </trkpt>
      <trkpt lat="41.2854814901948" lon="36.30163396708667">
        <ele>117.0</ele>
        <time>2025-06-13T09:38:17</time>
      </trkpt>
      <trkpt lat="41.28547822125256" lon="36.301652574911714">
        <ele>117.20000000000005</ele>
        <time>2025-06-13T09:38:18</time>
      </trkpt>
      <trkpt lat="41.285458439961076" lon="36.30180051550269">
        <ele>118.0</ele>
        <time>2025-06-13T09:38:26</time>
      </trkpt>
      <trkpt lat="41.28545575775206" lon="36.30189665593207">
        <ele>119.0</ele>
        <time>2025-06-13T09:38:31</time>
      </trkpt>
      <trkpt lat="41.28544167615473" lon="36.301986845210195">
        <ele>119.60000000000002</ele>
        <time>2025-06-13T09:38:36</time>
      </trkpt>
      <trkpt lat="41.28542675636709" lon="36.30207980051637">
        <ele>120.20000000000005</ele>
        <time>2025-06-13T09:38:41</time>
      </trkpt>
      <trkpt lat="41.285418793559074" lon="36.30215875804424">
        <ele>121.0</ele>
        <time>2025-06-13T09:38:45</time>
      </trkpt>
      <trkpt lat="41.28541870974004" lon="36.30217853933573">
        <ele>121.20000000000005</ele>
        <time>2025-06-13T09:38:46</time>
      </trkpt>
      <trkpt lat="41.28540789708495" lon="36.30228959955275">
        <ele>122.20000000000005</ele>
        <time>2025-06-13T09:38:52</time>
      </trkpt>
      <trkpt lat="41.285403706133366" lon="36.30232363007963">
        <ele>122.39999999999998</ele>
        <time>2025-06-13T09:38:54</time>
      </trkpt>
      <trkpt lat="41.285395324230194" lon="36.30241365171969">
        <ele>123.20000000000005</ele>
        <time>2025-06-13T09:38:59</time>
      </trkpt>
      <trkpt lat="41.28538970835507" lon="36.30245028063655">
        <ele>123.60000000000002</ele>
        <time>2025-06-13T09:39:01</time>
      </trkpt>
      <trkpt lat="41.28538040444255" lon="36.30254357121885">
        <ele>124.39999999999998</ele>
        <time>2025-06-13T09:39:06</time>
      </trkpt>
      <trkpt lat="41.28537428565323" lon="36.30260182544589">
        <ele>125.20000000000005</ele>
        <time>2025-06-13T09:39:09</time>
      </trkpt>
      <trkpt lat="41.28537319600582" lon="36.30262118764222">
        <ele>125.60000000000002</ele>
        <time>2025-06-13T09:39:10</time>
      </trkpt>
      <trkpt lat="41.28536632284522" lon="36.3026774302125">
        <ele>126.60000000000002</ele>
        <time>2025-06-13T09:39:13</time>
      </trkpt>
      <trkpt lat="41.28536095842719" lon="36.3027324154973">
        <ele>127.60000000000002</ele>
        <time>2025-06-13T09:39:16</time>
      </trkpt>
      <trkpt lat="41.28535894677043" lon="36.30275043658912">
        <ele>127.79999999999995</ele>
        <time>2025-06-13T09:39:17</time>
      </trkpt>
      <trkpt lat="41.28534821793437" lon="36.30286267027259">
        <ele>129.0</ele>
        <time>2025-06-13T09:39:23</time>
      </trkpt>
      <trkpt lat="41.285344110801816" lon="36.30292151123285">
        <ele>129.39999999999998</ele>
        <time>2025-06-13T09:39:26</time>
      </trkpt>
      <trkpt lat="41.28533631563187" lon="36.303020752966404">
        <ele>130.0</ele>
        <time>2025-06-13T09:39:31</time>
      </trkpt>
      <trkpt lat="41.28532801754773" lon="36.3030987046659">
        <ele>131.0</ele>
        <time>2025-06-13T09:39:35</time>
      </trkpt>
      <trkpt lat="41.285325502976775" lon="36.30313625559211">
        <ele>131.20000000000005</ele>
        <time>2025-06-13T09:39:37</time>
      </trkpt>
      <trkpt lat="41.285315696150064" lon="36.30325544625521">
        <ele>132.20000000000005</ele>
        <time>2025-06-13T09:39:43</time>
      </trkpt>
      <trkpt lat="41.285307900980115" lon="36.30333272740245">
        <ele>132.79999999999995</ele>
        <time>2025-06-13T09:39:47</time>
      </trkpt>
      <trkpt lat="41.285304967314005" lon="36.303371200338006">
        <ele>133.39999999999998</ele>
        <time>2025-06-13T09:39:49</time>
      </trkpt>
      <trkpt lat="41.285300021991134" lon="36.30343238823116">
        <ele>134.60000000000002</ele>
        <time>2025-06-13T09:39:52</time>
      </trkpt>
      <trkpt lat="41.28529733978212" lon="36.30347454920411">
        <ele>134.79999999999995</ele>
        <time>2025-06-13T09:39:54</time>
      </trkpt>
      <trkpt lat="41.2852880358696" lon="36.30361025221646">
        <ele>135.79999999999995</ele>
        <time>2025-06-13T09:40:01</time>
      </trkpt>
      <trkpt lat="41.28528468310833" lon="36.303691640496254">
        <ele>136.20000000000005</ele>
        <time>2025-06-13T09:40:05</time>
      </trkpt>
      <trkpt lat="41.285287365317345" lon="36.30381250753999">
        <ele>136.79999999999995</ele>
        <time>2025-06-13T09:40:11</time>
      </trkpt>
      <trkpt lat="41.28529247827828" lon="36.303875874727964">
        <ele>137.20000000000005</ele>
        <time>2025-06-13T09:40:14</time>
      </trkpt>
      <trkpt lat="41.28529826179147" lon="36.30400562658906">
        <ele>138.0</ele>
        <time>2025-06-13T09:40:20</time>
      </trkpt>
      <trkpt lat="41.285301111638546" lon="36.30404870957136">
        <ele>138.20000000000005</ele>
        <time>2025-06-13T09:40:22</time>
      </trkpt>
      <trkpt lat="41.285313768312335" lon="36.304151471704245">
        <ele>139.0</ele>
        <time>2025-06-13T09:40:27</time>
      </trkpt>
      <trkpt lat="41.28532525151968" lon="36.30425926297903">
        <ele>139.79999999999995</ele>
        <time>2025-06-13T09:40:32</time>
      </trkpt>
      <trkpt lat="41.28532818518579" lon="36.304305950179696">
        <ele>140.20000000000005</ele>
        <time>2025-06-13T09:40:34</time>
      </trkpt>
      <trkpt lat="41.28533120267093" lon="36.30441709421575">
        <ele>141.39999999999998</ele>
        <time>2025-06-13T09:40:39</time>
      </trkpt>
      <trkpt lat="41.285329861566424" lon="36.30445598624647">
        <ele>141.60000000000002</ele>
        <time>2025-06-13T09:40:41</time>
      </trkpt>
      <trkpt lat="41.285324497148395" lon="36.304517928510904">
        <ele>142.39999999999998</ele>
        <time>2025-06-13T09:40:47</time>
      </trkpt>
      <trkpt lat="41.28532290458679" lon="36.30451625213027">
        <ele>142.39999999999998</ele>
        <time>2025-06-13T09:40:48</time>
      </trkpt>
      <trkpt lat="41.28531997092068" lon="36.30451465956867">
        <ele>143.39999999999998</ele>
        <time>2025-06-13T09:40:55</time>
      </trkpt>
      <trkpt lat="41.285320641472936" lon="36.304514491930604">
        <ele>143.60000000000002</ele>
        <time>2025-06-13T09:41:06</time>
      </trkpt>
      <trkpt lat="41.285321647301316" lon="36.304515078663826">
        <ele>144.0</ele>
        <time>2025-06-13T09:41:35</time>
      </trkpt>
      <trkpt lat="41.28532667644322" lon="36.304533099755645">
        <ele>143.39999999999998</ele>
        <time>2025-06-13T09:41:58</time>
      </trkpt>
      <trkpt lat="41.28532961010933" lon="36.304552210494876">
        <ele>143.39999999999998</ele>
        <time>2025-06-13T09:41:59</time>
      </trkpt>
      <trkpt lat="41.28533388487995" lon="36.30460669286549">
        <ele>143.60000000000002</ele>
        <time>2025-06-13T09:42:01</time>
      </trkpt>
      <trkpt lat="41.28534050658345" lon="36.30472294986248">
        <ele>144.0</ele>
        <time>2025-06-13T09:42:05</time>
      </trkpt>
      <trkpt lat="41.285361209884286" lon="36.3049878180027">
        <ele>144.39999999999998</ele>
        <time>2025-06-13T09:42:14</time>
      </trkpt>
      <trkpt lat="41.28536372445524" lon="36.30501698702574">
        <ele>144.79999999999995</ele>
        <time>2025-06-13T09:42:15</time>
      </trkpt>
      <trkpt lat="41.28537705168128" lon="36.305217230692506">
        <ele>146.0</ele>
        <time>2025-06-13T09:42:22</time>
      </trkpt>
      <trkpt lat="41.28538199700415" lon="36.3052798435092">
        <ele>146.60000000000002</ele>
        <time>2025-06-13T09:42:24</time>
      </trkpt>
      <trkpt lat="41.2854175362736" lon="36.30551931448281">
        <ele>147.0</ele>
        <time>2025-06-13T09:42:31</time>
      </trkpt>
      <trkpt lat="41.28542264923453" lon="36.305553428828716">
        <ele>147.0</ele>
        <time>2025-06-13T09:42:32</time>
      </trkpt>
      <trkpt lat="41.285450644791126" lon="36.30589130334556">
        <ele>148.20000000000005</ele>
        <time>2025-06-13T09:42:42</time>
      </trkpt>
      <trkpt lat="41.28544486127794" lon="36.30611686035991">
        <ele>148.60000000000002</ele>
        <time>2025-06-13T09:42:49</time>
      </trkpt>
      <trkpt lat="41.28546791151166" lon="36.30629690364003">
        <ele>149.0</ele>
        <time>2025-06-13T09:42:55</time>
      </trkpt>
      <trkpt lat="41.28547914326191" lon="36.306329341605306">
        <ele>149.20000000000005</ele>
        <time>2025-06-13T09:42:56</time>
      </trkpt>
      <trkpt lat="41.285484842956066" lon="36.30654148757458">
        <ele>149.79999999999995</ele>
        <time>2025-06-13T09:43:02</time>
      </trkpt>
      <trkpt lat="41.28548023290932" lon="36.306843319907784">
        <ele>150.0</ele>
        <time>2025-06-13T09:43:10</time>
      </trkpt>
      <trkpt lat="41.28544008359313" lon="36.30709561519325">
        <ele>150.20000000000005</ele>
        <time>2025-06-13T09:43:17</time>
      </trkpt>
      <trkpt lat="41.28543505445123" lon="36.30713241174817">
        <ele>150.39999999999998</ele>
        <time>2025-06-13T09:43:18</time>
      </trkpt>
      <trkpt lat="41.285416865721345" lon="36.307257721200585">
        <ele>150.60000000000002</ele>
        <time>2025-06-13T09:43:23</time>
      </trkpt>
      <trkpt lat="41.285396832972765" lon="36.30740649998188">
        <ele>151.0</ele>
        <time>2025-06-13T09:43:29</time>
      </trkpt>
      <trkpt lat="41.28533857874572" lon="36.30760347470641">
        <ele>151.39999999999998</ele>
        <time>2025-06-13T09:43:35</time>
      </trkpt>
      <trkpt lat="41.28526431508362" lon="36.30784462206066">
        <ele>151.20000000000005</ele>
        <time>2025-06-13T09:43:41</time>
      </trkpt>
      <trkpt lat="41.285134982317686" lon="36.30824150517583">
        <ele>150.60000000000002</ele>
        <time>2025-06-13T09:43:49</time>
      </trkpt>
      <trkpt lat="41.28508376888931" lon="36.308419117704034">
        <ele>150.0</ele>
        <time>2025-06-13T09:43:52</time>
      </trkpt>
      <trkpt lat="41.28499450162053" lon="36.30873763002455">
        <ele>148.79999999999995</ele>
        <time>2025-06-13T09:43:57</time>
      </trkpt>
      <trkpt lat="41.284937588497996" lon="36.308959163725376">
        <ele>147.60000000000002</ele>
        <time>2025-06-13T09:44:00</time>
      </trkpt>
      <trkpt lat="41.28490808419883" lon="36.30908774212003">
        <ele>146.39999999999998</ele>
        <time>2025-06-13T09:44:02</time>
      </trkpt>
      <trkpt lat="41.284882854670286" lon="36.309194108471274">
        <ele>145.39999999999998</ele>
        <time>2025-06-13T09:44:04</time>
      </trkpt>
      <trkpt lat="41.28485653549433" lon="36.30927859805524">
        <ele>144.0</ele>
        <time>2025-06-13T09:44:06</time>
      </trkpt>
      <trkpt lat="41.28484580665827" lon="36.30931950174272">
        <ele>143.20000000000005</ele>
        <time>2025-06-13T09:44:07</time>
      </trkpt>
      <trkpt lat="41.28483675420284" lon="36.30936300382018">
        <ele>142.60000000000002</ele>
        <time>2025-06-13T09:44:08</time>
      </trkpt>
      <trkpt lat="41.28482057712972" lon="36.309458976611495">
        <ele>140.79999999999995</ele>
        <time>2025-06-13T09:44:10</time>
      </trkpt>
      <trkpt lat="41.284801717847586" lon="36.30961370654404">
        <ele>139.79999999999995</ele>
        <time>2025-06-13T09:44:13</time>
      </trkpt>
      <trkpt lat="41.284806998446584" lon="36.309738429263234">
        <ele>138.79999999999995</ele>
        <time>2025-06-13T09:44:17</time>
      </trkpt>
      <trkpt lat="41.284809513017535" lon="36.30975569598377">
        <ele>137.60000000000002</ele>
        <time>2025-06-13T09:44:25</time>
      </trkpt>
      <trkpt lat="41.284814877435565" lon="36.30976164713502">
        <ele>137.79999999999995</ele>
        <time>2025-06-13T09:44:37</time>
      </trkpt>
      <trkpt lat="41.28484832122922" lon="36.3098213262856">
        <ele>137.79999999999995</ele>
        <time>2025-06-13T09:44:45</time>
      </trkpt>
      <trkpt lat="41.284967847168446" lon="36.30999189801514">
        <ele>137.60000000000002</ele>
        <time>2025-06-13T09:44:50</time>
      </trkpt>
      <trkpt lat="41.28499240614474" lon="36.31003674119711">
        <ele>137.60000000000002</ele>
        <time>2025-06-13T09:44:51</time>
      </trkpt>
      <trkpt lat="41.28508385270834" lon="36.31018786691129">
        <ele>137.39999999999998</ele>
        <time>2025-06-13T09:44:54</time>
      </trkpt>
      <trkpt lat="41.28511603921652" lon="36.31024193018675">
        <ele>137.39999999999998</ele>
        <time>2025-06-13T09:44:55</time>
      </trkpt>
      <trkpt lat="41.28527948632836" lon="36.310558849945664">
        <ele>136.39999999999998</ele>
        <time>2025-06-13T09:45:00</time>
      </trkpt>
      <trkpt lat="41.28531293012202" lon="36.31062112748623">
        <ele>136.0</ele>
        <time>2025-06-13T09:45:01</time>
      </trkpt>
      <trkpt lat="41.28540622070432" lon="36.310803182423115">
        <ele>134.60000000000002</ele>
        <time>2025-06-13T09:45:04</time>
      </trkpt>
      <trkpt lat="41.28547218628228" lon="36.31093595176935">
        <ele>133.39999999999998</ele>
        <time>2025-06-13T09:45:06</time>
      </trkpt>
      <trkpt lat="41.285502864047885" lon="36.31100820377469">
        <ele>133.0</ele>
        <time>2025-06-13T09:45:07</time>
      </trkpt>
      <trkpt lat="41.285535050556064" lon="36.31108095869422">
        <ele>132.60000000000002</ele>
        <time>2025-06-13T09:45:08</time>
      </trkpt>
      <trkpt lat="41.28557184711099" lon="36.31115379743278">
        <ele>132.0</ele>
        <time>2025-06-13T09:45:09</time>
      </trkpt>
      <trkpt lat="41.28564728423953" lon="36.311307018622756">
        <ele>131.0</ele>
        <time>2025-06-13T09:45:11</time>
      </trkpt>
      <trkpt lat="41.28568299114704" lon="36.31138144992292">
        <ele>130.20000000000005</ele>
        <time>2025-06-13T09:45:12</time>
      </trkpt>
      <trkpt lat="41.285716434940696" lon="36.311453534290195">
        <ele>129.60000000000002</ele>
        <time>2025-06-13T09:45:13</time>
      </trkpt>
      <trkpt lat="41.2857851665467" lon="36.31158974021673">
        <ele>128.60000000000002</ele>
        <time>2025-06-13T09:45:15</time>
      </trkpt>
      <trkpt lat="41.28585247322917" lon="36.31171722896397">
        <ele>127.39999999999998</ele>
        <time>2025-06-13T09:45:17</time>
      </trkpt>
      <trkpt lat="41.285883067175746" lon="36.31177724339068">
        <ele>126.60000000000002</ele>
        <time>2025-06-13T09:45:18</time>
      </trkpt>
      <trkpt lat="41.2859149184078" lon="36.31182669661939">
        <ele>126.0</ele>
        <time>2025-06-13T09:45:19</time>
      </trkpt>
      <trkpt lat="41.28600494004786" lon="36.3119971845299">
        <ele>124.39999999999998</ele>
        <time>2025-06-13T09:45:22</time>
      </trkpt>
      <trkpt lat="41.286054560914636" lon="36.31213406100869">
        <ele>122.79999999999995</ele>
        <time>2025-06-13T09:45:24</time>
      </trkpt>
      <trkpt lat="41.28606805577874" lon="36.312202205881476">
        <ele>122.20000000000005</ele>
        <time>2025-06-13T09:45:25</time>
      </trkpt>
      <trkpt lat="41.286081885918975" lon="36.31227269768715">
        <ele>121.79999999999995</ele>
        <time>2025-06-13T09:45:26</time>
      </trkpt>
      <trkpt lat="41.28611717373133" lon="36.31240664049983">
        <ele>120.79999999999995</ele>
        <time>2025-06-13T09:45:28</time>
      </trkpt>
      <trkpt lat="41.28613636828959" lon="36.31246564909816">
        <ele>120.20000000000005</ele>
        <time>2025-06-13T09:45:29</time>
      </trkpt>
      <trkpt lat="41.286151707172394" lon="36.31252474151552">
        <ele>119.60000000000002</ele>
        <time>2025-06-13T09:45:30</time>
      </trkpt>
      <trkpt lat="41.286163441836834" lon="36.31258551031351">
        <ele>119.0</ele>
        <time>2025-06-13T09:45:31</time>
      </trkpt>
      <trkpt lat="41.2861739192158" lon="36.31264753639698">
        <ele>117.79999999999995</ele>
        <time>2025-06-13T09:45:32</time>
      </trkpt>
      <trkpt lat="41.28619738854468" lon="36.312774773687124">
        <ele>116.79999999999995</ele>
        <time>2025-06-13T09:45:34</time>
      </trkpt>
      <trkpt lat="41.28622278571129" lon="36.312894551083446">
        <ele>115.20000000000005</ele>
        <time>2025-06-13T09:45:36</time>
      </trkpt>
      <trkpt lat="41.28623552620411" lon="36.31295833736658">
        <ele>114.39999999999998</ele>
        <time>2025-06-13T09:45:37</time>
      </trkpt>
      <trkpt lat="41.286256816238165" lon="36.313030421733856">
        <ele>114.0</ele>
        <time>2025-06-13T09:45:38</time>
      </trkpt>
      <trkpt lat="41.28626779653132" lon="36.31310535594821">
        <ele>113.60000000000002</ele>
        <time>2025-06-13T09:45:39</time>
      </trkpt>
      <trkpt lat="41.28629336133599" lon="36.31326964125037">
        <ele>112.39999999999998</ele>
        <time>2025-06-13T09:45:41</time>
      </trkpt>
      <trkpt lat="41.286298809573054" lon="36.31334968842566">
        <ele>111.79999999999995</ele>
        <time>2025-06-13T09:45:42</time>
      </trkpt>
      <trkpt lat="41.2863015756011" lon="36.313427556306124">
        <ele>111.39999999999998</ele>
        <time>2025-06-13T09:45:43</time>
      </trkpt>
      <trkpt lat="41.28630702383816" lon="36.31350408308208">
        <ele>110.79999999999995</ele>
        <time>2025-06-13T09:45:44</time>
      </trkpt>
      <trkpt lat="41.28631314262748" lon="36.31366585381329">
        <ele>110.0</ele>
        <time>2025-06-13T09:45:46</time>
      </trkpt>
      <trkpt lat="41.28632395528257" lon="36.31383500061929">
        <ele>109.0</ele>
        <time>2025-06-13T09:45:48</time>
      </trkpt>
      <trkpt lat="41.28633753396571" lon="36.314000794664025">
        <ele>108.0</ele>
        <time>2025-06-13T09:45:50</time>
      </trkpt>
      <trkpt lat="41.28635806962848" lon="36.31423909217119">
        <ele>106.39999999999998</ele>
        <time>2025-06-13T09:45:53</time>
      </trkpt>
      <trkpt lat="41.286373659968376" lon="36.31439533084631">
        <ele>105.20000000000005</ele>
        <time>2025-06-13T09:45:55</time>
      </trkpt>
      <trkpt lat="41.28638992086053" lon="36.31454536691308">
        <ele>104.39999999999998</ele>
        <time>2025-06-13T09:45:57</time>
      </trkpt>
      <trkpt lat="41.28640132024884" lon="36.314612003043294">
        <ele>104.0</ele>
        <time>2025-06-13T09:45:58</time>
      </trkpt>
      <trkpt lat="41.28642009571195" lon="36.314819790422916">
        <ele>102.20000000000005</ele>
        <time>2025-06-13T09:46:01</time>
      </trkpt>
      <trkpt lat="41.286424873396754" lon="36.31495096720755">
        <ele>100.79999999999995</ele>
        <time>2025-06-13T09:46:03</time>
      </trkpt>
      <trkpt lat="41.286422023549676" lon="36.31506462581456">
        <ele>99.60000000000002</ele>
        <time>2025-06-13T09:46:05</time>
      </trkpt>
      <trkpt lat="41.28643157891929" lon="36.315175937488675">
        <ele>98.20000000000005</ele>
        <time>2025-06-13T09:46:08</time>
      </trkpt>
      <trkpt lat="41.28644918091595" lon="36.31522354669869">
        <ele>97.0</ele>
        <time>2025-06-13T09:46:10</time>
      </trkpt>
      <trkpt lat="41.28646183758974" lon="36.3152801245451">
        <ele>95.60000000000002</ele>
        <time>2025-06-13T09:46:13</time>
      </trkpt>
      <trkpt lat="41.286462591961026" lon="36.31529194302857">
        <ele>95.20000000000005</ele>
        <time>2025-06-13T09:46:14</time>
      </trkpt>
      <trkpt lat="41.28646183758974" lon="36.31529579870403">
        <ele>94.20000000000005</ele>
        <time>2025-06-13T09:46:16</time>
      </trkpt>
      <trkpt lat="41.2864553835243" lon="36.31529822945595">
        <ele>93.79999999999995</ele>
        <time>2025-06-13T09:46:21</time>
      </trkpt>
      <trkpt lat="41.28645362332463" lon="36.3152991514653">
        <ele>94.20000000000005</ele>
        <time>2025-06-13T09:46:45</time>
      </trkpt>
      <trkpt lat="41.28645362332463" lon="36.31530510261655">
        <ele>93.60000000000002</ele>
        <time>2025-06-13T09:47:08</time>
      </trkpt>
      <trkpt lat="41.286472314968705" lon="36.31541172042489">
        <ele>93.60000000000002</ele>
        <time>2025-06-13T09:47:12</time>
      </trkpt>
      <trkpt lat="41.286539789289236" lon="36.31569318473339">
        <ele>93.60000000000002</ele>
        <time>2025-06-13T09:47:18</time>
      </trkpt>
      <trkpt lat="41.28661681897938" lon="36.31592829711735">
        <ele>92.39999999999998</ele>
        <time>2025-06-13T09:47:22</time>
      </trkpt>
      <trkpt lat="41.286640455946326" lon="36.31600138731301">
        <ele>92.20000000000005</ele>
        <time>2025-06-13T09:47:23</time>
      </trkpt>
      <trkpt lat="41.28676685504615" lon="36.316421907395124">
        <ele>91.20000000000005</ele>
        <time>2025-06-13T09:47:28</time>
      </trkpt>
      <trkpt lat="41.286794263869524" lon="36.31651762872934">
        <ele>90.39999999999998</ele>
        <time>2025-06-13T09:47:29</time>
      </trkpt>
      <trkpt lat="41.28681999631226" lon="36.316612511873245">
        <ele>89.79999999999995</ele>
        <time>2025-06-13T09:47:30</time>
      </trkpt>
      <trkpt lat="41.286864671856165" lon="36.31677579134703">
        <ele>88.20000000000005</ele>
        <time>2025-06-13T09:47:32</time>
      </trkpt>
      <trkpt lat="41.28690641373396" lon="36.31693898700178">
        <ele>86.60000000000002</ele>
        <time>2025-06-13T09:47:34</time>
      </trkpt>
      <trkpt lat="41.28695184364915" lon="36.31711307913065">
        <ele>85.0</ele>
        <time>2025-06-13T09:47:36</time>
      </trkpt>
      <trkpt lat="41.28699232824147" lon="36.31727484986186">
        <ele>83.39999999999998</ele>
        <time>2025-06-13T09:47:38</time>
      </trkpt>
      <trkpt lat="41.28702962771058" lon="36.31743259727955">
        <ele>82.0</ele>
        <time>2025-06-13T09:47:40</time>
      </trkpt>
      <trkpt lat="41.28706910647452" lon="36.3176079466939">
        <ele>80.79999999999995</ele>
        <time>2025-06-13T09:47:42</time>
      </trkpt>
      <trkpt lat="41.28711311146617" lon="36.317775500938296">
        <ele>79.39999999999998</ele>
        <time>2025-06-13T09:47:44</time>
      </trkpt>
      <trkpt lat="41.287152422592044" lon="36.3179272133857">
        <ele>78.0</ele>
        <time>2025-06-13T09:47:46</time>
      </trkpt>
      <trkpt lat="41.28718921914697" lon="36.318092588335276">
        <ele>76.60000000000002</ele>
        <time>2025-06-13T09:47:48</time>
      </trkpt>
      <trkpt lat="41.287224255502224" lon="36.31828084588051">
        <ele>74.79999999999995</ele>
        <time>2025-06-13T09:47:50</time>
      </trkpt>
      <trkpt lat="41.28724403679371" lon="36.31838411092758">
        <ele>74.20000000000005</ele>
        <time>2025-06-13T09:47:51</time>
      </trkpt>
      <trkpt lat="41.287308828905225" lon="36.31871150806546">
        <ele>73.39999999999998</ele>
        <time>2025-06-13T09:47:54</time>
      </trkpt>
      <trkpt lat="41.2873499840498" lon="36.31890093907714">
        <ele>72.20000000000005</ele>
        <time>2025-06-13T09:47:56</time>
      </trkpt>
      <trkpt lat="41.28738518804312" lon="36.31907402537763">
        <ele>70.60000000000002</ele>
        <time>2025-06-13T09:47:58</time>
      </trkpt>
      <trkpt lat="41.287422152236104" lon="36.31926404312253">
        <ele>69.39999999999998</ele>
        <time>2025-06-13T09:48:00</time>
      </trkpt>
      <trkpt lat="41.287464229390025" lon="36.31946981884539">
        <ele>68.0</ele>
        <time>2025-06-13T09:48:02</time>
      </trkpt>
      <trkpt lat="41.28750312142074" lon="36.31967701949179">
        <ele>66.39999999999998</ele>
        <time>2025-06-13T09:48:04</time>
      </trkpt>
      <trkpt lat="41.287560537457466" lon="36.319953287020326">
        <ele>65.0</ele>
        <time>2025-06-13T09:48:07</time>
      </trkpt>
      <trkpt lat="41.287577049806714" lon="36.32004339247942">
        <ele>64.60000000000002</ele>
        <time>2025-06-13T09:48:08</time>
      </trkpt>
      <trkpt lat="41.28761208616197" lon="36.32023290731013">
        <ele>63.60000000000002</ele>
        <time>2025-06-13T09:48:10</time>
      </trkpt>
      <trkpt lat="41.28765097819269" lon="36.32042208686471">
        <ele>62.200000000000045</ele>
        <time>2025-06-13T09:48:12</time>
      </trkpt>
      <trkpt lat="41.28768961876631" lon="36.32058871909976">
        <ele>60.799999999999955</ele>
        <time>2025-06-13T09:48:14</time>
      </trkpt>
      <trkpt lat="41.28773722797632" lon="36.320828860625625">
        <ele>58.39999999999998</ele>
        <time>2025-06-13T09:48:17</time>
      </trkpt>
      <trkpt lat="41.28776840865612" lon="36.32100010290742">
        <ele>57.39999999999998</ele>
        <time>2025-06-13T09:48:19</time>
      </trkpt>
      <trkpt lat="41.28778743557632" lon="36.321087861433625">
        <ele>57.0</ele>
        <time>2025-06-13T09:48:20</time>
      </trkpt>
      <trkpt lat="41.28782641142607" lon="36.32127326913178">
        <ele>56.0</ele>
        <time>2025-06-13T09:48:22</time>
      </trkpt>
      <trkpt lat="41.28788407891989" lon="36.32155456580222">
        <ele>54.799999999999955</ele>
        <time>2025-06-13T09:48:25</time>
      </trkpt>
      <trkpt lat="41.28792422823608" lon="36.3217265624553">
        <ele>54.200000000000045</ele>
        <time>2025-06-13T09:48:27</time>
      </trkpt>
      <trkpt lat="41.28794174641371" lon="36.32181063294411">
        <ele>53.60000000000002</ele>
        <time>2025-06-13T09:48:28</time>
      </trkpt>
      <trkpt lat="41.287972927093506" lon="36.32197835482657">
        <ele>52.60000000000002</ele>
        <time>2025-06-13T09:48:30</time>
      </trkpt>
      <trkpt lat="41.28803017549217" lon="36.32223735563457">
        <ele>51.200000000000045</ele>
        <time>2025-06-13T09:48:33</time>
      </trkpt>
      <trkpt lat="41.288109216839075" lon="36.32259551435709">
        <ele>49.60000000000002</ele>
        <time>2025-06-13T09:48:37</time>
      </trkpt>
      <trkpt lat="41.288147773593664" lon="36.322772121056914">
        <ele>48.39999999999998</ele>
        <time>2025-06-13T09:48:39</time>
      </trkpt>
      <trkpt lat="41.288182055577636" lon="36.32295333780348">
        <ele>47.60000000000002</ele>
        <time>2025-06-13T09:48:41</time>
      </trkpt>
      <trkpt lat="41.28819823265076" lon="36.323048723861575">
        <ele>47.200000000000045</ele>
        <time>2025-06-13T09:48:42</time>
      </trkpt>
      <trkpt lat="41.288261180743575" lon="36.32344703190029">
        <ele>45.60000000000002</ele>
        <time>2025-06-13T09:48:46</time>
      </trkpt>
      <trkpt lat="41.288293870165944" lon="36.32363436743617">
        <ele>44.60000000000002</ele>
        <time>2025-06-13T09:48:48</time>
      </trkpt>
      <trkpt lat="41.28830820322037" lon="36.323727909475565">
        <ele>44.200000000000045</ele>
        <time>2025-06-13T09:48:49</time>
      </trkpt>
      <trkpt lat="41.288354052230716" lon="36.3240023329854">
        <ele>42.799999999999955</ele>
        <time>2025-06-13T09:48:52</time>
      </trkpt>
      <trkpt lat="41.288394117727876" lon="36.32429821416736">
        <ele>41.39999999999998</ele>
        <time>2025-06-13T09:48:55</time>
      </trkpt>
      <trkpt lat="41.28843326121569" lon="36.32459493353963">
        <ele>40.0</ele>
        <time>2025-06-13T09:48:58</time>
      </trkpt>
      <trkpt lat="41.2884618435055" lon="36.32478076033294">
        <ele>39.0</ele>
        <time>2025-06-13T09:49:00</time>
      </trkpt>
      <trkpt lat="41.288492353633046" lon="36.32496491074562">
        <ele>38.0</ele>
        <time>2025-06-13T09:49:02</time>
      </trkpt>
      <trkpt lat="41.28850878216326" lon="36.32505979388952">
        <ele>37.39999999999998</ele>
        <time>2025-06-13T09:49:03</time>
      </trkpt>
      <trkpt lat="41.28853878937662" lon="36.32524536922574">
        <ele>36.200000000000045</ele>
        <time>2025-06-13T09:49:05</time>
      </trkpt>
      <trkpt lat="41.28857868723571" lon="36.32541501894593">
        <ele>35.200000000000045</ele>
        <time>2025-06-13T09:49:07</time>
      </trkpt>
      <trkpt lat="41.28860064782202" lon="36.32549213245511">
        <ele>34.60000000000002</ele>
        <time>2025-06-13T09:49:08</time>
      </trkpt>
      <trkpt lat="41.28862688317895" lon="36.32556740194559">
        <ele>33.799999999999955</ele>
        <time>2025-06-13T09:49:09</time>
      </trkpt>
      <trkpt lat="41.2886951956898" lon="36.325719030573964">
        <ele>32.60000000000002</ele>
        <time>2025-06-13T09:49:11</time>
      </trkpt>
      <trkpt lat="41.28877356648445" lon="36.32587677799165">
        <ele>31.799999999999955</ele>
        <time>2025-06-13T09:49:13</time>
      </trkpt>
      <trkpt lat="41.288812877610326" lon="36.325958082452416">
        <ele>30.600000000000023</ele>
        <time>2025-06-13T09:49:14</time>
      </trkpt>
      <trkpt lat="41.28893684595823" lon="36.32619830779731">
        <ele>29.600000000000023</ele>
        <time>2025-06-13T09:49:17</time>
      </trkpt>
      <trkpt lat="41.28905704244971" lon="36.32641757838428">
        <ele>28.0</ele>
        <time>2025-06-13T09:49:20</time>
      </trkpt>
      <trkpt lat="41.28914345987141" lon="36.32660952396691">
        <ele>26.799999999999955</ele>
        <time>2025-06-13T09:49:23</time>
      </trkpt>
      <trkpt lat="41.28916424699128" lon="36.326665095984936">
        <ele>26.600000000000023</ele>
        <time>2025-06-13T09:49:24</time>
      </trkpt>
      <trkpt lat="41.28918427973986" lon="36.32671840488911">
        <ele>26.200000000000045</ele>
        <time>2025-06-13T09:49:25</time>
      </trkpt>
      <trkpt lat="41.289224764332175" lon="36.326818065717816">
        <ele>25.799999999999955</ele>
        <time>2025-06-13T09:49:27</time>
      </trkpt>
      <trkpt lat="41.28926348872483" lon="36.3269121106714">
        <ele>25.600000000000023</ele>
        <time>2025-06-13T09:49:29</time>
      </trkpt>
      <trkpt lat="41.28933062776923" lon="36.327212350443006">
        <ele>25.0</ele>
        <time>2025-06-13T09:49:35</time>
      </trkpt>
      <trkpt lat="41.289318138733506" lon="36.3275923859328">
        <ele>25.0</ele>
        <time>2025-06-13T09:49:42</time>
      </trkpt>
      <trkpt lat="41.28930447623134" lon="36.32800033316016">
        <ele>25.200000000000045</ele>
        <time>2025-06-13T09:49:50</time>
      </trkpt>
      <trkpt lat="41.28929483704269" lon="36.32821147330105">
        <ele>25.600000000000023</ele>
        <time>2025-06-13T09:49:56</time>
      </trkpt>
      <trkpt lat="41.28929307684302" lon="36.32835111580789">
        <ele>26.200000000000045</ele>
        <time>2025-06-13T09:50:00</time>
      </trkpt>
      <trkpt lat="41.28918210044503" lon="36.32849779911339">
        <ele>26.399999999999977</ele>
        <time>2025-06-13T09:50:05</time>
      </trkpt>
      <trkpt lat="41.28909207880497" lon="36.32855337113142">
        <ele>26.600000000000023</ele>
        <time>2025-06-13T09:50:08</time>
      </trkpt>
      <trkpt lat="41.289011277258396" lon="36.328611206263304">
        <ele>26.799999999999955</ele>
        <time>2025-06-13T09:50:11</time>
      </trkpt>
      <trkpt lat="41.28875303082168" lon="36.32873643189669">
        <ele>27.399999999999977</ele>
        <time>2025-06-13T09:50:19</time>
      </trkpt>
      <trkpt lat="41.28868957981467" lon="36.32877037860453">
        <ele>27.600000000000023</ele>
        <time>2025-06-13T09:50:21</time>
      </trkpt>
      <trkpt lat="41.288558319211006" lon="36.32887691259384">
        <ele>28.0</ele>
        <time>2025-06-13T09:50:26</time>
      </trkpt>
      <trkpt lat="41.28852562978864" lon="36.32894681766629">
        <ele>28.0</ele>
        <time>2025-06-13T09:50:28</time>
      </trkpt>
      <trkpt lat="41.28851498477161" lon="36.329047568142414">
        <ele>28.0</ele>
        <time>2025-06-13T09:50:30</time>
      </trkpt>
      <trkpt lat="41.288521187379956" lon="36.329160053282976">
        <ele>28.200000000000045</ele>
        <time>2025-06-13T09:50:32</time>
      </trkpt>
      <trkpt lat="41.28854004666209" lon="36.32940715178847">
        <ele>28.200000000000045</ele>
        <time>2025-06-13T09:50:36</time>
      </trkpt>
      <trkpt lat="41.2885984685272" lon="36.32979649119079">
        <ele>28.200000000000045</ele>
        <time>2025-06-13T09:50:42</time>
      </trkpt>
      <trkpt lat="41.2885984685272" lon="36.32979649119079">
        <ele>28.200000000000045</ele>
        <time>2025-06-13T09:50:43</time>
      </trkpt>
      <trkpt lat="41.28868999890983" lon="36.33013000711799">
        <ele>27.200000000000045</ele>
        <time>2025-06-13T09:50:48</time>
      </trkpt>
      <trkpt lat="41.28873978741467" lon="36.33034064434469">
        <ele>26.600000000000023</ele>
        <time>2025-06-13T09:50:51</time>
      </trkpt>
      <trkpt lat="41.28882595337927" lon="36.330607775598764">
        <ele>25.600000000000023</ele>
        <time>2025-06-13T09:50:55</time>
      </trkpt>
      <trkpt lat="41.288850428536534" lon="36.330671813338995">
        <ele>25.200000000000045</ele>
        <time>2025-06-13T09:50:56</time>
      </trkpt>
      <trkpt lat="41.28888010047376" lon="36.33082050830126">
        <ele>24.200000000000045</ele>
        <time>2025-06-13T09:50:58</time>
      </trkpt>
      <trkpt lat="41.288894433528185" lon="36.3308909162879">
        <ele>23.600000000000023</ele>
        <time>2025-06-13T09:50:59</time>
      </trkpt>
      <trkpt lat="41.28891362808645" lon="36.33103324100375">
        <ele>23.0</ele>
        <time>2025-06-13T09:51:01</time>
      </trkpt>
      <trkpt lat="41.2889351695776" lon="36.3311758171767">
        <ele>22.600000000000023</ele>
        <time>2025-06-13T09:51:03</time>
      </trkpt>
      <trkpt lat="41.288959980010986" lon="36.33130498230457">
        <ele>21.799999999999955</ele>
        <time>2025-06-13T09:51:05</time>
      </trkpt>
      <trkpt lat="41.28900029696524" lon="36.3314226642251">
        <ele>21.399999999999977</ele>
        <time>2025-06-13T09:51:07</time>
      </trkpt>
      <trkpt lat="41.28910289146006" lon="36.33181594312191">
        <ele>20.799999999999955</ele>
        <time>2025-06-13T09:51:13</time>
      </trkpt>
      <trkpt lat="41.28913717344403" lon="36.33196212351322">
        <ele>20.399999999999977</ele>
        <time>2025-06-13T09:51:15</time>
      </trkpt>
      <trkpt lat="41.289200792089105" lon="36.33218424394727">
        <ele>19.799999999999955</ele>
        <time>2025-06-13T09:51:18</time>
      </trkpt>
      <trkpt lat="41.289223758503795" lon="36.332264291122556">
        <ele>19.799999999999955</ele>
        <time>2025-06-13T09:51:19</time>
      </trkpt>
      <trkpt lat="41.289338171482086" lon="36.332522705197334">
        <ele>19.200000000000045</ele>
        <time>2025-06-13T09:51:22</time>
      </trkpt>
      <trkpt lat="41.28941989503801" lon="36.332717752084136">
        <ele>18.799999999999955</ele>
        <time>2025-06-13T09:51:24</time>
      </trkpt>
      <trkpt lat="41.28950790502131" lon="36.33291288278997">
        <ele>18.200000000000045</ele>
        <time>2025-06-13T09:51:26</time>
      </trkpt>
      <trkpt lat="41.28960764966905" lon="36.333182444795966">
        <ele>16.600000000000023</ele>
        <time>2025-06-13T09:51:29</time>
      </trkpt>
      <trkpt lat="41.289678225293756" lon="36.333360308781266">
        <ele>15.600000000000023</ele>
        <time>2025-06-13T09:51:31</time>
      </trkpt>
      <trkpt lat="41.28974385559559" lon="36.33353507146239">
        <ele>13.799999999999955</ele>
        <time>2025-06-13T09:51:33</time>
      </trkpt>
      <trkpt lat="41.289798421785235" lon="36.333709079772234">
        <ele>12.399999999999977</ele>
        <time>2025-06-13T09:51:35</time>
      </trkpt>
      <trkpt lat="41.28985089249909" lon="36.33386146277189">
        <ele>11.399999999999977</ele>
        <time>2025-06-13T09:51:37</time>
      </trkpt>
      <trkpt lat="41.2899003457278" lon="36.33399473503232">
        <ele>10.199999999999989</ele>
        <time>2025-06-13T09:51:39</time>
      </trkpt>
      <trkpt lat="41.28994904458523" lon="36.33412063121796">
        <ele>9.0</ele>
        <time>2025-06-13T09:51:41</time>
      </trkpt>
      <trkpt lat="41.29005289636552" lon="36.33433344773948">
        <ele>8.0</ele>
        <time>2025-06-13T09:51:45</time>
      </trkpt>
      <trkpt lat="41.29011835902929" lon="36.334471916779876">
        <ele>7.800000000000011</ele>
        <time>2025-06-13T09:51:48</time>
      </trkpt>
      <trkpt lat="41.290165381506085" lon="36.334611643105745">
        <ele>7.600000000000023</ele>
        <time>2025-06-13T09:51:53</time>
      </trkpt>
      <trkpt lat="41.290155071765184" lon="36.33463125675917">
        <ele>7.399999999999977</ele>
        <time>2025-06-13T09:51:58</time>
      </trkpt>
      <trkpt lat="41.29017032682896" lon="36.33467190898955">
        <ele>7.199999999999989</ele>
        <time>2025-06-13T09:52:10</time>
      </trkpt>
      <trkpt lat="41.290197065100074" lon="36.33481565862894">
        <ele>7.0</ele>
        <time>2025-06-13T09:52:15</time>
      </trkpt>
      <trkpt lat="41.29018818028271" lon="36.33483208715916">
        <ele>7.0</ele>
        <time>2025-06-13T09:52:16</time>
      </trkpt>
      <trkpt lat="41.290133111178875" lon="36.334894029423594">
        <ele>6.800000000000011</ele>
        <time>2025-06-13T09:52:20</time>
      </trkpt>
      <trkpt lat="41.29011291079223" lon="36.334911128506064">
        <ele>6.800000000000011</ele>
        <time>2025-06-13T09:52:21</time>
      </trkpt>
      <trkpt lat="41.28993244841695" lon="36.33503568358719">
        <ele>6.600000000000023</ele>
        <time>2025-06-13T09:52:28</time>
      </trkpt>
      <trkpt lat="41.28969364799559" lon="36.33523341268301">
        <ele>6.600000000000023</ele>
        <time>2025-06-13T09:52:35</time>
      </trkpt>
      <trkpt lat="41.2895134370774" lon="36.33540063165128">
        <ele>6.399999999999977</ele>
        <time>2025-06-13T09:52:41</time>
      </trkpt>
      <trkpt lat="41.289329873397946" lon="36.33560246787965">
        <ele>6.600000000000023</ele>
        <time>2025-06-13T09:52:48</time>
      </trkpt>
      <trkpt lat="41.28918302245438" lon="36.33577588945627">
        <ele>6.600000000000023</ele>
        <time>2025-06-13T09:52:54</time>
      </trkpt>
      <trkpt lat="41.28901932388544" lon="36.335969595238566">
        <ele>6.399999999999977</ele>
        <time>2025-06-13T09:53:00</time>
      </trkpt>
      <trkpt lat="41.28884640522301" lon="36.336160115897655">
        <ele>6.199999999999989</ele>
        <time>2025-06-13T09:53:07</time>
      </trkpt>
      <trkpt lat="41.288764514029026" lon="36.33633051998913">
        <ele>6.399999999999977</ele>
        <time>2025-06-13T09:53:11</time>
      </trkpt>
      <trkpt lat="41.28860391676426" lon="36.336542163044214">
        <ele>7.0</ele>
        <time>2025-06-13T09:53:17</time>
      </trkpt>
      <trkpt lat="41.28842420876026" lon="36.336786998435855">
        <ele>7.0</ele>
        <time>2025-06-13T09:53:24</time>
      </trkpt>
      <trkpt lat="41.28838296979666" lon="36.33684290573001">
        <ele>7.0</ele>
        <time>2025-06-13T09:53:27</time>
      </trkpt>
      <trkpt lat="41.28835556097329" lon="36.33683561347425">
        <ele>7.0</ele>
        <time>2025-06-13T09:53:28</time>
      </trkpt>
      <trkpt lat="41.28828641027212" lon="36.336769396439195">
        <ele>7.0</ele>
        <time>2025-06-13T09:53:32</time>
      </trkpt>
      <trkpt lat="41.288162944838405" lon="36.336622377857566">
        <ele>7.0</ele>
        <time>2025-06-13T09:53:38</time>
      </trkpt>
      <trkpt lat="41.288021290674806" lon="36.33647359907627">
        <ele>7.399999999999977</ele>
        <time>2025-06-13T09:53:45</time>
      </trkpt>
      <trkpt lat="41.287884498015046" lon="36.336325742304325">
        <ele>7.800000000000011</ele>
        <time>2025-06-13T09:53:52</time>
      </trkpt>
      <trkpt lat="41.28787091933191" lon="36.336307721212506">
        <ele>7.800000000000011</ele>
        <time>2025-06-13T09:53:53</time>
      </trkpt>
      <trkpt lat="41.2878383975476" lon="36.33626698516309">
        <ele>7.800000000000011</ele>
        <time>2025-06-13T09:53:58</time>
      </trkpt>
      <trkpt lat="41.28783127292991" lon="36.33626849390566">
        <ele>7.600000000000023</ele>
        <time>2025-06-13T09:54:06</time>
      </trkpt>
      <trkpt lat="41.28783328458667" lon="36.33625701069832">
        <ele>7.600000000000023</ele>
        <time>2025-06-13T09:54:17</time>
      </trkpt>
      <trkpt lat="41.287829261273146" lon="36.33625332266092">
        <ele>7.600000000000023</ele>
        <time>2025-06-13T09:54:27</time>
      </trkpt>
      <trkpt lat="41.28781467676163" lon="36.33625374175608">
        <ele>7.600000000000023</ele>
        <time>2025-06-13T09:54:41</time>
      </trkpt>
      <trkpt lat="41.28780025988817" lon="36.33625692687929">
        <ele>7.600000000000023</ele>
        <time>2025-06-13T09:54:49</time>
      </trkpt>
    </trkseg>
  </trk>
</gpx>