<?xml version="1.0" encoding="UTF-8"?>
<gpx xmlns="http://www.topografix.com/GPX/1/1" xmlns:xsi="http://www.w3.org/2001/XMLSchema-instance" xsi:schemaLocation="http://www.topografix.com/GPX/1/1 http://www.topografix.com/GPX/1/1/gpx.xsd" version="1.1" creator="gpx.py -- https://github.com/tkrajina/gpxpy">
  <trk>
    <trkseg>
      <trkpt lat="41.68921991251409" lon="44.79665075428784">
        <ele>463.79999999999995</ele>
        <time>2025-07-05T11:07:20</time>
      </trkpt>
      <trkpt lat="41.68926735408604" lon="44.79664823971689">
        <ele>462.4</ele>
        <time>2025-07-05T11:07:24</time>
      </trkpt>
      <trkpt lat="41.68930146843195" lon="44.796676402911544">
        <ele>461.79999999999995</ele>
        <time>2025-07-05T11:07:31</time>
      </trkpt>
      <trkpt lat="41.68926919810474" lon="44.79658344760537">
        <ele>461.79999999999995</ele>
        <time>2025-07-05T11:07:39</time>
      </trkpt>
      <trkpt lat="41.6893111076206" lon="44.79663851670921">
        <ele>461.79999999999995</ele>
        <time>2025-07-05T11:07:44</time>
      </trkpt>
      <trkpt lat="41.68942023999989" lon="44.7966768220067">
        <ele>461.79999999999995</ele>
        <time>2025-07-05T11:07:52</time>
      </trkpt>
      <trkpt lat="41.68949978426099" lon="44.79673742316663">
        <ele>461.79999999999995</ele>
        <time>2025-07-05T11:08:01</time>
      </trkpt>
      <trkpt lat="41.68949777260423" lon="44.7968771494925">
        <ele>461.6</ele>
        <time>2025-07-05T11:08:06</time>
      </trkpt>
      <trkpt lat="41.68950414285064" lon="44.796944539994">
        <ele>461.6</ele>
        <time>2025-07-05T11:08:08</time>
      </trkpt>
      <trkpt lat="41.68950288556516" lon="44.7970587015152">
        <ele>461.4</ele>
        <time>2025-07-05T11:08:11</time>
      </trkpt>
      <trkpt lat="41.689503472298384" lon="44.797097174450755">
        <ele>461.20000000000005</ele>
        <time>2025-07-05T11:08:12</time>
      </trkpt>
      <trkpt lat="41.68950833380222" lon="44.7972656507045">
        <ele>460.0</ele>
        <time>2025-07-05T11:08:16</time>
      </trkpt>
      <trkpt lat="41.68950657360256" lon="44.797386014834046">
        <ele>459.79999999999995</ele>
        <time>2025-07-05T11:08:19</time>
      </trkpt>
      <trkpt lat="41.68953490443528" lon="44.79757267981768">
        <ele>459.0</ele>
        <time>2025-07-05T11:08:25</time>
      </trkpt>
      <trkpt lat="41.68953607790172" lon="44.79759489186108">
        <ele>458.79999999999995</ele>
        <time>2025-07-05T11:08:26</time>
      </trkpt>
      <trkpt lat="41.689556362107396" lon="44.797691283747554">
        <ele>458.0</ele>
        <time>2025-07-05T11:08:30</time>
      </trkpt>
      <trkpt lat="41.68954932130873" lon="44.7977146692574">
        <ele>457.79999999999995</ele>
        <time>2025-07-05T11:08:31</time>
      </trkpt>
      <trkpt lat="41.68953456915915" lon="44.797746604308486">
        <ele>457.6</ele>
        <time>2025-07-05T11:08:32</time>
      </trkpt>
      <trkpt lat="41.68952392414212" lon="44.7978409845382">
        <ele>457.20000000000005</ele>
        <time>2025-07-05T11:08:35</time>
      </trkpt>
      <trkpt lat="41.68950481340289" lon="44.79793720878661">
        <ele>457.0</ele>
        <time>2025-07-05T11:08:37</time>
      </trkpt>
      <trkpt lat="41.68949735350907" lon="44.797991858795285">
        <ele>457.0</ele>
        <time>2025-07-05T11:08:38</time>
      </trkpt>
      <trkpt lat="41.689488384872675" lon="44.798098308965564">
        <ele>456.79999999999995</ele>
        <time>2025-07-05T11:08:40</time>
      </trkpt>
      <trkpt lat="41.68947430327535" lon="44.798262510448694">
        <ele>456.4</ele>
        <time>2025-07-05T11:08:43</time>
      </trkpt>
      <trkpt lat="41.68947983533144" lon="44.79840014129877">
        <ele>456.0</ele>
        <time>2025-07-05T11:08:46</time>
      </trkpt>
      <trkpt lat="41.68949659913778" lon="44.79854573495686">
        <ele>455.4</ele>
        <time>2025-07-05T11:08:49</time>
      </trkpt>
      <trkpt lat="41.68951168656349" lon="44.79875285178423">
        <ele>454.79999999999995</ele>
        <time>2025-07-05T11:08:53</time>
      </trkpt>
      <trkpt lat="41.68952526524663" lon="44.79889023117721">
        <ele>454.4</ele>
        <time>2025-07-05T11:08:56</time>
      </trkpt>
      <trkpt lat="41.689542615786195" lon="44.79898000136018">
        <ele>453.79999999999995</ele>
        <time>2025-07-05T11:08:58</time>
      </trkpt>
      <trkpt lat="41.68956692330539" lon="44.79919373989105">
        <ele>453.20000000000005</ele>
        <time>2025-07-05T11:09:03</time>
      </trkpt>
      <trkpt lat="41.6895302105695" lon="44.79943539015949">
        <ele>452.6</ele>
        <time>2025-07-05T11:09:07</time>
      </trkpt>
      <trkpt lat="41.68952434323728" lon="44.799551060423255">
        <ele>452.4</ele>
        <time>2025-07-05T11:09:09</time>
      </trkpt>
      <trkpt lat="41.68952878564596" lon="44.799724984914064">
        <ele>451.6</ele>
        <time>2025-07-05T11:09:13</time>
      </trkpt>
      <trkpt lat="41.68953272514045" lon="44.79975298047066">
        <ele>451.6</ele>
        <time>2025-07-05T11:09:14</time>
      </trkpt>
      <trkpt lat="41.68953272514045" lon="44.79997057467699">
        <ele>450.79999999999995</ele>
        <time>2025-07-05T11:09:19</time>
      </trkpt>
      <trkpt lat="41.6895283665508" lon="44.800026984885335">
        <ele>450.6</ele>
        <time>2025-07-05T11:09:20</time>
      </trkpt>
      <trkpt lat="41.68954529799521" lon="44.80026226490736">
        <ele>449.79999999999995</ele>
        <time>2025-07-05T11:09:24</time>
      </trkpt>
      <trkpt lat="41.689533814787865" lon="44.80044364929199">
        <ele>449.4</ele>
        <time>2025-07-05T11:09:27</time>
      </trkpt>
      <trkpt lat="41.68954957276583" lon="44.80068848468363">
        <ele>449.0</ele>
        <time>2025-07-05T11:09:31</time>
      </trkpt>
      <trkpt lat="41.689552338793874" lon="44.800799461081624">
        <ele>448.4</ele>
        <time>2025-07-05T11:09:33</time>
      </trkpt>
      <trkpt lat="41.68958326801658" lon="44.8009577114135">
        <ele>447.6</ele>
        <time>2025-07-05T11:09:36</time>
      </trkpt>
      <trkpt lat="41.68959852308035" lon="44.80100699700415">
        <ele>447.20000000000005</ele>
        <time>2025-07-05T11:09:37</time>
      </trkpt>
      <trkpt lat="41.689658872783184" lon="44.80131855234504">
        <ele>446.0</ele>
        <time>2025-07-05T11:09:43</time>
      </trkpt>
      <trkpt lat="41.68968200683594" lon="44.80153011158109">
        <ele>445.0</ele>
        <time>2025-07-05T11:09:48</time>
      </trkpt>
      <trkpt lat="41.68969667516649" lon="44.80156439356506">
        <ele>444.79999999999995</ele>
        <time>2025-07-05T11:09:49</time>
      </trkpt>
      <trkpt lat="41.68970958329737" lon="44.801634633913636">
        <ele>443.79999999999995</ele>
        <time>2025-07-05T11:09:51</time>
      </trkpt>
      <trkpt lat="41.68970572762191" lon="44.80180185288191">
        <ele>443.0</ele>
        <time>2025-07-05T11:09:55</time>
      </trkpt>
      <trkpt lat="41.689708745107055" lon="44.80189757421613">
        <ele>442.6</ele>
        <time>2025-07-05T11:09:57</time>
      </trkpt>
      <trkpt lat="41.689730789512396" lon="44.80200042016804">
        <ele>442.0</ele>
        <time>2025-07-05T11:10:00</time>
      </trkpt>
      <trkpt lat="41.68978024274111" lon="44.8020354565233">
        <ele>441.4</ele>
        <time>2025-07-05T11:10:02</time>
      </trkpt>
      <trkpt lat="41.68982860632241" lon="44.8020423296839">
        <ele>441.0</ele>
        <time>2025-07-05T11:10:04</time>
      </trkpt>
      <trkpt lat="41.68998367153108" lon="44.80205993168056">
        <ele>440.20000000000005</ele>
        <time>2025-07-05T11:10:08</time>
      </trkpt>
      <trkpt lat="41.69002180919051" lon="44.802055237814784">
        <ele>440.0</ele>
        <time>2025-07-05T11:10:09</time>
      </trkpt>
      <trkpt lat="41.6902313567698" lon="44.80205364525318">
        <ele>440.0</ele>
        <time>2025-07-05T11:10:16</time>
      </trkpt>
      <trkpt lat="41.69045020826161" lon="44.80201886035502">
        <ele>440.79999999999995</ele>
        <time>2025-07-05T11:10:23</time>
      </trkpt>
      <trkpt lat="41.69061776250601" lon="44.8020145855844">
        <ele>441.0</ele>
        <time>2025-07-05T11:10:30</time>
      </trkpt>
      <trkpt lat="41.690847259014845" lon="44.80209513567388">
        <ele>440.79999999999995</ele>
        <time>2025-07-05T11:10:37</time>
      </trkpt>
      <trkpt lat="41.691019255667925" lon="44.80213310569525">
        <ele>440.4</ele>
        <time>2025-07-05T11:10:43</time>
      </trkpt>
      <trkpt lat="41.691216649487615" lon="44.80213872157037">
        <ele>440.20000000000005</ele>
        <time>2025-07-05T11:10:49</time>
      </trkpt>
      <trkpt lat="41.691453186795115" lon="44.802080718800426">
        <ele>439.79999999999995</ele>
        <time>2025-07-05T11:10:55</time>
      </trkpt>
      <trkpt lat="41.6915815975517" lon="44.80204610154033">
        <ele>439.20000000000005</ele>
        <time>2025-07-05T11:11:00</time>
      </trkpt>
      <trkpt lat="41.691623674705625" lon="44.80203210376203">
        <ele>439.0</ele>
        <time>2025-07-05T11:11:01</time>
      </trkpt>
      <trkpt lat="41.69177404604852" lon="44.80203369632363">
        <ele>438.0</ele>
        <time>2025-07-05T11:11:06</time>
      </trkpt>
      <trkpt lat="41.691831797361374" lon="44.80202925391495">
        <ele>437.79999999999995</ele>
        <time>2025-07-05T11:11:08</time>
      </trkpt>
      <trkpt lat="41.691973116248846" lon="44.80203168466687">
        <ele>437.20000000000005</ele>
        <time>2025-07-05T11:11:13</time>
      </trkpt>
      <trkpt lat="41.69211586005986" lon="44.802018105983734">
        <ele>436.79999999999995</ele>
        <time>2025-07-05T11:11:19</time>
      </trkpt>
      <trkpt lat="41.6922639682889" lon="44.801995726302266">
        <ele>436.20000000000005</ele>
        <time>2025-07-05T11:11:25</time>
      </trkpt>
      <trkpt lat="41.69236949644983" lon="44.80196018703282">
        <ele>435.79999999999995</ele>
        <time>2025-07-05T11:11:29</time>
      </trkpt>
      <trkpt lat="41.69243210926652" lon="44.80196756310761">
        <ele>435.79999999999995</ele>
        <time>2025-07-05T11:11:31</time>
      </trkpt>
      <trkpt lat="41.692680632695556" lon="44.80202028527856">
        <ele>434.79999999999995</ele>
        <time>2025-07-05T11:11:39</time>
      </trkpt>
      <trkpt lat="41.69286687858403" lon="44.80195390060544">
        <ele>434.6</ele>
        <time>2025-07-05T11:11:43</time>
      </trkpt>
      <trkpt lat="41.69312981888652" lon="44.801892628893256">
        <ele>434.4</ele>
        <time>2025-07-05T11:11:48</time>
      </trkpt>
      <trkpt lat="41.69327734038234" lon="44.80188416317105">
        <ele>434.4</ele>
        <time>2025-07-05T11:11:51</time>
      </trkpt>
      <trkpt lat="41.693326625972986" lon="44.80187192559242">
        <ele>434.20000000000005</ele>
        <time>2025-07-05T11:11:52</time>
      </trkpt>
      <trkpt lat="41.69347473420203" lon="44.801804115995765">
        <ele>434.0</ele>
        <time>2025-07-05T11:11:55</time>
      </trkpt>
      <trkpt lat="41.69357053935528" lon="44.801734713837504">
        <ele>433.6</ele>
        <time>2025-07-05T11:11:57</time>
      </trkpt>
      <trkpt lat="41.6938576195389" lon="44.801474288105965">
        <ele>433.20000000000005</ele>
        <time>2025-07-05T11:12:04</time>
      </trkpt>
      <trkpt lat="41.694020396098495" lon="44.80126985348761">
        <ele>432.6</ele>
        <time>2025-07-05T11:12:09</time>
      </trkpt>
      <trkpt lat="41.6940510738641" lon="44.80123221874237">
        <ele>432.6</ele>
        <time>2025-07-05T11:12:10</time>
      </trkpt>
      <trkpt lat="41.69408418238163" lon="44.80119709856808">
        <ele>432.6</ele>
        <time>2025-07-05T11:12:11</time>
      </trkpt>
      <trkpt lat="41.694264309480786" lon="44.80104957707226">
        <ele>432.20000000000005</ele>
        <time>2025-07-05T11:12:15</time>
      </trkpt>
      <trkpt lat="41.694489028304815" lon="44.80089166201651">
        <ele>432.0</ele>
        <time>2025-07-05T11:12:20</time>
      </trkpt>
      <trkpt lat="41.694604363292456" lon="44.80081723071635">
        <ele>431.79999999999995</ele>
        <time>2025-07-05T11:12:23</time>
      </trkpt>
      <trkpt lat="41.69467628002167" lon="44.800777500495315">
        <ele>431.79999999999995</ele>
        <time>2025-07-05T11:12:25</time>
      </trkpt>
      <trkpt lat="41.694861855357885" lon="44.8006796836853">
        <ele>432.20000000000005</ele>
        <time>2025-07-05T11:12:30</time>
      </trkpt>
      <trkpt lat="41.695125633850694" lon="44.800529312342405">
        <ele>433.6</ele>
        <time>2025-07-05T11:12:37</time>
      </trkpt>
      <trkpt lat="41.69519235379994" lon="44.800505843013525">
        <ele>433.79999999999995</ele>
        <time>2025-07-05T11:12:39</time>
      </trkpt>
      <trkpt lat="41.69525580480695" lon="44.800316244363785">
        <ele>434.4</ele>
        <time>2025-07-05T11:12:43</time>
      </trkpt>
      <trkpt lat="41.6953843832016" lon="44.800279112532735">
        <ele>434.6</ele>
        <time>2025-07-05T11:12:48</time>
      </trkpt>
      <trkpt lat="41.695475075393915" lon="44.800229743123055">
        <ele>435.0</ele>
        <time>2025-07-05T11:12:52</time>
      </trkpt>
      <trkpt lat="41.69549401849508" lon="44.800222450867295">
        <ele>435.0</ele>
        <time>2025-07-05T11:12:53</time>
      </trkpt>
      <trkpt lat="41.6955257859081" lon="44.800205267965794">
        <ele>435.20000000000005</ele>
        <time>2025-07-05T11:12:55</time>
      </trkpt>
      <trkpt lat="41.695550344884396" lon="44.80018640868366">
        <ele>435.6</ele>
        <time>2025-07-05T11:12:59</time>
      </trkpt>
      <trkpt lat="41.695569371804595" lon="44.80015925131738">
        <ele>436.0</ele>
        <time>2025-07-05T11:13:03</time>
      </trkpt>
      <trkpt lat="41.69558714143932" lon="44.800167717039585">
        <ele>436.0</ele>
        <time>2025-07-05T11:13:12</time>
      </trkpt>
      <trkpt lat="41.6955899912864" lon="44.80017056688666">
        <ele>436.20000000000005</ele>
        <time>2025-07-05T11:13:19</time>
      </trkpt>
      <trkpt lat="41.69560683891177" lon="44.80018062517047">
        <ele>436.20000000000005</ele>
        <time>2025-07-05T11:13:30</time>
      </trkpt>
      <trkpt lat="41.69564011506736" lon="44.80016176588833">
        <ele>436.0</ele>
        <time>2025-07-05T11:13:37</time>
      </trkpt>
      <trkpt lat="41.69578596018255" lon="44.80010820552707">
        <ele>436.20000000000005</ele>
        <time>2025-07-05T11:13:42</time>
      </trkpt>
      <trkpt lat="41.69603037647903" lon="44.79998272843659">
        <ele>436.4</ele>
        <time>2025-07-05T11:13:49</time>
      </trkpt>
      <trkpt lat="41.696210419759154" lon="44.79988172650337">
        <ele>436.79999999999995</ele>
        <time>2025-07-05T11:13:54</time>
      </trkpt>
      <trkpt lat="41.69627512805164" lon="44.79984836652875">
        <ele>437.20000000000005</ele>
        <time>2025-07-05T11:13:56</time>
      </trkpt>
      <trkpt lat="41.69638090766966" lon="44.79977603070438">
        <ele>437.79999999999995</ele>
        <time>2025-07-05T11:14:01</time>
      </trkpt>
      <trkpt lat="41.69642524793744" lon="44.79982447810471">
        <ele>438.0</ele>
        <time>2025-07-05T11:14:03</time>
      </trkpt>
      <trkpt lat="41.696484088897705" lon="44.79995087720454">
        <ele>438.0</ele>
        <time>2025-07-05T11:14:06</time>
      </trkpt>
      <trkpt lat="41.696619456633925" lon="44.800347089767456">
        <ele>437.79999999999995</ele>
        <time>2025-07-05T11:14:14</time>
      </trkpt>
      <trkpt lat="41.69668131507933" lon="44.80049159377813">
        <ele>436.79999999999995</ele>
        <time>2025-07-05T11:14:17</time>
      </trkpt>
      <trkpt lat="41.696731271222234" lon="44.800645569339395">
        <ele>435.79999999999995</ele>
        <time>2025-07-05T11:14:20</time>
      </trkpt>
      <trkpt lat="41.696748454123735" lon="44.800688065588474">
        <ele>435.4</ele>
        <time>2025-07-05T11:14:21</time>
      </trkpt>
      <trkpt lat="41.6967866756022" lon="44.80076501145959">
        <ele>434.4</ele>
        <time>2025-07-05T11:14:23</time>
      </trkpt>
      <trkpt lat="41.69684233143926" lon="44.800878670066595">
        <ele>433.4</ele>
        <time>2025-07-05T11:14:26</time>
      </trkpt>
      <trkpt lat="41.69688558205962" lon="44.80095469392836">
        <ele>432.79999999999995</ele>
        <time>2025-07-05T11:14:28</time>
      </trkpt>
      <trkpt lat="41.69692891649902" lon="44.8010908998549">
        <ele>432.0</ele>
        <time>2025-07-05T11:14:31</time>
      </trkpt>
      <trkpt lat="41.696973256766796" lon="44.801219226792455">
        <ele>431.20000000000005</ele>
        <time>2025-07-05T11:14:34</time>
      </trkpt>
      <trkpt lat="41.69701240025461" lon="44.801293490454555">
        <ele>430.79999999999995</ele>
        <time>2025-07-05T11:14:36</time>
      </trkpt>
      <trkpt lat="41.697085574269295" lon="44.801442604511976">
        <ele>430.0</ele>
        <time>2025-07-05T11:14:40</time>
      </trkpt>
      <trkpt lat="41.69710049405694" lon="44.80146967805922">
        <ele>429.79999999999995</ele>
        <time>2025-07-05T11:14:41</time>
      </trkpt>
      <trkpt lat="41.69715028256178" lon="44.80158216319978">
        <ele>428.79999999999995</ele>
        <time>2025-07-05T11:14:45</time>
      </trkpt>
      <trkpt lat="41.69720007106662" lon="44.80168257839978">
        <ele>427.6</ele>
        <time>2025-07-05T11:14:48</time>
      </trkpt>
      <trkpt lat="41.69724550098181" lon="44.80179590173066">
        <ele>426.4</ele>
        <time>2025-07-05T11:14:51</time>
      </trkpt>
      <trkpt lat="41.69726209715009" lon="44.8018282558769">
        <ele>426.20000000000005</ele>
        <time>2025-07-05T11:14:52</time>
      </trkpt>
      <trkpt lat="41.697288332507014" lon="44.80188257060945">
        <ele>425.4</ele>
        <time>2025-07-05T11:14:54</time>
      </trkpt>
      <trkpt lat="41.69732973910868" lon="44.801943926140666">
        <ele>424.20000000000005</ele>
        <time>2025-07-05T11:14:57</time>
      </trkpt>
      <trkpt lat="41.69734172523022" lon="44.80195909738541">
        <ele>424.0</ele>
        <time>2025-07-05T11:14:58</time>
      </trkpt>
      <trkpt lat="41.697356225922704" lon="44.801971670240164">
        <ele>423.79999999999995</ele>
        <time>2025-07-05T11:14:59</time>
      </trkpt>
      <trkpt lat="41.697387071326375" lon="44.801977621391416">
        <ele>423.20000000000005</ele>
        <time>2025-07-05T11:15:01</time>
      </trkpt>
      <trkpt lat="41.69740777462721" lon="44.80196605436504">
        <ele>422.79999999999995</ele>
        <time>2025-07-05T11:15:02</time>
      </trkpt>
      <trkpt lat="41.69743141159415" lon="44.801948787644506">
        <ele>422.6</ele>
        <time>2025-07-05T11:15:03</time>
      </trkpt>
      <trkpt lat="41.69753987342119" lon="44.80185365304351">
        <ele>422.20000000000005</ele>
        <time>2025-07-05T11:15:07</time>
      </trkpt>
      <trkpt lat="41.69770047068596" lon="44.80166363529861">
        <ele>422.20000000000005</ele>
        <time>2025-07-05T11:15:14</time>
      </trkpt>
      <trkpt lat="41.697837095707655" lon="44.80151158757508">
        <ele>422.4</ele>
        <time>2025-07-05T11:15:19</time>
      </trkpt>
      <trkpt lat="41.69803289696574" lon="44.80135132558644">
        <ele>422.6</ele>
        <time>2025-07-05T11:15:24</time>
      </trkpt>
      <trkpt lat="41.69831461273134" lon="44.801089307293296">
        <ele>422.6</ele>
        <time>2025-07-05T11:15:31</time>
      </trkpt>
      <trkpt lat="41.69834470376372" lon="44.801043290644884">
        <ele>422.6</ele>
        <time>2025-07-05T11:15:32</time>
      </trkpt>
      <trkpt lat="41.69847512617707" lon="44.80087146162987">
        <ele>422.20000000000005</ele>
        <time>2025-07-05T11:15:36</time>
      </trkpt>
      <trkpt lat="41.69850437901914" lon="44.800823936238885">
        <ele>422.0</ele>
        <time>2025-07-05T11:15:37</time>
      </trkpt>
      <trkpt lat="41.698628682643175" lon="44.80052277445793">
        <ele>422.0</ele>
        <time>2025-07-05T11:15:43</time>
      </trkpt>
      <trkpt lat="41.6988071333617" lon="44.800244914367795">
        <ele>422.79999999999995</ele>
        <time>2025-07-05T11:15:50</time>
      </trkpt>
      <trkpt lat="41.69882909394801" lon="44.800200993195176">
        <ele>423.0</ele>
        <time>2025-07-05T11:15:51</time>
      </trkpt>
      <trkpt lat="41.698934119194746" lon="44.800033858045936">
        <ele>423.4</ele>
        <time>2025-07-05T11:15:55</time>
      </trkpt>
      <trkpt lat="41.69912631623447" lon="44.7998646274209">
        <ele>423.79999999999995</ele>
        <time>2025-07-05T11:16:01</time>
      </trkpt>
      <trkpt lat="41.69924793764949" lon="44.79976731352508">
        <ele>424.0</ele>
        <time>2025-07-05T11:16:06</time>
      </trkpt>
      <trkpt lat="41.69928473420441" lon="44.7997076343745">
        <ele>424.20000000000005</ele>
        <time>2025-07-05T11:16:10</time>
      </trkpt>
      <trkpt lat="41.69929060153663" lon="44.79968902654946">
        <ele>424.20000000000005</ele>
        <time>2025-07-05T11:16:11</time>
      </trkpt>
      <trkpt lat="41.69941599480808" lon="44.799572518095374">
        <ele>424.20000000000005</ele>
        <time>2025-07-05T11:16:16</time>
      </trkpt>
      <trkpt lat="41.69965513050556" lon="44.79939490556717">
        <ele>424.20000000000005</ele>
        <time>2025-07-05T11:16:22</time>
      </trkpt>
      <trkpt lat="41.69982737861574" lon="44.79921318590641">
        <ele>424.20000000000005</ele>
        <time>2025-07-05T11:16:27</time>
      </trkpt>
      <trkpt lat="41.69991019181907" lon="44.799143113195896">
        <ele>424.20000000000005</ele>
        <time>2025-07-05T11:16:29</time>
      </trkpt>
      <trkpt lat="41.70022216625512" lon="44.798786798492074">
        <ele>423.79999999999995</ele>
        <time>2025-07-05T11:16:36</time>
      </trkpt>
      <trkpt lat="41.70026030391455" lon="44.79873122647405">
        <ele>423.6</ele>
        <time>2025-07-05T11:16:37</time>
      </trkpt>
      <trkpt lat="41.70033616013825" lon="44.79861991479993">
        <ele>423.20000000000005</ele>
        <time>2025-07-05T11:16:39</time>
      </trkpt>
      <trkpt lat="41.70037471689284" lon="44.79856224730611">
        <ele>423.0</ele>
        <time>2025-07-05T11:16:40</time>
      </trkpt>
      <trkpt lat="41.70047152787447" lon="44.7984002251178">
        <ele>422.6</ele>
        <time>2025-07-05T11:16:43</time>
      </trkpt>
      <trkpt lat="41.70060530304909" lon="44.7982292342931">
        <ele>422.6</ele>
        <time>2025-07-05T11:16:47</time>
      </trkpt>
      <trkpt lat="41.700634555891156" lon="44.798193108290434">
        <ele>422.6</ele>
        <time>2025-07-05T11:16:48</time>
      </trkpt>
      <trkpt lat="41.70076774433255" lon="44.798056399449706">
        <ele>422.79999999999995</ele>
        <time>2025-07-05T11:16:53</time>
      </trkpt>
      <trkpt lat="41.70089305378497" lon="44.79793150909245">
        <ele>424.20000000000005</ele>
        <time>2025-07-05T11:16:59</time>
      </trkpt>
      <trkpt lat="41.70105063356459" lon="44.79776429012418">
        <ele>425.4</ele>
        <time>2025-07-05T11:17:05</time>
      </trkpt>
      <trkpt lat="41.70117284171283" lon="44.79760671034455">
        <ele>426.4</ele>
        <time>2025-07-05T11:17:10</time>
      </trkpt>
      <trkpt lat="41.701197400689125" lon="44.797574523836374">
        <ele>426.6</ele>
        <time>2025-07-05T11:17:11</time>
      </trkpt>
      <trkpt lat="41.70135095715523" lon="44.79738274589181">
        <ele>427.6</ele>
        <time>2025-07-05T11:17:17</time>
      </trkpt>
      <trkpt lat="41.70147241093218" lon="44.79722382500768">
        <ele>428.79999999999995</ele>
        <time>2025-07-05T11:17:23</time>
      </trkpt>
      <trkpt lat="41.70149143785238" lon="44.79719675146043">
        <ele>428.79999999999995</ele>
        <time>2025-07-05T11:17:24</time>
      </trkpt>
      <trkpt lat="41.70157098211348" lon="44.79709088802338">
        <ele>429.79999999999995</ele>
        <time>2025-07-05T11:17:28</time>
      </trkpt>
      <trkpt lat="41.70159336179495" lon="44.79706331156194">
        <ele>430.0</ele>
        <time>2025-07-05T11:17:29</time>
      </trkpt>
      <trkpt lat="41.70168237760663" lon="44.79696750640869">
        <ele>431.0</ele>
        <time>2025-07-05T11:17:33</time>
      </trkpt>
      <trkpt lat="41.70174867846072" lon="44.79689558967948">
        <ele>431.4</ele>
        <time>2025-07-05T11:17:36</time>
      </trkpt>
      <trkpt lat="41.701857978478074" lon="44.796784445643425">
        <ele>432.0</ele>
        <time>2025-07-05T11:17:41</time>
      </trkpt>
      <trkpt lat="41.70190181583166" lon="44.79674614034593">
        <ele>432.20000000000005</ele>
        <time>2025-07-05T11:17:43</time>
      </trkpt>
      <trkpt lat="41.70197708532214" lon="44.796672547236085">
        <ele>432.79999999999995</ele>
        <time>2025-07-05T11:17:47</time>
      </trkpt>
      <trkpt lat="41.702022263780236" lon="44.796615801751614">
        <ele>433.20000000000005</ele>
        <time>2025-07-05T11:17:50</time>
      </trkpt>
      <trkpt lat="41.70209367759526" lon="44.796493174508214">
        <ele>434.0</ele>
        <time>2025-07-05T11:17:54</time>
      </trkpt>
      <trkpt lat="41.70214128680527" lon="44.79644120670855">
        <ele>434.20000000000005</ele>
        <time>2025-07-05T11:17:56</time>
      </trkpt>
      <trkpt lat="41.7022573761642" lon="44.79631572961807">
        <ele>434.6</ele>
        <time>2025-07-05T11:18:01</time>
      </trkpt>
      <trkpt lat="41.70232996344566" lon="44.79623802937567">
        <ele>435.20000000000005</ele>
        <time>2025-07-05T11:18:04</time>
      </trkpt>
      <trkpt lat="41.702422834932804" lon="44.796134093776345">
        <ele>436.0</ele>
        <time>2025-07-05T11:18:08</time>
      </trkpt>
      <trkpt lat="41.70249408110976" lon="44.79605798609555">
        <ele>436.20000000000005</ele>
        <time>2025-07-05T11:18:11</time>
      </trkpt>
      <trkpt lat="41.70257412828505" lon="44.79596855118871">
        <ele>436.4</ele>
        <time>2025-07-05T11:18:14</time>
      </trkpt>
      <trkpt lat="41.70277646742761" lon="44.79576545767486">
        <ele>436.79999999999995</ele>
        <time>2025-07-05T11:18:21</time>
      </trkpt>
      <trkpt lat="41.70292533002794" lon="44.795558424666524">
        <ele>437.6</ele>
        <time>2025-07-05T11:18:27</time>
      </trkpt>
      <trkpt lat="41.70295952819288" lon="44.7950382437557">
        <ele>438.20000000000005</ele>
        <time>2025-07-05T11:18:34</time>
      </trkpt>
      <trkpt lat="41.70314476825297" lon="44.7948825918138">
        <ele>438.20000000000005</ele>
        <time>2025-07-05T11:18:40</time>
      </trkpt>
      <trkpt lat="41.70333193615079" lon="44.79470992460847">
        <ele>438.20000000000005</ele>
        <time>2025-07-05T11:18:46</time>
      </trkpt>
      <trkpt lat="41.70344450511038" lon="44.794527534395456">
        <ele>438.20000000000005</ele>
        <time>2025-07-05T11:18:51</time>
      </trkpt>
      <trkpt lat="41.703513488173485" lon="44.794310946017504">
        <ele>438.79999999999995</ele>
        <time>2025-07-05T11:18:57</time>
      </trkpt>
      <trkpt lat="41.70352354645729" lon="44.794133584946394">
        <ele>440.0</ele>
        <time>2025-07-05T11:19:02</time>
      </trkpt>
      <trkpt lat="41.70351809822023" lon="44.794094525277615">
        <ele>440.20000000000005</ele>
        <time>2025-07-05T11:19:03</time>
      </trkpt>
      <trkpt lat="41.703491443768144" lon="44.793905932456255">
        <ele>441.0</ele>
        <time>2025-07-05T11:19:08</time>
      </trkpt>
      <trkpt lat="41.70348213985562" lon="44.79382806457579">
        <ele>441.20000000000005</ele>
        <time>2025-07-05T11:19:10</time>
      </trkpt>
      <trkpt lat="41.70342028141022" lon="44.79355867020786">
        <ele>441.6</ele>
        <time>2025-07-05T11:19:17</time>
      </trkpt>
      <trkpt lat="41.703326823189855" lon="44.793392373248935">
        <ele>442.20000000000005</ele>
        <time>2025-07-05T11:19:22</time>
      </trkpt>
      <trkpt lat="41.7032917868346" lon="44.79333738796413">
        <ele>442.4</ele>
        <time>2025-07-05T11:19:24</time>
      </trkpt>
      <trkpt lat="41.70319581404328" lon="44.793168157339096">
        <ele>443.0</ele>
        <time>2025-07-05T11:19:30</time>
      </trkpt>
      <trkpt lat="41.70318114571273" lon="44.793125661090016">
        <ele>443.4</ele>
        <time>2025-07-05T11:19:31</time>
      </trkpt>
      <trkpt lat="41.70315834693611" lon="44.793035723268986">
        <ele>443.79999999999995</ele>
        <time>2025-07-05T11:19:34</time>
      </trkpt>
      <trkpt lat="41.70315935276449" lon="44.79299917817116">
        <ele>443.79999999999995</ele>
        <time>2025-07-05T11:19:35</time>
      </trkpt>
      <trkpt lat="41.70320344157517" lon="44.792866157367826">
        <ele>444.4</ele>
        <time>2025-07-05T11:19:39</time>
      </trkpt>
      <trkpt lat="41.7032259888947" lon="44.792835814878345">
        <ele>444.6</ele>
        <time>2025-07-05T11:19:40</time>
      </trkpt>
      <trkpt lat="41.703394800424576" lon="44.79264127090573">
        <ele>444.79999999999995</ele>
        <time>2025-07-05T11:19:47</time>
      </trkpt>
      <trkpt lat="41.703552044928074" lon="44.79243826121092">
        <ele>444.79999999999995</ele>
        <time>2025-07-05T11:19:54</time>
      </trkpt>
      <trkpt lat="41.70379813760519" lon="44.792160484939814">
        <ele>445.20000000000005</ele>
        <time>2025-07-05T11:20:04</time>
      </trkpt>
      <trkpt lat="41.70384666882455" lon="44.79209954850376">
        <ele>445.20000000000005</ele>
        <time>2025-07-05T11:20:06</time>
      </trkpt>
      <trkpt lat="41.703985054045916" lon="44.79192637838423">
        <ele>445.4</ele>
        <time>2025-07-05T11:20:12</time>
      </trkpt>
      <trkpt lat="41.70417012646794" lon="44.79169470258057">
        <ele>445.6</ele>
        <time>2025-07-05T11:20:20</time>
      </trkpt>
      <trkpt lat="41.704326197505" lon="44.79148976504803">
        <ele>445.6</ele>
        <time>2025-07-05T11:20:27</time>
      </trkpt>
      <trkpt lat="41.70447480864823" lon="44.79133193381131">
        <ele>446.20000000000005</ele>
        <time>2025-07-05T11:20:34</time>
      </trkpt>
      <trkpt lat="41.70461604371667" lon="44.79112791828811">
        <ele>446.20000000000005</ele>
        <time>2025-07-05T11:20:40</time>
      </trkpt>
      <trkpt lat="41.704784855246544" lon="44.79086288250983">
        <ele>446.0</ele>
        <time>2025-07-05T11:20:45</time>
      </trkpt>
      <trkpt lat="41.70482433401048" lon="44.790822733193636">
        <ele>446.0</ele>
        <time>2025-07-05T11:20:46</time>
      </trkpt>
      <trkpt lat="41.70503547415137" lon="44.79063238017261">
        <ele>445.20000000000005</ele>
        <time>2025-07-05T11:20:52</time>
      </trkpt>
      <trkpt lat="41.70519372448325" lon="44.79050547815859">
        <ele>445.20000000000005</ele>
        <time>2025-07-05T11:20:58</time>
      </trkpt>
      <trkpt lat="41.70528559014201" lon="44.79045744985342">
        <ele>445.4</ele>
        <time>2025-07-05T11:21:04</time>
      </trkpt>
      <trkpt lat="41.70544534921646" lon="44.79033817537129">
        <ele>445.79999999999995</ele>
        <time>2025-07-05T11:21:10</time>
      </trkpt>
      <trkpt lat="41.7055918648839" lon="44.79015385732055">
        <ele>446.20000000000005</ele>
        <time>2025-07-05T11:21:15</time>
      </trkpt>
      <trkpt lat="41.705804178491235" lon="44.78998479433358">
        <ele>446.4</ele>
        <time>2025-07-05T11:21:21</time>
      </trkpt>
      <trkpt lat="41.705838376656175" lon="44.78995797224343">
        <ele>446.4</ele>
        <time>2025-07-05T11:21:22</time>
      </trkpt>
      <trkpt lat="41.70595144852996" lon="44.78987339884043">
        <ele>446.79999999999995</ele>
        <time>2025-07-05T11:21:26</time>
      </trkpt>
      <trkpt lat="41.70605747960508" lon="44.789750101044774">
        <ele>447.4</ele>
        <time>2025-07-05T11:21:31</time>
      </trkpt>
      <trkpt lat="41.706067118793726" lon="44.789734091609716">
        <ele>447.6</ele>
        <time>2025-07-05T11:21:32</time>
      </trkpt>
      <trkpt lat="41.70610022731125" lon="44.789583971723914">
        <ele>447.79999999999995</ele>
        <time>2025-07-05T11:21:36</time>
      </trkpt>
      <trkpt lat="41.706223441287875" lon="44.7894430719316">
        <ele>448.0</ele>
        <time>2025-07-05T11:21:41</time>
      </trkpt>
      <trkpt lat="41.70634581707418" lon="44.78932807222009">
        <ele>448.20000000000005</ele>
        <time>2025-07-05T11:21:46</time>
      </trkpt>
      <trkpt lat="41.706499457359314" lon="44.789204355329275">
        <ele>448.4</ele>
        <time>2025-07-05T11:21:51</time>
      </trkpt>
      <trkpt lat="41.706528291106224" lon="44.789183316752315">
        <ele>448.4</ele>
        <time>2025-07-05T11:21:52</time>
      </trkpt>
      <trkpt lat="41.70672493055463" lon="44.78903789073229">
        <ele>448.6</ele>
        <time>2025-07-05T11:21:59</time>
      </trkpt>
      <trkpt lat="41.706743873655796" lon="44.78901257738471">
        <ele>448.6</ele>
        <time>2025-07-05T11:22:00</time>
      </trkpt>
      <trkpt lat="41.70673716813326" lon="44.788931189104915">
        <ele>448.79999999999995</ele>
        <time>2025-07-05T11:22:03</time>
      </trkpt>
      <trkpt lat="41.70666181482375" lon="44.788772435858846">
        <ele>448.79999999999995</ele>
        <time>2025-07-05T11:22:09</time>
      </trkpt>
      <trkpt lat="41.70662518590689" lon="44.78869842365384">
        <ele>449.20000000000005</ele>
        <time>2025-07-05T11:22:15</time>
      </trkpt>
      <trkpt lat="41.70661403797567" lon="44.78866464458406">
        <ele>449.4</ele>
        <time>2025-07-05T11:22:20</time>
      </trkpt>
      <trkpt lat="41.70661420561373" lon="44.78865182027221">
        <ele>449.6</ele>
        <time>2025-07-05T11:22:22</time>
      </trkpt>
      <trkpt lat="41.70660976320505" lon="44.78858887217939">
        <ele>449.6</ele>
        <time>2025-07-05T11:22:29</time>
      </trkpt>
      <trkpt lat="41.70660473406315" lon="44.788556853309274">
        <ele>449.79999999999995</ele>
        <time>2025-07-05T11:22:41</time>
      </trkpt>
      <trkpt lat="41.7066019680351" lon="44.7885553445667">
        <ele>449.79999999999995</ele>
        <time>2025-07-05T11:22:47</time>
      </trkpt>
    </trkseg>
  </trk>
</gpx>