<?xml version="1.0" encoding="UTF-8"?>
<gpx xmlns="http://www.topografix.com/GPX/1/1" xmlns:xsi="http://www.w3.org/2001/XMLSchema-instance" xsi:schemaLocation="http://www.topografix.com/GPX/1/1 http://www.topografix.com/GPX/1/1/gpx.xsd" version="1.1" creator="gpx.py -- https://github.com/tkrajina/gpxpy">
  <trk>
    <trkseg>
      <trkpt lat="41.70674219727516" lon="44.788499688729644">
        <ele>427.0</ele>
        <time>2025-07-13T07:21:36</time>
      </trkpt>
      <trkpt lat="41.706718392670155" lon="44.788469513878226">
        <ele>426.79999999999995</ele>
        <time>2025-07-13T07:21:45</time>
      </trkpt>
      <trkpt lat="41.70663767494261" lon="44.78830539621413">
        <ele>426.79999999999995</ele>
        <time>2025-07-13T07:21:51</time>
      </trkpt>
      <trkpt lat="41.7065105214715" lon="44.78816759772599">
        <ele>427.0</ele>
        <time>2025-07-13T07:21:55</time>
      </trkpt>
      <trkpt lat="41.70647389255464" lon="44.788143960759044">
        <ele>427.20000000000005</ele>
        <time>2025-07-13T07:21:56</time>
      </trkpt>
      <trkpt lat="41.70632662251592" lon="44.78801806457341">
        <ele>427.4</ele>
        <time>2025-07-13T07:22:01</time>
      </trkpt>
      <trkpt lat="41.70630524866283" lon="44.787991577759385">
        <ele>427.4</ele>
        <time>2025-07-13T07:22:02</time>
      </trkpt>
      <trkpt lat="41.706245485693216" lon="44.78789325803518">
        <ele>427.79999999999995</ele>
        <time>2025-07-13T07:22:06</time>
      </trkpt>
      <trkpt lat="41.70624942518771" lon="44.787862999364734">
        <ele>428.20000000000005</ele>
        <time>2025-07-13T07:22:08</time>
      </trkpt>
      <trkpt lat="41.70625017955899" lon="44.78785243816674">
        <ele>428.4</ele>
        <time>2025-07-13T07:22:10</time>
      </trkpt>
      <trkpt lat="41.70627155341208" lon="44.78782033547759">
        <ele>428.4</ele>
        <time>2025-07-13T07:22:12</time>
      </trkpt>
      <trkpt lat="41.70630902051926" lon="44.78778270073235">
        <ele>428.6</ele>
        <time>2025-07-13T07:22:14</time>
      </trkpt>
      <trkpt lat="41.70634916983545" lon="44.78774473071098">
        <ele>428.79999999999995</ele>
        <time>2025-07-13T07:22:16</time>
      </trkpt>
      <trkpt lat="41.70640583150089" lon="44.78769385255873">
        <ele>429.0</ele>
        <time>2025-07-13T07:22:18</time>
      </trkpt>
      <trkpt lat="41.7065208312124" lon="44.78759368881583">
        <ele>428.79999999999995</ele>
        <time>2025-07-13T07:22:21</time>
      </trkpt>
      <trkpt lat="41.7065036483109" lon="44.78749989531934">
        <ele>429.0</ele>
        <time>2025-07-13T07:22:22</time>
      </trkpt>
      <trkpt lat="41.706692073494196" lon="44.787179036065936">
        <ele>429.0</ele>
        <time>2025-07-13T07:22:28</time>
      </trkpt>
      <trkpt lat="41.70699323527515" lon="44.78698709048331">
        <ele>429.20000000000005</ele>
        <time>2025-07-13T07:22:33</time>
      </trkpt>
      <trkpt lat="41.707097589969635" lon="44.78690410964191">
        <ele>429.20000000000005</ele>
        <time>2025-07-13T07:22:35</time>
      </trkpt>
      <trkpt lat="41.70714033767581" lon="44.78686898946762">
        <ele>429.20000000000005</ele>
        <time>2025-07-13T07:22:36</time>
      </trkpt>
      <trkpt lat="41.70727863907814" lon="44.78675541467965">
        <ele>429.4</ele>
        <time>2025-07-13T07:22:39</time>
      </trkpt>
      <trkpt lat="41.70761768706143" lon="44.786488618701696">
        <ele>429.4</ele>
        <time>2025-07-13T07:22:45</time>
      </trkpt>
      <trkpt lat="41.70790174975991" lon="44.78633942082524">
        <ele>429.20000000000005</ele>
        <time>2025-07-13T07:22:50</time>
      </trkpt>
      <trkpt lat="41.70795438811183" lon="44.78632374666631">
        <ele>429.20000000000005</ele>
        <time>2025-07-13T07:22:51</time>
      </trkpt>
      <trkpt lat="41.70801247470081" lon="44.786296002566814">
        <ele>429.20000000000005</ele>
        <time>2025-07-13T07:22:52</time>
      </trkpt>
      <trkpt lat="41.7081995587796" lon="44.786183182150126">
        <ele>428.79999999999995</ele>
        <time>2025-07-13T07:22:55</time>
      </trkpt>
      <trkpt lat="41.70857364311814" lon="44.78598603978753">
        <ele>428.20000000000005</ele>
        <time>2025-07-13T07:23:01</time>
      </trkpt>
      <trkpt lat="41.708805821835995" lon="44.78586643002927">
        <ele>427.4</ele>
        <time>2025-07-13T07:23:05</time>
      </trkpt>
      <trkpt lat="41.70893012546003" lon="44.785780515521765">
        <ele>427.20000000000005</ele>
        <time>2025-07-13T07:23:07</time>
      </trkpt>
      <trkpt lat="41.70907538384199" lon="44.78555713780224">
        <ele>426.79999999999995</ele>
        <time>2025-07-13T07:23:11</time>
      </trkpt>
      <trkpt lat="41.709189964458346" lon="44.78534775786102">
        <ele>426.20000000000005</ele>
        <time>2025-07-13T07:23:14</time>
      </trkpt>
      <trkpt lat="41.70924679376185" lon="44.7853019926697">
        <ele>426.0</ele>
        <time>2025-07-13T07:23:15</time>
      </trkpt>
      <trkpt lat="41.70937235467136" lon="44.78519847616553">
        <ele>425.6</ele>
        <time>2025-07-13T07:23:17</time>
      </trkpt>
      <trkpt lat="41.70956530608237" lon="44.78502228856087">
        <ele>424.79999999999995</ele>
        <time>2025-07-13T07:23:21</time>
      </trkpt>
      <trkpt lat="41.709675109013915" lon="44.78490016423166">
        <ele>423.79999999999995</ele>
        <time>2025-07-13T07:23:24</time>
      </trkpt>
      <trkpt lat="41.70974417589605" lon="44.78484031744301">
        <ele>423.20000000000005</ele>
        <time>2025-07-13T07:23:26</time>
      </trkpt>
      <trkpt lat="41.7098069563508" lon="44.78478692471981">
        <ele>422.6</ele>
        <time>2025-07-13T07:23:28</time>
      </trkpt>
      <trkpt lat="41.70993494801223" lon="44.78464962914586">
        <ele>421.79999999999995</ele>
        <time>2025-07-13T07:23:32</time>
      </trkpt>
      <trkpt lat="41.71001248061657" lon="44.7845852561295">
        <ele>421.4</ele>
        <time>2025-07-13T07:23:34</time>
      </trkpt>
      <trkpt lat="41.71013913117349" lon="44.78448919951916">
        <ele>421.0</ele>
        <time>2025-07-13T07:23:37</time>
      </trkpt>
      <trkpt lat="41.71018581837416" lon="44.78446229360998">
        <ele>420.79999999999995</ele>
        <time>2025-07-13T07:23:38</time>
      </trkpt>
      <trkpt lat="41.710243821144104" lon="44.78440781123936">
        <ele>420.20000000000005</ele>
        <time>2025-07-13T07:23:39</time>
      </trkpt>
      <trkpt lat="41.71030140481889" lon="44.78437009267509">
        <ele>420.0</ele>
        <time>2025-07-13T07:23:40</time>
      </trkpt>
      <trkpt lat="41.71035119332373" lon="44.784362548962235">
        <ele>420.0</ele>
        <time>2025-07-13T07:23:41</time>
      </trkpt>
      <trkpt lat="41.710492596030235" lon="44.78436162695289">
        <ele>419.0</ele>
        <time>2025-07-13T07:23:45</time>
      </trkpt>
      <trkpt lat="41.71050030738115" lon="44.78435265831649">
        <ele>418.4</ele>
        <time>2025-07-13T07:23:49</time>
      </trkpt>
      <trkpt lat="41.71049821190536" lon="44.78434729389846">
        <ele>417.79999999999995</ele>
        <time>2025-07-13T07:23:51</time>
      </trkpt>
      <trkpt lat="41.710501899942756" lon="44.784344444051385">
        <ele>417.6</ele>
        <time>2025-07-13T07:23:52</time>
      </trkpt>
      <trkpt lat="41.710550766438246" lon="44.78430136106908">
        <ele>417.20000000000005</ele>
        <time>2025-07-13T07:23:55</time>
      </trkpt>
      <trkpt lat="41.71057440340519" lon="44.78427856229246">
        <ele>417.20000000000005</ele>
        <time>2025-07-13T07:23:56</time>
      </trkpt>
      <trkpt lat="41.71066911891103" lon="44.784213015809655">
        <ele>417.0</ele>
        <time>2025-07-13T07:23:59</time>
      </trkpt>
      <trkpt lat="41.710888808593154" lon="44.78405577130616">
        <ele>416.6</ele>
        <time>2025-07-13T07:24:04</time>
      </trkpt>
      <trkpt lat="41.71122618019581" lon="44.78392736054957">
        <ele>415.4</ele>
        <time>2025-07-13T07:24:10</time>
      </trkpt>
      <trkpt lat="41.71139096841216" lon="44.783835243433714">
        <ele>414.4</ele>
        <time>2025-07-13T07:24:13</time>
      </trkpt>
      <trkpt lat="41.71143581159413" lon="44.783803056925535">
        <ele>413.79999999999995</ele>
        <time>2025-07-13T07:24:14</time>
      </trkpt>
      <trkpt lat="41.71148953959346" lon="44.78376064449549">
        <ele>413.6</ele>
        <time>2025-07-13T07:24:15</time>
      </trkpt>
      <trkpt lat="41.711661368608475" lon="44.78361530229449">
        <ele>412.79999999999995</ele>
        <time>2025-07-13T07:24:18</time>
      </trkpt>
      <trkpt lat="41.711775278672576" lon="44.783519580960274">
        <ele>412.0</ele>
        <time>2025-07-13T07:24:20</time>
      </trkpt>
      <trkpt lat="41.71183101832867" lon="44.78347306139767">
        <ele>411.6</ele>
        <time>2025-07-13T07:24:21</time>
      </trkpt>
      <trkpt lat="41.71199890784919" lon="44.78331497870386">
        <ele>410.79999999999995</ele>
        <time>2025-07-13T07:24:24</time>
      </trkpt>
      <trkpt lat="41.71205012127757" lon="44.78326711803675">
        <ele>410.6</ele>
        <time>2025-07-13T07:24:25</time>
      </trkpt>
      <trkpt lat="41.71210301108658" lon="44.783216239884496">
        <ele>410.6</ele>
        <time>2025-07-13T07:24:26</time>
      </trkpt>
      <trkpt lat="41.71229294501245" lon="44.78302731178701">
        <ele>410.4</ele>
        <time>2025-07-13T07:24:30</time>
      </trkpt>
      <trkpt lat="41.71234373934567" lon="44.782992443069816">
        <ele>410.4</ele>
        <time>2025-07-13T07:24:31</time>
      </trkpt>
      <trkpt lat="41.71259989030659" lon="44.78297735564411">
        <ele>410.4</ele>
        <time>2025-07-13T07:24:35</time>
      </trkpt>
      <trkpt lat="41.71281388029456" lon="44.78313392959535">
        <ele>410.4</ele>
        <time>2025-07-13T07:24:39</time>
      </trkpt>
      <trkpt lat="41.71295687556267" lon="44.78325303643942">
        <ele>410.20000000000005</ele>
        <time>2025-07-13T07:24:42</time>
      </trkpt>
      <trkpt lat="41.71301127411425" lon="44.78328187018633">
        <ele>410.0</ele>
        <time>2025-07-13T07:24:43</time>
      </trkpt>
      <trkpt lat="41.71306508593261" lon="44.78330290876329">
        <ele>409.6</ele>
        <time>2025-07-13T07:24:44</time>
      </trkpt>
      <trkpt lat="41.71316726133227" lon="44.7833230253309">
        <ele>409.20000000000005</ele>
        <time>2025-07-13T07:24:46</time>
      </trkpt>
      <trkpt lat="41.71327471733093" lon="44.783317409455776">
        <ele>408.6</ele>
        <time>2025-07-13T07:24:48</time>
      </trkpt>
      <trkpt lat="41.713376892730594" lon="44.7832918446511">
        <ele>408.0</ele>
        <time>2025-07-13T07:24:50</time>
      </trkpt>
      <trkpt lat="41.71346666291356" lon="44.78325471282005">
        <ele>407.6</ele>
        <time>2025-07-13T07:24:52</time>
      </trkpt>
      <trkpt lat="41.71351050026715" lon="44.7832265496254">
        <ele>407.4</ele>
        <time>2025-07-13T07:24:53</time>
      </trkpt>
      <trkpt lat="41.71360312029719" lon="44.78314298205078">
        <ele>407.0</ele>
        <time>2025-07-13T07:24:55</time>
      </trkpt>
      <trkpt lat="41.71368861570954" lon="44.783021276816726">
        <ele>406.6</ele>
        <time>2025-07-13T07:24:57</time>
      </trkpt>
      <trkpt lat="41.713756592944264" lon="44.78287677280605">
        <ele>405.6</ele>
        <time>2025-07-13T07:24:59</time>
      </trkpt>
      <trkpt lat="41.71378475613892" lon="44.78280510753393">
        <ele>405.4</ele>
        <time>2025-07-13T07:25:00</time>
      </trkpt>
      <trkpt lat="41.7138288449496" lon="44.78268172591925">
        <ele>404.4</ele>
        <time>2025-07-13T07:25:02</time>
      </trkpt>
      <trkpt lat="41.71387352049351" lon="44.782473435625434">
        <ele>403.4</ele>
        <time>2025-07-13T07:25:05</time>
      </trkpt>
      <trkpt lat="41.713895900174975" lon="44.78233094327152">
        <ele>403.0</ele>
        <time>2025-07-13T07:25:07</time>
      </trkpt>
      <trkpt lat="41.71394501812756" lon="44.78194856084883">
        <ele>402.79999999999995</ele>
        <time>2025-07-13T07:25:13</time>
      </trkpt>
      <trkpt lat="41.713957926258445" lon="44.78189064189792">
        <ele>402.79999999999995</ele>
        <time>2025-07-13T07:25:14</time>
      </trkpt>
      <trkpt lat="41.71404987573624" lon="44.78164169937372">
        <ele>402.79999999999995</ele>
        <time>2025-07-13T07:25:19</time>
      </trkpt>
      <trkpt lat="41.71414140611887" lon="44.78146266192198">
        <ele>403.20000000000005</ele>
        <time>2025-07-13T07:25:24</time>
      </trkpt>
      <trkpt lat="41.71417996287346" lon="44.78140901774168">
        <ele>403.20000000000005</ele>
        <time>2025-07-13T07:25:27</time>
      </trkpt>
      <trkpt lat="41.71418239362538" lon="44.781410777941346">
        <ele>403.4</ele>
        <time>2025-07-13T07:25:28</time>
      </trkpt>
      <trkpt lat="41.71417258679867" lon="44.78143944405019">
        <ele>403.4</ele>
        <time>2025-07-13T07:25:30</time>
      </trkpt>
      <trkpt lat="41.71415573917329" lon="44.78148613125086">
        <ele>403.4</ele>
        <time>2025-07-13T07:25:32</time>
      </trkpt>
      <trkpt lat="41.714112320914865" lon="44.78153985925019">
        <ele>403.4</ele>
        <time>2025-07-13T07:25:34</time>
      </trkpt>
      <trkpt lat="41.71405297704041" lon="44.781656954437494">
        <ele>403.4</ele>
        <time>2025-07-13T07:25:37</time>
      </trkpt>
      <trkpt lat="41.71400888822973" lon="44.781894497573376">
        <ele>402.79999999999995</ele>
        <time>2025-07-13T07:25:42</time>
      </trkpt>
      <trkpt lat="41.71402028761804" lon="44.78212499991059">
        <ele>402.6</ele>
        <time>2025-07-13T07:25:47</time>
      </trkpt>
      <trkpt lat="41.714058173820376" lon="44.7823663149029">
        <ele>402.4</ele>
        <time>2025-07-13T07:25:53</time>
      </trkpt>
      <trkpt lat="41.71416060067713" lon="44.78266043588519">
        <ele>402.4</ele>
        <time>2025-07-13T07:26:00</time>
      </trkpt>
      <trkpt lat="41.71419957652688" lon="44.78286135010421">
        <ele>402.6</ele>
        <time>2025-07-13T07:26:04</time>
      </trkpt>
      <trkpt lat="41.714215502142906" lon="44.78307223878801">
        <ele>402.4</ele>
        <time>2025-07-13T07:26:09</time>
      </trkpt>
      <trkpt lat="41.71421432867646" lon="44.78309637866914">
        <ele>402.6</ele>
        <time>2025-07-13T07:26:10</time>
      </trkpt>
      <trkpt lat="41.7142070364207" lon="44.7831692174077">
        <ele>402.79999999999995</ele>
        <time>2025-07-13T07:26:14</time>
      </trkpt>
      <trkpt lat="41.714194966480136" lon="44.783202493563294">
        <ele>403.0</ele>
        <time>2025-07-13T07:26:21</time>
      </trkpt>
      <trkpt lat="41.71419655904174" lon="44.78336803615093">
        <ele>403.20000000000005</ele>
        <time>2025-07-13T07:26:26</time>
      </trkpt>
      <trkpt lat="41.71429395675659" lon="44.78355176746845">
        <ele>403.4</ele>
        <time>2025-07-13T07:26:30</time>
      </trkpt>
      <trkpt lat="41.71438414603472" lon="44.78367724455893">
        <ele>403.6</ele>
        <time>2025-07-13T07:26:33</time>
      </trkpt>
      <trkpt lat="41.71451440081" lon="44.783858293667436">
        <ele>403.79999999999995</ele>
        <time>2025-07-13T07:26:37</time>
      </trkpt>
      <trkpt lat="41.71461104415357" lon="44.783972119912505">
        <ele>404.0</ele>
        <time>2025-07-13T07:26:40</time>
      </trkpt>
      <trkpt lat="41.7147131357342" lon="44.78411603718996">
        <ele>404.6</ele>
        <time>2025-07-13T07:26:44</time>
      </trkpt>
      <trkpt lat="41.714740209281445" lon="44.78414763696492">
        <ele>404.6</ele>
        <time>2025-07-13T07:26:45</time>
      </trkpt>
      <trkpt lat="41.714928885921836" lon="44.78436900302768">
        <ele>405.79999999999995</ele>
        <time>2025-07-13T07:26:51</time>
      </trkpt>
      <trkpt lat="41.7150654271245" lon="44.7845456097275">
        <ele>406.20000000000005</ele>
        <time>2025-07-13T07:26:55</time>
      </trkpt>
      <trkpt lat="41.71518721617758" lon="44.78473152033985">
        <ele>406.4</ele>
        <time>2025-07-13T07:26:59</time>
      </trkpt>
      <trkpt lat="41.71521948650479" lon="44.78477418422699">
        <ele>406.6</ele>
        <time>2025-07-13T07:27:00</time>
      </trkpt>
      <trkpt lat="41.7154158744961" lon="44.78503695689142">
        <ele>407.6</ele>
        <time>2025-07-13T07:27:06</time>
      </trkpt>
      <trkpt lat="41.715688118711114" lon="44.785389583557844">
        <ele>408.4</ele>
        <time>2025-07-13T07:27:14</time>
      </trkpt>
      <trkpt lat="41.71582080423832" lon="44.785573901608586">
        <ele>408.4</ele>
        <time>2025-07-13T07:27:19</time>
      </trkpt>
      <trkpt lat="41.7158561758697" lon="44.785664677619934">
        <ele>408.20000000000005</ele>
        <time>2025-07-13T07:27:22</time>
      </trkpt>
      <trkpt lat="41.71588081866503" lon="44.78568512946367">
        <ele>408.20000000000005</ele>
        <time>2025-07-13T07:27:24</time>
      </trkpt>
      <trkpt lat="41.71590437181294" lon="44.785693008452654">
        <ele>407.4</ele>
        <time>2025-07-13T07:27:32</time>
      </trkpt>
      <trkpt lat="41.71593672595918" lon="44.78567750193179">
        <ele>407.4</ele>
        <time>2025-07-13T07:27:35</time>
      </trkpt>
      <trkpt lat="41.71597461216152" lon="44.785610446706414">
        <ele>407.4</ele>
        <time>2025-07-13T07:27:37</time>
      </trkpt>
      <trkpt lat="41.71605826355517" lon="44.78546812199056">
        <ele>407.4</ele>
        <time>2025-07-13T07:27:41</time>
      </trkpt>
      <trkpt lat="41.716086845844984" lon="44.785458482801914">
        <ele>407.4</ele>
        <time>2025-07-13T07:27:42</time>
      </trkpt>
      <trkpt lat="41.7161981575191" lon="44.78536929935217">
        <ele>407.6</ele>
        <time>2025-07-13T07:27:46</time>
      </trkpt>
      <trkpt lat="41.71624643728137" lon="44.78517525829375">
        <ele>408.6</ele>
        <time>2025-07-13T07:27:51</time>
      </trkpt>
      <trkpt lat="41.71625532209873" lon="44.78507031686604">
        <ele>409.79999999999995</ele>
        <time>2025-07-13T07:27:54</time>
      </trkpt>
      <trkpt lat="41.716275438666344" lon="44.784972332417965">
        <ele>410.79999999999995</ele>
        <time>2025-07-13T07:27:57</time>
      </trkpt>
      <trkpt lat="41.716279461979866" lon="44.784938637167215">
        <ele>411.20000000000005</ele>
        <time>2025-07-13T07:27:58</time>
      </trkpt>
      <trkpt lat="41.71628021635115" lon="44.78483729995787">
        <ele>412.20000000000005</ele>
        <time>2025-07-13T07:28:01</time>
      </trkpt>
      <trkpt lat="41.71626169234514" lon="44.784744177013636">
        <ele>413.20000000000005</ele>
        <time>2025-07-13T07:28:04</time>
      </trkpt>
      <trkpt lat="41.716272505000234" lon="44.78465901687741">
        <ele>414.20000000000005</ele>
        <time>2025-07-13T07:28:07</time>
      </trkpt>
      <trkpt lat="41.71628516167402" lon="44.78462716564536">
        <ele>414.6</ele>
        <time>2025-07-13T07:28:08</time>
      </trkpt>
      <trkpt lat="41.716324388980865" lon="44.78458215482533">
        <ele>415.20000000000005</ele>
        <time>2025-07-13T07:28:10</time>
      </trkpt>
      <trkpt lat="41.71637543477118" lon="44.78456061333418">
        <ele>415.79999999999995</ele>
        <time>2025-07-13T07:28:12</time>
      </trkpt>
      <trkpt lat="41.716402592137456" lon="44.78456220589578">
        <ele>416.4</ele>
        <time>2025-07-13T07:28:13</time>
      </trkpt>
      <trkpt lat="41.71648196876049" lon="44.78460319340229">
        <ele>417.6</ele>
        <time>2025-07-13T07:28:16</time>
      </trkpt>
      <trkpt lat="41.71650602482259" lon="44.78462473489344">
        <ele>418.0</ele>
        <time>2025-07-13T07:28:17</time>
      </trkpt>
      <trkpt lat="41.71657769009471" lon="44.78469455614686">
        <ele>418.79999999999995</ele>
        <time>2025-07-13T07:28:20</time>
      </trkpt>
      <trkpt lat="41.716655725613236" lon="44.78479119949043">
        <ele>419.6</ele>
        <time>2025-07-13T07:28:24</time>
      </trkpt>
      <trkpt lat="41.71668028458953" lon="44.78481131605804">
        <ele>419.79999999999995</ele>
        <time>2025-07-13T07:28:25</time>
      </trkpt>
      <trkpt lat="41.716785561293364" lon="44.78486915118992">
        <ele>420.6</ele>
        <time>2025-07-13T07:28:30</time>
      </trkpt>
      <trkpt lat="41.716818334534764" lon="44.784875605255365">
        <ele>421.0</ele>
        <time>2025-07-13T07:28:32</time>
      </trkpt>
      <trkpt lat="41.716887736693025" lon="44.784875605255365">
        <ele>422.0</ele>
        <time>2025-07-13T07:28:35</time>
      </trkpt>
      <trkpt lat="41.716900896281004" lon="44.78488080203533">
        <ele>422.4</ele>
        <time>2025-07-13T07:28:36</time>
      </trkpt>
      <trkpt lat="41.71694967895746" lon="44.78488608263433">
        <ele>423.6</ele>
        <time>2025-07-13T07:28:39</time>
      </trkpt>
      <trkpt lat="41.71696770004928" lon="44.784881975501776">
        <ele>424.20000000000005</ele>
        <time>2025-07-13T07:28:40</time>
      </trkpt>
      <trkpt lat="41.7169806919992" lon="44.78486303240061">
        <ele>425.0</ele>
        <time>2025-07-13T07:28:43</time>
      </trkpt>
      <trkpt lat="41.717047998681664" lon="44.7847995813936">
        <ele>425.79999999999995</ele>
        <time>2025-07-13T07:28:46</time>
      </trkpt>
      <trkpt lat="41.717075407505035" lon="44.78478826582432">
        <ele>426.20000000000005</ele>
        <time>2025-07-13T07:28:47</time>
      </trkpt>
      <trkpt lat="41.71718856319785" lon="44.784682150930166">
        <ele>426.6</ele>
        <time>2025-07-13T07:28:51</time>
      </trkpt>
      <trkpt lat="41.717257630079985" lon="44.78460277430713">
        <ele>426.79999999999995</ele>
        <time>2025-07-13T07:28:53</time>
      </trkpt>
      <trkpt lat="41.71736693009734" lon="44.78446589782834">
        <ele>427.20000000000005</ele>
        <time>2025-07-13T07:28:56</time>
      </trkpt>
      <trkpt lat="41.7174328956753" lon="44.78437797166407">
        <ele>427.4</ele>
        <time>2025-07-13T07:28:58</time>
      </trkpt>
      <trkpt lat="41.7175486497581" lon="44.78421779349446">
        <ele>427.79999999999995</ele>
        <time>2025-07-13T07:29:02</time>
      </trkpt>
      <trkpt lat="41.71765551902354" lon="44.78402961976826">
        <ele>428.0</ele>
        <time>2025-07-13T07:29:07</time>
      </trkpt>
      <trkpt lat="41.71768150292337" lon="44.783983770757914">
        <ele>428.0</ele>
        <time>2025-07-13T07:29:08</time>
      </trkpt>
      <trkpt lat="41.717838076874614" lon="44.783789897337556">
        <ele>428.0</ele>
        <time>2025-07-13T07:29:13</time>
      </trkpt>
      <trkpt lat="41.71799976378679" lon="44.783554784953594">
        <ele>428.20000000000005</ele>
        <time>2025-07-13T07:29:19</time>
      </trkpt>
      <trkpt lat="41.71817519702017" lon="44.78327273391187">
        <ele>428.4</ele>
        <time>2025-07-13T07:29:25</time>
      </trkpt>
      <trkpt lat="41.718366388231516" lon="44.782962100580335">
        <ele>428.6</ele>
        <time>2025-07-13T07:29:31</time>
      </trkpt>
      <trkpt lat="41.71839497052133" lon="44.782900074496865">
        <ele>428.6</ele>
        <time>2025-07-13T07:29:32</time>
      </trkpt>
      <trkpt lat="41.71845456585288" lon="44.78278976865113">
        <ele>428.6</ele>
        <time>2025-07-13T07:29:34</time>
      </trkpt>
      <trkpt lat="41.71854265965521" lon="44.78266437537968">
        <ele>428.6</ele>
        <time>2025-07-13T07:29:37</time>
      </trkpt>
      <trkpt lat="41.718624299392104" lon="44.782486176118255">
        <ele>428.4</ele>
        <time>2025-07-13T07:29:42</time>
      </trkpt>
      <trkpt lat="41.71862279064953" lon="44.78240101598203">
        <ele>428.6</ele>
        <time>2025-07-13T07:29:45</time>
      </trkpt>
      <trkpt lat="41.71860099770129" lon="44.78236673399806">
        <ele>428.6</ele>
        <time>2025-07-13T07:29:46</time>
      </trkpt>
      <trkpt lat="41.718558333814144" lon="44.782282495871186">
        <ele>428.79999999999995</ele>
        <time>2025-07-13T07:29:48</time>
      </trkpt>
      <trkpt lat="41.718540312722325" lon="44.78224569931626">
        <ele>429.0</ele>
        <time>2025-07-13T07:29:49</time>
      </trkpt>
      <trkpt lat="41.71851860359311" lon="44.78220890276134">
        <ele>429.0</ele>
        <time>2025-07-13T07:29:50</time>
      </trkpt>
      <trkpt lat="41.71845414675772" lon="44.78210806846619">
        <ele>429.20000000000005</ele>
        <time>2025-07-13T07:29:54</time>
      </trkpt>
      <trkpt lat="41.71842816285789" lon="44.78207563050091">
        <ele>429.20000000000005</ele>
        <time>2025-07-13T07:29:55</time>
      </trkpt>
      <trkpt lat="41.71838122420013" lon="44.781934982165694">
        <ele>429.4</ele>
        <time>2025-07-13T07:29:58</time>
      </trkpt>
      <trkpt lat="41.718380972743034" lon="44.78186692111194">
        <ele>429.4</ele>
        <time>2025-07-13T07:29:59</time>
      </trkpt>
      <trkpt lat="41.718248538672924" lon="44.78160792030394">
        <ele>429.6</ele>
        <time>2025-07-13T07:30:04</time>
      </trkpt>
      <trkpt lat="41.71821350231767" lon="44.78156358003616">
        <ele>429.6</ele>
        <time>2025-07-13T07:30:05</time>
      </trkpt>
      <trkpt lat="41.718133203685284" lon="44.78139040991664">
        <ele>429.79999999999995</ele>
        <time>2025-07-13T07:30:09</time>
      </trkpt>
      <trkpt lat="41.718131359666586" lon="44.78135864250362">
        <ele>429.79999999999995</ele>
        <time>2025-07-13T07:30:10</time>
      </trkpt>
      <trkpt lat="41.718131359666586" lon="44.78132729418576">
        <ele>429.79999999999995</ele>
        <time>2025-07-13T07:30:11</time>
      </trkpt>
      <trkpt lat="41.718154745176435" lon="44.78128965944052">
        <ele>429.79999999999995</ele>
        <time>2025-07-13T07:30:12</time>
      </trkpt>
      <trkpt lat="41.71817989088595" lon="44.781251940876245">
        <ele>429.79999999999995</ele>
        <time>2025-07-13T07:30:13</time>
      </trkpt>
      <trkpt lat="41.718206042423844" lon="44.781204499304295">
        <ele>429.79999999999995</ele>
        <time>2025-07-13T07:30:14</time>
      </trkpt>
      <trkpt lat="41.71823873184621" lon="44.78104264475405">
        <ele>430.0</ele>
        <time>2025-07-13T07:30:17</time>
      </trkpt>
      <trkpt lat="41.718265637755394" lon="44.78096787817776">
        <ele>430.0</ele>
        <time>2025-07-13T07:30:19</time>
      </trkpt>
      <trkpt lat="41.71827946789563" lon="44.7808744199574">
        <ele>430.0</ele>
        <time>2025-07-13T07:30:22</time>
      </trkpt>
      <trkpt lat="41.71835616230965" lon="44.78070720098913">
        <ele>430.0</ele>
        <time>2025-07-13T07:30:27</time>
      </trkpt>
      <trkpt lat="41.71839555725455" lon="44.78068716824055">
        <ele>430.0</ele>
        <time>2025-07-13T07:30:29</time>
      </trkpt>
      <trkpt lat="41.7184207867831" lon="44.78067945688963">
        <ele>430.0</ele>
        <time>2025-07-13T07:30:30</time>
      </trkpt>
      <trkpt lat="41.718465462327" lon="44.780633859336376">
        <ele>429.79999999999995</ele>
        <time>2025-07-13T07:30:33</time>
      </trkpt>
      <trkpt lat="41.718476777896285" lon="44.78060343302786">
        <ele>429.6</ele>
        <time>2025-07-13T07:30:34</time>
      </trkpt>
      <trkpt lat="41.71846789307892" lon="44.7803720086813">
        <ele>429.6</ele>
        <time>2025-07-13T07:30:38</time>
      </trkpt>
      <trkpt lat="41.718400083482265" lon="44.779982501640916">
        <ele>429.6</ele>
        <time>2025-07-13T07:30:44</time>
      </trkpt>
      <trkpt lat="41.71838952228427" lon="44.77991963736713">
        <ele>429.6</ele>
        <time>2025-07-13T07:30:45</time>
      </trkpt>
      <trkpt lat="41.71845900826156" lon="44.77957648225129">
        <ele>429.6</ele>
        <time>2025-07-13T07:30:51</time>
      </trkpt>
      <trkpt lat="41.71843688003719" lon="44.77952225133777">
        <ele>429.6</ele>
        <time>2025-07-13T07:30:53</time>
      </trkpt>
      <trkpt lat="41.71837736852467" lon="44.77950791828334">
        <ele>429.6</ele>
        <time>2025-07-13T07:30:55</time>
      </trkpt>
      <trkpt lat="41.71830436214805" lon="44.77947883307934">
        <ele>429.6</ele>
        <time>2025-07-13T07:30:58</time>
      </trkpt>
      <trkpt lat="41.71829145401716" lon="44.7794443834573">
        <ele>429.6</ele>
        <time>2025-07-13T07:30:59</time>
      </trkpt>
      <trkpt lat="41.71826773323119" lon="44.7793013881892">
        <ele>429.6</ele>
        <time>2025-07-13T07:31:02</time>
      </trkpt>
      <trkpt lat="41.7182550765574" lon="44.77924481034279">
        <ele>429.6</ele>
        <time>2025-07-13T07:31:03</time>
      </trkpt>
      <trkpt lat="41.718216352164745" lon="44.77899754419923">
        <ele>429.4</ele>
        <time>2025-07-13T07:31:07</time>
      </trkpt>
      <trkpt lat="41.71819447539747" lon="44.77886536158621">
        <ele>429.20000000000005</ele>
        <time>2025-07-13T07:31:09</time>
      </trkpt>
      <trkpt lat="41.718188943341374" lon="44.7788005694747">
        <ele>429.20000000000005</ele>
        <time>2025-07-13T07:31:10</time>
      </trkpt>
      <trkpt lat="41.718220291659236" lon="44.778691437095404">
        <ele>429.0</ele>
        <time>2025-07-13T07:31:12</time>
      </trkpt>
      <trkpt lat="41.71835616230965" lon="44.77863024920225">
        <ele>428.6</ele>
        <time>2025-07-13T07:31:15</time>
      </trkpt>
      <trkpt lat="41.71841056086123" lon="44.77861499413848">
        <ele>428.6</ele>
        <time>2025-07-13T07:31:16</time>
      </trkpt>
      <trkpt lat="41.71874952502549" lon="44.77851868607104">
        <ele>428.20000000000005</ele>
        <time>2025-07-13T07:31:22</time>
      </trkpt>
      <trkpt lat="41.719112042337656" lon="44.77841081097722">
        <ele>428.20000000000005</ele>
        <time>2025-07-13T07:31:28</time>
      </trkpt>
      <trkpt lat="41.71954178251326" lon="44.77827494032681">
        <ele>428.20000000000005</ele>
        <time>2025-07-13T07:31:35</time>
      </trkpt>
      <trkpt lat="41.719958782196045" lon="44.7781475353986">
        <ele>428.6</ele>
        <time>2025-07-13T07:31:42</time>
      </trkpt>
      <trkpt lat="41.72004654072225" lon="44.77812264114618">
        <ele>428.79999999999995</ele>
        <time>2025-07-13T07:31:44</time>
      </trkpt>
      <trkpt lat="41.720149302855134" lon="44.778125155717134">
        <ele>429.0</ele>
        <time>2025-07-13T07:31:47</time>
      </trkpt>
      <trkpt lat="41.720246113836765" lon="44.778118869289756">
        <ele>429.0</ele>
        <time>2025-07-13T07:31:51</time>
      </trkpt>
      <trkpt lat="41.72027226537466" lon="44.778073439374566">
        <ele>429.20000000000005</ele>
        <time>2025-07-13T07:31:58</time>
      </trkpt>
      <trkpt lat="41.72026212327182" lon="44.77804670110345">
        <ele>429.0</ele>
        <time>2025-07-13T07:32:05</time>
      </trkpt>
      <trkpt lat="41.72024720348418" lon="44.77802071720362">
        <ele>429.0</ele>
        <time>2025-07-13T07:32:06</time>
      </trkpt>
      <trkpt lat="41.7201819922775" lon="44.77796749211848">
        <ele>429.0</ele>
        <time>2025-07-13T07:32:08</time>
      </trkpt>
      <trkpt lat="41.720097586512566" lon="44.77783162146807">
        <ele>429.0</ele>
        <time>2025-07-13T07:32:11</time>
      </trkpt>
      <trkpt lat="41.720060873776674" lon="44.777630707249045">
        <ele>429.0</ele>
        <time>2025-07-13T07:32:14</time>
      </trkpt>
      <trkpt lat="41.72003229148686" lon="44.7774294577539">
        <ele>429.0</ele>
        <time>2025-07-13T07:32:17</time>
      </trkpt>
      <trkpt lat="41.7199906334281" lon="44.777106419205666">
        <ele>429.20000000000005</ele>
        <time>2025-07-13T07:32:22</time>
      </trkpt>
      <trkpt lat="41.719977809116244" lon="44.776990078389645">
        <ele>429.20000000000005</ele>
        <time>2025-07-13T07:32:24</time>
      </trkpt>
      <trkpt lat="41.71995651908219" lon="44.77683409117162">
        <ele>429.6</ele>
        <time>2025-07-13T07:32:27</time>
      </trkpt>
      <trkpt lat="41.71996741555631" lon="44.77668506093323">
        <ele>429.79999999999995</ele>
        <time>2025-07-13T07:32:30</time>
      </trkpt>
      <trkpt lat="41.71994780190289" lon="44.77651683613658">
        <ele>429.79999999999995</ele>
        <time>2025-07-13T07:32:35</time>
      </trkpt>
      <trkpt lat="41.719967583194375" lon="44.77646704763174">
        <ele>430.0</ele>
        <time>2025-07-13T07:32:40</time>
      </trkpt>
      <trkpt lat="41.72003136947751" lon="44.77636830881238">
        <ele>430.0</ele>
        <time>2025-07-13T07:32:44</time>
      </trkpt>
      <trkpt lat="41.7201130092144" lon="44.776270324364305">
        <ele>430.20000000000005</ele>
        <time>2025-07-13T07:32:47</time>
      </trkpt>
      <trkpt lat="41.720172772184014" lon="44.77618549950421">
        <ele>430.20000000000005</ele>
        <time>2025-07-13T07:32:49</time>
      </trkpt>
      <trkpt lat="41.72020546160638" lon="44.77614400908351">
        <ele>430.20000000000005</ele>
        <time>2025-07-13T07:32:50</time>
      </trkpt>
      <trkpt lat="41.720301350578666" lon="44.77601308375597">
        <ele>430.4</ele>
        <time>2025-07-13T07:32:53</time>
      </trkpt>
      <trkpt lat="41.72037720680237" lon="44.77592892944813">
        <ele>430.4</ele>
        <time>2025-07-13T07:32:55</time>
      </trkpt>
      <trkpt lat="41.7204600200057" lon="44.775842763483524">
        <ele>430.20000000000005</ele>
        <time>2025-07-13T07:32:57</time>
      </trkpt>
      <trkpt lat="41.720561273396015" lon="44.775678562000394">
        <ele>430.20000000000005</ele>
        <time>2025-07-13T07:33:00</time>
      </trkpt>
      <trkpt lat="41.72082496806979" lon="44.77539307437837">
        <ele>430.4</ele>
        <time>2025-07-13T07:33:06</time>
      </trkpt>
      <trkpt lat="41.721035186201334" lon="44.77521462365985">
        <ele>430.6</ele>
        <time>2025-07-13T07:33:11</time>
      </trkpt>
      <trkpt lat="41.72107357531786" lon="44.775177743285894">
        <ele>430.6</ele>
        <time>2025-07-13T07:33:12</time>
      </trkpt>
      <trkpt lat="41.72117994166911" lon="44.77507749572396">
        <ele>430.79999999999995</ele>
        <time>2025-07-13T07:33:16</time>
      </trkpt>
      <trkpt lat="41.721200896427035" lon="44.7750548645854">
        <ele>430.79999999999995</ele>
        <time>2025-07-13T07:33:17</time>
      </trkpt>
      <trkpt lat="41.72133123502135" lon="44.77490524761379">
        <ele>431.0</ele>
        <time>2025-07-13T07:33:22</time>
      </trkpt>
      <trkpt lat="41.72143223695457" lon="44.77480751462281">
        <ele>430.79999999999995</ele>
        <time>2025-07-13T07:33:25</time>
      </trkpt>
      <trkpt lat="41.72151840291917" lon="44.77470885962248">
        <ele>430.79999999999995</ele>
        <time>2025-07-13T07:33:28</time>
      </trkpt>
      <trkpt lat="41.721598114818335" lon="44.77461062371731">
        <ele>431.0</ele>
        <time>2025-07-13T07:33:33</time>
      </trkpt>
      <trkpt lat="41.721601048484445" lon="44.77457500062883">
        <ele>431.0</ele>
        <time>2025-07-13T07:33:40</time>
      </trkpt>
      <trkpt lat="41.721582021564245" lon="44.77452521212399">
        <ele>431.0</ele>
        <time>2025-07-13T07:33:49</time>
      </trkpt>
      <trkpt lat="41.721558133140206" lon="44.77450165897608">
        <ele>431.0</ele>
        <time>2025-07-13T07:33:50</time>
      </trkpt>
      <trkpt lat="41.721472134813666" lon="44.774369560182095">
        <ele>431.0</ele>
        <time>2025-07-13T07:33:53</time>
      </trkpt>
      <trkpt lat="41.72142477706075" lon="44.77418071590364">
        <ele>431.0</ele>
        <time>2025-07-13T07:33:56</time>
      </trkpt>
      <trkpt lat="41.72140373848379" lon="44.77404065430164">
        <ele>431.0</ele>
        <time>2025-07-13T07:33:58</time>
      </trkpt>
      <trkpt lat="41.721399212256074" lon="44.77396488189697">
        <ele>430.79999999999995</ele>
        <time>2025-07-13T07:33:59</time>
      </trkpt>
      <trkpt lat="41.7213789280504" lon="44.773734295740724">
        <ele>430.79999999999995</ele>
        <time>2025-07-13T07:34:02</time>
      </trkpt>
      <trkpt lat="41.72136467881501" lon="44.7735767159611">
        <ele>430.79999999999995</ele>
        <time>2025-07-13T07:34:04</time>
      </trkpt>
      <trkpt lat="41.72132385894656" lon="44.773273039609194">
        <ele>430.6</ele>
        <time>2025-07-13T07:34:08</time>
      </trkpt>
      <trkpt lat="41.721287816762924" lon="44.77280750870705">
        <ele>430.6</ele>
        <time>2025-07-13T07:34:14</time>
      </trkpt>
      <trkpt lat="41.72127767466009" lon="44.77264892309904">
        <ele>430.6</ele>
        <time>2025-07-13T07:34:16</time>
      </trkpt>
      <trkpt lat="41.72121766023338" lon="44.77241674438119">
        <ele>430.79999999999995</ele>
        <time>2025-07-13T07:34:19</time>
      </trkpt>
      <trkpt lat="41.72119687311351" lon="44.77227475494146">
        <ele>431.0</ele>
        <time>2025-07-13T07:34:21</time>
      </trkpt>
      <trkpt lat="41.72119863331318" lon="44.77213351987302">
        <ele>431.20000000000005</ele>
        <time>2025-07-13T07:34:23</time>
      </trkpt>
      <trkpt lat="41.72118555754423" lon="44.77187451906502">
        <ele>431.20000000000005</ele>
        <time>2025-07-13T07:34:26</time>
      </trkpt>
      <trkpt lat="41.72117616981268" lon="44.77179338224232">
        <ele>431.4</ele>
        <time>2025-07-13T07:34:27</time>
      </trkpt>
      <trkpt lat="41.72114096581936" lon="44.77129574865103">
        <ele>431.4</ele>
        <time>2025-07-13T07:34:33</time>
      </trkpt>
      <trkpt lat="41.72107449732721" lon="44.77093239314854">
        <ele>431.4</ele>
        <time>2025-07-13T07:34:38</time>
      </trkpt>
      <trkpt lat="41.72106594778597" lon="44.770857375115156">
        <ele>431.4</ele>
        <time>2025-07-13T07:34:39</time>
      </trkpt>
      <trkpt lat="41.7210525367409" lon="44.77078512310982">
        <ele>431.4</ele>
        <time>2025-07-13T07:34:40</time>
      </trkpt>
      <trkpt lat="41.72102521173656" lon="44.77062301710248">
        <ele>431.4</ele>
        <time>2025-07-13T07:34:42</time>
      </trkpt>
      <trkpt lat="41.72099788673222" lon="44.77046895772219">
        <ele>431.6</ele>
        <time>2025-07-13T07:34:44</time>
      </trkpt>
      <trkpt lat="41.720987409353256" lon="44.77039125747979">
        <ele>431.6</ele>
        <time>2025-07-13T07:34:45</time>
      </trkpt>
      <trkpt lat="41.72094742767513" lon="44.77006545290351">
        <ele>431.6</ele>
        <time>2025-07-13T07:34:49</time>
      </trkpt>
      <trkpt lat="41.720918426290154" lon="44.769650464877486">
        <ele>431.79999999999995</ele>
        <time>2025-07-13T07:34:54</time>
      </trkpt>
      <trkpt lat="41.72091037966311" lon="44.7695701662451">
        <ele>431.79999999999995</ele>
        <time>2025-07-13T07:34:55</time>
      </trkpt>
      <trkpt lat="41.72090048901737" lon="44.76939766667783">
        <ele>431.6</ele>
        <time>2025-07-13T07:34:57</time>
      </trkpt>
      <trkpt lat="41.720901327207685" lon="44.76924201473594">
        <ele>431.79999999999995</ele>
        <time>2025-07-13T07:34:59</time>
      </trkpt>
      <trkpt lat="41.720860255882144" lon="44.76875687018037">
        <ele>431.79999999999995</ele>
        <time>2025-07-13T07:35:05</time>
      </trkpt>
      <trkpt lat="41.72085581347346" lon="44.768681433051825">
        <ele>431.79999999999995</ele>
        <time>2025-07-13T07:35:06</time>
      </trkpt>
      <trkpt lat="41.72084055840969" lon="44.76827952079475">
        <ele>432.0</ele>
        <time>2025-07-13T07:35:11</time>
      </trkpt>
      <trkpt lat="41.720758667215705" lon="44.76782061159611">
        <ele>432.20000000000005</ele>
        <time>2025-07-13T07:35:17</time>
      </trkpt>
      <trkpt lat="41.720651127398014" lon="44.767278637737036">
        <ele>432.20000000000005</ele>
        <time>2025-07-13T07:35:24</time>
      </trkpt>
      <trkpt lat="41.720599830150604" lon="44.7670385800302">
        <ele>432.4</ele>
        <time>2025-07-13T07:35:27</time>
      </trkpt>
      <trkpt lat="41.7205379717052" lon="44.76679600775242">
        <ele>432.6</ele>
        <time>2025-07-13T07:35:30</time>
      </trkpt>
      <trkpt lat="41.720456667244434" lon="44.76630440913141">
        <ele>432.79999999999995</ele>
        <time>2025-07-13T07:35:36</time>
      </trkpt>
      <trkpt lat="41.720406375825405" lon="44.76587584242225">
        <ele>433.20000000000005</ele>
        <time>2025-07-13T07:35:42</time>
      </trkpt>
      <trkpt lat="41.72033462673426" lon="44.76532766595483">
        <ele>433.6</ele>
        <time>2025-07-13T07:35:49</time>
      </trkpt>
      <trkpt lat="41.72029028646648" lon="44.764876468107104">
        <ele>434.20000000000005</ele>
        <time>2025-07-13T07:35:55</time>
      </trkpt>
      <trkpt lat="41.7202805634588" lon="44.764723582193255">
        <ele>434.4</ele>
        <time>2025-07-13T07:35:57</time>
      </trkpt>
      <trkpt lat="41.72026212327182" lon="44.76443306542933">
        <ele>434.79999999999995</ele>
        <time>2025-07-13T07:36:01</time>
      </trkpt>
      <trkpt lat="41.72024636529386" lon="44.7642897348851">
        <ele>435.20000000000005</ele>
        <time>2025-07-13T07:36:03</time>
      </trkpt>
      <trkpt lat="41.720240749418736" lon="44.76421899162233">
        <ele>435.4</ele>
        <time>2025-07-13T07:36:04</time>
      </trkpt>
      <trkpt lat="41.720199678093195" lon="44.763812301680446">
        <ele>436.0</ele>
        <time>2025-07-13T07:36:10</time>
      </trkpt>
      <trkpt lat="41.72019992955029" lon="44.763748263940215">
        <ele>436.20000000000005</ele>
        <time>2025-07-13T07:36:11</time>
      </trkpt>
      <trkpt lat="41.7201907094568" lon="44.76356000639498">
        <ele>436.4</ele>
        <time>2025-07-13T07:36:14</time>
      </trkpt>
      <trkpt lat="41.72017788514495" lon="44.763441402465105">
        <ele>436.79999999999995</ele>
        <time>2025-07-13T07:36:16</time>
      </trkpt>
      <trkpt lat="41.72014242969453" lon="44.76320427842438">
        <ele>437.0</ele>
        <time>2025-07-13T07:36:20</time>
      </trkpt>
      <trkpt lat="41.720125162974" lon="44.76307578384876">
        <ele>437.4</ele>
        <time>2025-07-13T07:36:22</time>
      </trkpt>
      <trkpt lat="41.72012214548886" lon="44.76295684464276">
        <ele>437.6</ele>
        <time>2025-07-13T07:36:24</time>
      </trkpt>
      <trkpt lat="41.72011795453727" lon="44.762776885181665">
        <ele>438.0</ele>
        <time>2025-07-13T07:36:27</time>
      </trkpt>
      <trkpt lat="41.72010529786348" lon="44.76265643723309">
        <ele>438.0</ele>
        <time>2025-07-13T07:36:29</time>
      </trkpt>
      <trkpt lat="41.72007906250656" lon="44.762462647631764">
        <ele>438.4</ele>
        <time>2025-07-13T07:36:32</time>
      </trkpt>
      <trkpt lat="41.72005517408252" lon="44.762186044827104">
        <ele>439.0</ele>
        <time>2025-07-13T07:36:36</time>
      </trkpt>
      <trkpt lat="41.72003438696265" lon="44.76204514503479">
        <ele>439.20000000000005</ele>
        <time>2025-07-13T07:36:38</time>
      </trkpt>
      <trkpt lat="41.71998845413327" lon="44.7619547881186">
        <ele>439.20000000000005</ele>
        <time>2025-07-13T07:36:39</time>
      </trkpt>
      <trkpt lat="41.71989013440907" lon="44.7617008164525">
        <ele>439.4</ele>
        <time>2025-07-13T07:36:42</time>
      </trkpt>
      <trkpt lat="41.71982165426016" lon="44.761234698817134">
        <ele>440.0</ele>
        <time>2025-07-13T07:36:48</time>
      </trkpt>
      <trkpt lat="41.719812182709575" lon="44.7611640393734">
        <ele>440.0</ele>
        <time>2025-07-13T07:36:49</time>
      </trkpt>
      <trkpt lat="41.71980606392026" lon="44.76109564304352">
        <ele>440.0</ele>
        <time>2025-07-13T07:36:50</time>
      </trkpt>
      <trkpt lat="41.719788210466504" lon="44.76096337661147">
        <ele>440.0</ele>
        <time>2025-07-13T07:36:52</time>
      </trkpt>
      <trkpt lat="41.71977220103145" lon="44.76077361032367">
        <ele>440.20000000000005</ele>
        <time>2025-07-13T07:36:55</time>
      </trkpt>
      <trkpt lat="41.719765830785036" lon="44.76061502471566">
        <ele>440.20000000000005</ele>
        <time>2025-07-13T07:36:58</time>
      </trkpt>
      <trkpt lat="41.71975719742477" lon="44.760578479617834">
        <ele>440.20000000000005</ele>
        <time>2025-07-13T07:36:59</time>
      </trkpt>
      <trkpt lat="41.71972023323178" lon="44.7605318762362">
        <ele>440.4</ele>
        <time>2025-07-13T07:37:03</time>
      </trkpt>
      <trkpt lat="41.719720819965005" lon="44.760553585365415">
        <ele>440.6</ele>
        <time>2025-07-13T07:37:08</time>
      </trkpt>
      <trkpt lat="41.719808243215084" lon="44.76054495200515">
        <ele>440.4</ele>
        <time>2025-07-13T07:37:15</time>
      </trkpt>
      <trkpt lat="41.71978753991425" lon="44.76051829755306">
        <ele>440.6</ele>
        <time>2025-07-13T07:37:25</time>
      </trkpt>
      <trkpt lat="41.71978351660073" lon="44.76051771081984">
        <ele>440.79999999999995</ele>
        <time>2025-07-13T07:37:27</time>
      </trkpt>
      <trkpt lat="41.71979575417936" lon="44.760518884286284">
        <ele>440.79999999999995</ele>
        <time>2025-07-13T07:37:35</time>
      </trkpt>
      <trkpt lat="41.71980313025415" lon="44.76050647906959">
        <ele>441.0</ele>
        <time>2025-07-13T07:37:44</time>
      </trkpt>
      <trkpt lat="41.719812266528606" lon="44.76048217155039">
        <ele>440.79999999999995</ele>
        <time>2025-07-13T07:37:54</time>
      </trkpt>
      <trkpt lat="41.71983397565782" lon="44.76044520735741">
        <ele>440.79999999999995</ele>
        <time>2025-07-13T07:38:07</time>
      </trkpt>
      <trkpt lat="41.71985392458737" lon="44.76044503971934">
        <ele>441.0</ele>
        <time>2025-07-13T07:38:19</time>
      </trkpt>
      <trkpt lat="41.71985752880573" lon="44.76046063005924">
        <ele>440.79999999999995</ele>
        <time>2025-07-13T07:38:34</time>
      </trkpt>
      <trkpt lat="41.719870353117585" lon="44.76043271832168">
        <ele>441.0</ele>
        <time>2025-07-13T07:38:46</time>
      </trkpt>
      <trkpt lat="41.71986901201308" lon="44.76043162867427">
        <ele>440.79999999999995</ele>
        <time>2025-07-13T07:38:59</time>
      </trkpt>
      <trkpt lat="41.71987387351692" lon="44.76042970083654">
        <ele>440.79999999999995</ele>
        <time>2025-07-13T07:39:13</time>
      </trkpt>
      <trkpt lat="41.71984948217869" lon="44.76043162867427">
        <ele>440.79999999999995</ele>
        <time>2025-07-13T07:39:28</time>
      </trkpt>
      <trkpt lat="41.71976708807051" lon="44.7603936586529">
        <ele>440.79999999999995</ele>
        <time>2025-07-13T07:39:47</time>
      </trkpt>
      <trkpt lat="41.71976700425148" lon="44.76038242690265">
        <ele>440.79999999999995</ele>
        <time>2025-07-13T07:40:00</time>
      </trkpt>
      <trkpt lat="41.71977245248854" lon="44.76038033142686">
        <ele>441.0</ele>
        <time>2025-07-13T07:40:03</time>
      </trkpt>
    </trkseg>
  </trk>
</gpx>