<?xml version="1.0" encoding="UTF-8"?>
<gpx xmlns="http://www.topografix.com/GPX/1/1" xmlns:xsi="http://www.w3.org/2001/XMLSchema-instance" xsi:schemaLocation="http://www.topografix.com/GPX/1/1 http://www.topografix.com/GPX/1/1/gpx.xsd" version="1.1" creator="gpx.py -- https://github.com/tkrajina/gpxpy">
  <trk>
    <trkseg>
      <trkpt lat="42.43924233131111" lon="59.64076900854707">
        <ele>77.39999999999998</ele>
        <time>2025-07-17T12:36:49</time>
      </trkpt>
      <trkpt lat="42.4393757712096" lon="59.640569938346744">
        <ele>77.20000000000005</ele>
        <time>2025-07-17T12:36:54</time>
      </trkpt>
      <trkpt lat="42.43940410204232" lon="59.64052434079349">
        <ele>77.60000000000002</ele>
        <time>2025-07-17T12:36:55</time>
      </trkpt>
      <trkpt lat="42.43971842341125" lon="59.64005880989134">
        <ele>77.60000000000002</ele>
        <time>2025-07-17T12:37:05</time>
      </trkpt>
      <trkpt lat="42.44002679362893" lon="59.639603337273">
        <ele>77.39999999999998</ele>
        <time>2025-07-17T12:37:14</time>
      </trkpt>
      <trkpt lat="42.44038654491305" lon="59.639063039794564">
        <ele>77.39999999999998</ele>
        <time>2025-07-17T12:37:24</time>
      </trkpt>
      <trkpt lat="42.440703799948096" lon="59.63858493603766">
        <ele>77.39999999999998</ele>
        <time>2025-07-17T12:37:33</time>
      </trkpt>
      <trkpt lat="42.44091460481286" lon="59.63827765546739">
        <ele>77.39999999999998</ele>
        <time>2025-07-17T12:37:40</time>
      </trkpt>
      <trkpt lat="42.44099230505526" lon="59.638173216953874">
        <ele>77.39999999999998</ele>
        <time>2025-07-17T12:37:45</time>
      </trkpt>
      <trkpt lat="42.441122056916356" lon="59.63798780925572">
        <ele>77.39999999999998</ele>
        <time>2025-07-17T12:37:51</time>
      </trkpt>
      <trkpt lat="42.44131836108863" lon="59.63768010959029">
        <ele>77.39999999999998</ele>
        <time>2025-07-17T12:37:58</time>
      </trkpt>
      <trkpt lat="42.44157115928829" lon="59.6373048517853">
        <ele>77.60000000000002</ele>
        <time>2025-07-17T12:38:06</time>
      </trkpt>
      <trkpt lat="42.44181917980313" lon="59.636932611465454">
        <ele>77.60000000000002</ele>
        <time>2025-07-17T12:38:13</time>
      </trkpt>
      <trkpt lat="42.442118832841516" lon="59.6364829223603">
        <ele>77.60000000000002</ele>
        <time>2025-07-17T12:38:22</time>
      </trkpt>
      <trkpt lat="42.44221933186054" lon="59.63633330538869">
        <ele>77.60000000000002</ele>
        <time>2025-07-17T12:38:27</time>
      </trkpt>
      <trkpt lat="42.44227205403149" lon="59.636247558519244">
        <ele>77.60000000000002</ele>
        <time>2025-07-17T12:38:33</time>
      </trkpt>
      <trkpt lat="42.442306503653526" lon="59.63619466871023">
        <ele>77.60000000000002</ele>
        <time>2025-07-17T12:38:39</time>
      </trkpt>
      <trkpt lat="42.44247321970761" lon="59.63595746085048">
        <ele>77.60000000000002</ele>
        <time>2025-07-17T12:38:46</time>
      </trkpt>
      <trkpt lat="42.442721324041486" lon="59.63559125550091">
        <ele>77.60000000000002</ele>
        <time>2025-07-17T12:38:54</time>
      </trkpt>
      <trkpt lat="42.44308752939105" lon="59.63505456224084">
        <ele>77.60000000000002</ele>
        <time>2025-07-17T12:39:04</time>
      </trkpt>
      <trkpt lat="42.44312457740307" lon="59.634998235851526">
        <ele>77.60000000000002</ele>
        <time>2025-07-17T12:39:05</time>
      </trkpt>
      <trkpt lat="42.44347108528018" lon="59.63448643684387">
        <ele>77.79999999999995</ele>
        <time>2025-07-17T12:39:14</time>
      </trkpt>
      <trkpt lat="42.44371843524277" lon="59.634137246757746">
        <ele>77.79999999999995</ele>
        <time>2025-07-17T12:39:21</time>
      </trkpt>
      <trkpt lat="42.444014735519886" lon="59.633730724453926">
        <ele>77.60000000000002</ele>
        <time>2025-07-17T12:39:29</time>
      </trkpt>
      <trkpt lat="42.444290248677135" lon="59.63330467231572">
        <ele>77.60000000000002</ele>
        <time>2025-07-17T12:39:37</time>
      </trkpt>
      <trkpt lat="42.44456090033054" lon="59.632930336520076">
        <ele>77.39999999999998</ele>
        <time>2025-07-17T12:39:44</time>
      </trkpt>
      <trkpt lat="42.44464069604874" lon="59.63279530405998">
        <ele>77.39999999999998</ele>
        <time>2025-07-17T12:39:47</time>
      </trkpt>
      <trkpt lat="42.44468436576426" lon="59.6327097248286">
        <ele>77.39999999999998</ele>
        <time>2025-07-17T12:39:49</time>
      </trkpt>
      <trkpt lat="42.44472334161401" lon="59.632659601047635">
        <ele>77.39999999999998</ele>
        <time>2025-07-17T12:39:51</time>
      </trkpt>
      <trkpt lat="42.44478897191584" lon="59.632582906633615">
        <ele>77.39999999999998</ele>
        <time>2025-07-17T12:39:54</time>
      </trkpt>
      <trkpt lat="42.4449516646564" lon="59.63234469294548">
        <ele>77.39999999999998</ele>
        <time>2025-07-17T12:40:01</time>
      </trkpt>
      <trkpt lat="42.445127768442035" lon="59.63208711706102">
        <ele>77.39999999999998</ele>
        <time>2025-07-17T12:40:07</time>
      </trkpt>
      <trkpt lat="42.44515693746507" lon="59.632040932774544">
        <ele>77.39999999999998</ele>
        <time>2025-07-17T12:40:08</time>
      </trkpt>
      <trkpt lat="42.44537377730012" lon="59.63170959614217">
        <ele>77.39999999999998</ele>
        <time>2025-07-17T12:40:15</time>
      </trkpt>
      <trkpt lat="42.445517694577575" lon="59.63148672133684">
        <ele>77.39999999999998</ele>
        <time>2025-07-17T12:40:20</time>
      </trkpt>
      <trkpt lat="42.44558935984969" lon="59.631378343328834">
        <ele>77.39999999999998</ele>
        <time>2025-07-17T12:40:23</time>
      </trkpt>
      <trkpt lat="42.4456544034183" lon="59.63129444047809">
        <ele>77.20000000000005</ele>
        <time>2025-07-17T12:40:28</time>
      </trkpt>
      <trkpt lat="42.44565390050411" lon="59.63129226118326">
        <ele>77.0</ele>
        <time>2025-07-17T12:40:30</time>
      </trkpt>
      <trkpt lat="42.44565373286605" lon="59.631290920078754">
        <ele>77.0</ele>
        <time>2025-07-17T12:40:35</time>
      </trkpt>
      <trkpt lat="42.44568005204201" lon="59.63125177659094">
        <ele>77.0</ele>
        <time>2025-07-17T12:40:41</time>
      </trkpt>
      <trkpt lat="42.44577317498624" lon="59.631114983931184">
        <ele>77.0</ele>
        <time>2025-07-17T12:40:46</time>
      </trkpt>
      <trkpt lat="42.445860682055354" lon="59.63099956512451">
        <ele>77.20000000000005</ele>
        <time>2025-07-17T12:40:51</time>
      </trkpt>
      <trkpt lat="42.44588239118457" lon="59.630994871258736">
        <ele>77.20000000000005</ele>
        <time>2025-07-17T12:40:52</time>
      </trkpt>
      <trkpt lat="42.445947686210275" lon="59.63103569112718">
        <ele>77.20000000000005</ele>
        <time>2025-07-17T12:40:54</time>
      </trkpt>
      <trkpt lat="42.446015160530806" lon="59.63111137971282">
        <ele>77.20000000000005</ele>
        <time>2025-07-17T12:40:56</time>
      </trkpt>
      <trkpt lat="42.44612001813948" lon="59.631246495991945">
        <ele>77.20000000000005</ele>
        <time>2025-07-17T12:40:59</time>
      </trkpt>
      <trkpt lat="42.4464937672019" lon="59.6317099314183">
        <ele>77.0</ele>
        <time>2025-07-17T12:41:09</time>
      </trkpt>
      <trkpt lat="42.44677355512977" lon="59.63205333799124">
        <ele>77.0</ele>
        <time>2025-07-17T12:41:16</time>
      </trkpt>
      <trkpt lat="42.447195164859295" lon="59.63256781920791">
        <ele>77.20000000000005</ele>
        <time>2025-07-17T12:41:26</time>
      </trkpt>
      <trkpt lat="42.447238666936755" lon="59.63261635042727">
        <ele>77.20000000000005</ele>
        <time>2025-07-17T12:41:27</time>
      </trkpt>
      <trkpt lat="42.447614930570126" lon="59.633085150271654">
        <ele>77.20000000000005</ele>
        <time>2025-07-17T12:41:36</time>
      </trkpt>
      <trkpt lat="42.44800007902086" lon="59.633546406403184">
        <ele>77.20000000000005</ele>
        <time>2025-07-17T12:41:45</time>
      </trkpt>
      <trkpt lat="42.44842244312167" lon="59.634058624506">
        <ele>77.20000000000005</ele>
        <time>2025-07-17T12:41:55</time>
      </trkpt>
      <trkpt lat="42.4488612357527" lon="59.63459632359445">
        <ele>77.20000000000005</ele>
        <time>2025-07-17T12:42:05</time>
      </trkpt>
      <trkpt lat="42.44899266399443" lon="59.63475541211665">
        <ele>77.20000000000005</ele>
        <time>2025-07-17T12:42:08</time>
      </trkpt>
      <trkpt lat="42.44927538558841" lon="59.63509672321379">
        <ele>77.20000000000005</ele>
        <time>2025-07-17T12:42:15</time>
      </trkpt>
      <trkpt lat="42.44970487430692" lon="59.63557843118906">
        <ele>77.0</ele>
        <time>2025-07-17T12:42:25</time>
      </trkpt>
      <trkpt lat="42.44982180185616" lon="59.635727629065514">
        <ele>77.0</ele>
        <time>2025-07-17T12:42:28</time>
      </trkpt>
      <trkpt lat="42.44993403553963" lon="59.63588613085449">
        <ele>77.0</ele>
        <time>2025-07-17T12:42:31</time>
      </trkpt>
      <trkpt lat="42.45033301413059" lon="59.63629374280572">
        <ele>77.20000000000005</ele>
        <time>2025-07-17T12:42:40</time>
      </trkpt>
      <trkpt lat="42.45060173794627" lon="59.636571519076824">
        <ele>77.20000000000005</ele>
        <time>2025-07-17T12:42:47</time>
      </trkpt>
      <trkpt lat="42.450875574722886" lon="59.63690520264208">
        <ele>77.20000000000005</ele>
        <time>2025-07-17T12:42:55</time>
      </trkpt>
      <trkpt lat="42.45106190443039" lon="59.63708725757897">
        <ele>77.39999999999998</ele>
        <time>2025-07-17T12:43:01</time>
      </trkpt>
      <trkpt lat="42.45122694410384" lon="59.637027410790324">
        <ele>77.60000000000002</ele>
        <time>2025-07-17T12:43:05</time>
      </trkpt>
      <trkpt lat="42.45130221359432" lon="59.636949710547924">
        <ele>77.60000000000002</ele>
        <time>2025-07-17T12:43:07</time>
      </trkpt>
      <trkpt lat="42.451443783938885" lon="59.63676145300269">
        <ele>77.39999999999998</ele>
        <time>2025-07-17T12:43:11</time>
      </trkpt>
      <trkpt lat="42.45178802870214" lon="59.636254431679845">
        <ele>77.39999999999998</ele>
        <time>2025-07-17T12:43:21</time>
      </trkpt>
      <trkpt lat="42.45210411027074" lon="59.63578303344548">
        <ele>77.39999999999998</ele>
        <time>2025-07-17T12:43:30</time>
      </trkpt>
      <trkpt lat="42.452431255951524" lon="59.6353002358228">
        <ele>77.39999999999998</ele>
        <time>2025-07-17T12:43:39</time>
      </trkpt>
      <trkpt lat="42.45277944020927" lon="59.6348062902689">
        <ele>77.20000000000005</ele>
        <time>2025-07-17T12:43:48</time>
      </trkpt>
      <trkpt lat="42.45316391810775" lon="59.63426196947694">
        <ele>77.0</ele>
        <time>2025-07-17T12:43:58</time>
      </trkpt>
      <trkpt lat="42.45333834551275" lon="59.63401839137077">
        <ele>77.0</ele>
        <time>2025-07-17T12:44:04</time>
      </trkpt>
      <trkpt lat="42.45344454422593" lon="59.63385226204991">
        <ele>77.0</ele>
        <time>2025-07-17T12:44:11</time>
      </trkpt>
      <trkpt lat="42.453539008274674" lon="59.633698957040906">
        <ele>76.79999999999995</ele>
        <time>2025-07-17T12:44:19</time>
      </trkpt>
      <trkpt lat="42.453565914183855" lon="59.63362502865493">
        <ele>76.79999999999995</ele>
        <time>2025-07-17T12:44:26</time>
      </trkpt>
      <trkpt lat="42.45360665023327" lon="59.63361555710435">
        <ele>76.79999999999995</ele>
        <time>2025-07-17T12:44:34</time>
      </trkpt>
      <trkpt lat="42.453618133440614" lon="59.63360030204058">
        <ele>76.79999999999995</ele>
        <time>2025-07-17T12:44:42</time>
      </trkpt>
      <trkpt lat="42.45361587032676" lon="59.633601140230894">
        <ele>77.0</ele>
        <time>2025-07-17T12:44:59</time>
      </trkpt>
      <trkpt lat="42.453612266108394" lon="59.63360206224024">
        <ele>77.0</ele>
        <time>2025-07-17T12:45:10</time>
      </trkpt>
      <trkpt lat="42.453610422089696" lon="59.6336024813354">
        <ele>76.79999999999995</ele>
        <time>2025-07-17T12:45:20</time>
      </trkpt>
      <trkpt lat="42.4536101706326" lon="59.633601643145084">
        <ele>76.79999999999995</ele>
        <time>2025-07-17T12:45:29</time>
      </trkpt>
      <trkpt lat="42.45360539294779" lon="59.63359761983156">
        <ele>76.60000000000002</ele>
        <time>2025-07-17T12:45:40</time>
      </trkpt>
      <trkpt lat="42.45360614731908" lon="59.633595775812864">
        <ele>76.79999999999995</ele>
        <time>2025-07-17T12:45:53</time>
      </trkpt>
      <trkpt lat="42.45361117646098" lon="59.63359393179417">
        <ele>76.79999999999995</ele>
        <time>2025-07-17T12:46:01</time>
      </trkpt>
      <trkpt lat="42.45361561886966" lon="59.6335903275758">
        <ele>76.79999999999995</ele>
        <time>2025-07-17T12:46:13</time>
      </trkpt>
      <trkpt lat="42.45362089946866" lon="59.633584544062614">
        <ele>76.79999999999995</ele>
        <time>2025-07-17T12:46:22</time>
      </trkpt>
      <trkpt lat="42.45361193083227" lon="59.63358630426228">
        <ele>76.79999999999995</ele>
        <time>2025-07-17T12:46:32</time>
      </trkpt>
      <trkpt lat="42.45361142791808" lon="59.63358923792839">
        <ele>76.79999999999995</ele>
        <time>2025-07-17T12:46:42</time>
      </trkpt>
      <trkpt lat="42.45360606350005" lon="59.63358974084258">
        <ele>76.79999999999995</ele>
        <time>2025-07-17T12:46:51</time>
      </trkpt>
      <trkpt lat="42.4536048900336" lon="59.633588986471295">
        <ele>76.79999999999995</ele>
        <time>2025-07-17T12:47:01</time>
      </trkpt>
      <trkpt lat="42.45359952561557" lon="59.633556716144085">
        <ele>76.79999999999995</ele>
        <time>2025-07-17T12:47:11</time>
      </trkpt>
      <trkpt lat="42.45352266356349" lon="59.63347842916846">
        <ele>76.79999999999995</ele>
        <time>2025-07-17T12:47:15</time>
      </trkpt>
      <trkpt lat="42.45340875349939" lon="59.6333659440279">
        <ele>76.79999999999995</ele>
        <time>2025-07-17T12:47:19</time>
      </trkpt>
      <trkpt lat="42.45337941683829" lon="59.633331410586834">
        <ele>76.79999999999995</ele>
        <time>2025-07-17T12:47:20</time>
      </trkpt>
      <trkpt lat="42.45317665860057" lon="59.633086659014225">
        <ele>76.60000000000002</ele>
        <time>2025-07-17T12:47:27</time>
      </trkpt>
      <trkpt lat="42.45306962169707" lon="59.63295003399253">
        <ele>76.60000000000002</ele>
        <time>2025-07-17T12:47:31</time>
      </trkpt>
      <trkpt lat="42.45299141854048" lon="59.63285280391574">
        <ele>76.60000000000002</ele>
        <time>2025-07-17T12:47:34</time>
      </trkpt>
      <trkpt lat="42.45294330641627" lon="59.63278935290873">
        <ele>76.60000000000002</ele>
        <time>2025-07-17T12:47:36</time>
      </trkpt>
      <trkpt lat="42.45288505218923" lon="59.63273495435715">
        <ele>76.39999999999998</ele>
        <time>2025-07-17T12:47:40</time>
      </trkpt>
      <trkpt lat="42.4528780952096" lon="59.632741240784526">
        <ele>76.20000000000005</ele>
        <time>2025-07-17T12:47:48</time>
      </trkpt>
      <trkpt lat="42.452875999733806" lon="59.6327528078109">
        <ele>76.0</ele>
        <time>2025-07-17T12:47:49</time>
      </trkpt>
      <trkpt lat="42.452855883166194" lon="59.63282212615013">
        <ele>76.0</ele>
        <time>2025-07-17T12:47:54</time>
      </trkpt>
      <trkpt lat="42.45281355455518" lon="59.6328738424927">
        <ele>76.20000000000005</ele>
        <time>2025-07-17T12:48:03</time>
      </trkpt>
      <trkpt lat="42.452805591747165" lon="59.63288666680455">
        <ele>76.39999999999998</ele>
        <time>2025-07-17T12:48:13</time>
      </trkpt>
      <trkpt lat="42.45279997587204" lon="59.632889768108726">
        <ele>76.39999999999998</ele>
        <time>2025-07-17T12:48:24</time>
      </trkpt>
      <trkpt lat="42.452781619504094" lon="59.63290351442993">
        <ele>76.39999999999998</ele>
        <time>2025-07-17T12:48:36</time>
      </trkpt>
      <trkpt lat="42.452714229002595" lon="59.63285431265831">
        <ele>76.39999999999998</ele>
        <time>2025-07-17T12:48:47</time>
      </trkpt>
      <trkpt lat="42.4527155701071" lon="59.632853139191866">
        <ele>76.39999999999998</ele>
        <time>2025-07-17T12:48:50</time>
      </trkpt>
    </trkseg>
  </trk>
</gpx>