<?xml version="1.0" encoding="UTF-8"?>
<gpx xmlns="http://www.topografix.com/GPX/1/1" xmlns:xsi="http://www.w3.org/2001/XMLSchema-instance" xsi:schemaLocation="http://www.topografix.com/GPX/1/1 http://www.topografix.com/GPX/1/1/gpx.xsd" version="1.1" creator="gpx.py -- https://github.com/tkrajina/gpxpy">
  <trk>
    <trkseg>
      <trkpt lat="41.75995621830225" lon="82.89990741759539">
        <ele>1083.4</ele>
        <time>2025-09-05T10:03:59</time>
      </trkpt>
      <trkpt lat="41.75942991860211" lon="82.90011780336499">
        <ele>1083.4</ele>
        <time>2025-09-05T10:04:08</time>
      </trkpt>
      <trkpt lat="41.75911132246256" lon="82.90024009533226">
        <ele>1082.2</ele>
        <time>2025-09-05T10:04:14</time>
      </trkpt>
      <trkpt lat="41.75894225947559" lon="82.90029114112258">
        <ele>1082.8</ele>
        <time>2025-09-05T10:04:17</time>
      </trkpt>
      <trkpt lat="41.7584789916873" lon="82.90044310502708">
        <ele>1082.6</ele>
        <time>2025-09-05T10:04:25</time>
      </trkpt>
      <trkpt lat="41.757933581247926" lon="82.90061711333692">
        <ele>1082.2</ele>
        <time>2025-09-05T10:04:35</time>
      </trkpt>
      <trkpt lat="41.75788094289601" lon="82.90063329041004">
        <ele>1082.2</ele>
        <time>2025-09-05T10:04:36</time>
      </trkpt>
      <trkpt lat="41.757450783625245" lon="82.9007703345269">
        <ele>1082.4</ele>
        <time>2025-09-05T10:04:45</time>
      </trkpt>
      <trkpt lat="41.75705566070974" lon="82.90089673362672">
        <ele>1083.0</ele>
        <time>2025-09-05T10:04:54</time>
      </trkpt>
      <trkpt lat="41.756614185869694" lon="82.90103813633323">
        <ele>1082.2</ele>
        <time>2025-09-05T10:05:04</time>
      </trkpt>
      <trkpt lat="41.75616784952581" lon="82.90118381381035">
        <ele>1081.6</ele>
        <time>2025-09-05T10:05:14</time>
      </trkpt>
      <trkpt lat="41.75572335720062" lon="82.90134843438864">
        <ele>1081.4</ele>
        <time>2025-09-05T10:05:24</time>
      </trkpt>
      <trkpt lat="41.75563543103635" lon="82.90138774551451">
        <ele>1081.2</ele>
        <time>2025-09-05T10:05:26</time>
      </trkpt>
      <trkpt lat="41.75532194785774" lon="82.90151691064239">
        <ele>1080.6</ele>
        <time>2025-09-05T10:05:33</time>
      </trkpt>
      <trkpt lat="41.75493084825575" lon="82.90167968720198">
        <ele>1080.2</ele>
        <time>2025-09-05T10:05:41</time>
      </trkpt>
      <trkpt lat="41.75488147884607" lon="82.90169896557927">
        <ele>1080.0</ele>
        <time>2025-09-05T10:05:42</time>
      </trkpt>
      <trkpt lat="41.75441385246813" lon="82.90188646875322">
        <ele>1079.8</ele>
        <time>2025-09-05T10:05:51</time>
      </trkpt>
      <trkpt lat="41.7541463021189" lon="82.90199317038059">
        <ele>1079.4</ele>
        <time>2025-09-05T10:05:56</time>
      </trkpt>
      <trkpt lat="41.753875901922584" lon="82.90210372768342">
        <ele>1078.8</ele>
        <time>2025-09-05T10:06:01</time>
      </trkpt>
      <trkpt lat="41.75358613952994" lon="82.90221923030913">
        <ele>1078.2</ele>
        <time>2025-09-05T10:06:06</time>
      </trkpt>
      <trkpt lat="41.75334859639406" lon="82.90230732411146">
        <ele>1077.8</ele>
        <time>2025-09-05T10:06:10</time>
      </trkpt>
      <trkpt lat="41.75317349843681" lon="82.90236918255687">
        <ele>1077.2</ele>
        <time>2025-09-05T10:06:13</time>
      </trkpt>
      <trkpt lat="41.752889938652515" lon="82.90246850810945">
        <ele>1076.0</ele>
        <time>2025-09-05T10:06:18</time>
      </trkpt>
      <trkpt lat="41.75283403135836" lon="82.9024903010577">
        <ele>1075.8</ele>
        <time>2025-09-05T10:06:19</time>
      </trkpt>
      <trkpt lat="41.75243899226189" lon="82.90268735960126">
        <ele>1075.2</ele>
        <time>2025-09-05T10:06:26</time>
      </trkpt>
      <trkpt lat="41.752263056114316" lon="82.9027699213475">
        <ele>1075.0</ele>
        <time>2025-09-05T10:06:29</time>
      </trkpt>
      <trkpt lat="41.75190204754472" lon="82.9029187001288">
        <ele>1073.8</ele>
        <time>2025-09-05T10:06:35</time>
      </trkpt>
      <trkpt lat="41.751600466668606" lon="82.90303646586835">
        <ele>1072.8</ele>
        <time>2025-09-05T10:06:40</time>
      </trkpt>
      <trkpt lat="41.751310704275966" lon="82.90315372869372">
        <ele>1072.0</ele>
        <time>2025-09-05T10:06:45</time>
      </trkpt>
      <trkpt lat="41.75119369290769" lon="82.90319865569472">
        <ele>1071.6</ele>
        <time>2025-09-05T10:06:47</time>
      </trkpt>
      <trkpt lat="41.750898230820894" lon="82.9033101350069">
        <ele>1070.4</ele>
        <time>2025-09-05T10:06:52</time>
      </trkpt>
      <trkpt lat="41.750660352408886" lon="82.90339554660022">
        <ele>1069.8</ele>
        <time>2025-09-05T10:06:56</time>
      </trkpt>
      <trkpt lat="41.75037746317685" lon="82.90349202230573">
        <ele>1069.2</ele>
        <time>2025-09-05T10:07:01</time>
      </trkpt>
      <trkpt lat="41.750107649713755" lon="82.90358405560255">
        <ele>1068.6</ele>
        <time>2025-09-05T10:07:06</time>
      </trkpt>
      <trkpt lat="41.7499983496964" lon="82.90361766703427">
        <ele>1068.2</ele>
        <time>2025-09-05T10:07:08</time>
      </trkpt>
      <trkpt lat="41.74961730837822" lon="82.90372713468969">
        <ele>1067.2</ele>
        <time>2025-09-05T10:07:15</time>
      </trkpt>
      <trkpt lat="41.74956257455051" lon="82.90373920463026">
        <ele>1067.0</ele>
        <time>2025-09-05T10:07:16</time>
      </trkpt>
      <trkpt lat="41.749347830191255" lon="82.90376510471106">
        <ele>1066.0</ele>
        <time>2025-09-05T10:07:20</time>
      </trkpt>
      <trkpt lat="41.74929418601096" lon="82.90377457626164">
        <ele>1065.8</ele>
        <time>2025-09-05T10:07:21</time>
      </trkpt>
      <trkpt lat="41.748911468312144" lon="82.90386065840721">
        <ele>1065.0</ele>
        <time>2025-09-05T10:07:28</time>
      </trkpt>
      <trkpt lat="41.74868834204972" lon="82.9039150569588">
        <ele>1064.6</ele>
        <time>2025-09-05T10:07:32</time>
      </trkpt>
      <trkpt lat="41.748212249949574" lon="82.90401756763458">
        <ele>1064.0</ele>
        <time>2025-09-05T10:07:41</time>
      </trkpt>
      <trkpt lat="41.74807671457529" lon="82.90404262952507">
        <ele>1063.8</ele>
        <time>2025-09-05T10:07:44</time>
      </trkpt>
      <trkpt lat="41.74785434268415" lon="82.90408336557448">
        <ele>1063.8</ele>
        <time>2025-09-05T10:07:49</time>
      </trkpt>
      <trkpt lat="41.74756818450987" lon="82.9041497502476">
        <ele>1063.8</ele>
        <time>2025-09-05T10:07:56</time>
      </trkpt>
      <trkpt lat="41.74723785370588" lon="82.90420766919851">
        <ele>1063.8</ele>
        <time>2025-09-05T10:08:04</time>
      </trkpt>
      <trkpt lat="41.74692210741341" lon="82.90424689650536">
        <ele>1063.6</ele>
        <time>2025-09-05T10:08:11</time>
      </trkpt>
      <trkpt lat="41.74638491123915" lon="82.90432333946228">
        <ele>1063.6</ele>
        <time>2025-09-05T10:08:22</time>
      </trkpt>
      <trkpt lat="41.74586238339543" lon="82.90440648794174">
        <ele>1064.0</ele>
        <time>2025-09-05T10:08:32</time>
      </trkpt>
      <trkpt lat="41.74539760686457" lon="82.90447069332004">
        <ele>1063.8</ele>
        <time>2025-09-05T10:08:41</time>
      </trkpt>
      <trkpt lat="41.74483166076243" lon="82.90455032140017">
        <ele>1063.6</ele>
        <time>2025-09-05T10:08:52</time>
      </trkpt>
      <trkpt lat="41.74427116289735" lon="82.90462617762387">
        <ele>1063.4</ele>
        <time>2025-09-05T10:09:03</time>
      </trkpt>
      <trkpt lat="41.74391015432775" lon="82.90467370301485">
        <ele>1063.0</ele>
        <time>2025-09-05T10:09:10</time>
      </trkpt>
      <trkpt lat="41.743706138804555" lon="82.90470563806593">
        <ele>1063.0</ele>
        <time>2025-09-05T10:09:14</time>
      </trkpt>
      <trkpt lat="41.74323868006468" lon="82.90477965027094">
        <ele>1062.8</ele>
        <time>2025-09-05T10:09:23</time>
      </trkpt>
      <trkpt lat="41.74270659685135" lon="82.90485173463821">
        <ele>1062.4</ele>
        <time>2025-09-05T10:09:33</time>
      </trkpt>
      <trkpt lat="41.7421548999846" lon="82.90493287146091">
        <ele>1062.4</ele>
        <time>2025-09-05T10:09:43</time>
      </trkpt>
      <trkpt lat="41.74167947843671" lon="82.90500453673303">
        <ele>1062.0</ele>
        <time>2025-09-05T10:09:52</time>
      </trkpt>
      <trkpt lat="41.74162784591317" lon="82.90501283481717">
        <ele>1061.8</ele>
        <time>2025-09-05T10:09:53</time>
      </trkpt>
      <trkpt lat="41.74110498279333" lon="82.90509019978344">
        <ele>1061.0</ele>
        <time>2025-09-05T10:10:03</time>
      </trkpt>
      <trkpt lat="41.74105251207948" lon="82.90509791113436">
        <ele>1061.0</ele>
        <time>2025-09-05T10:10:04</time>
      </trkpt>
      <trkpt lat="41.74053903669119" lon="82.90517100133002">
        <ele>1060.6</ele>
        <time>2025-09-05T10:10:14</time>
      </trkpt>
      <trkpt lat="41.73997183330357" lon="82.90525347925723">
        <ele>1060.2</ele>
        <time>2025-09-05T10:10:25</time>
      </trkpt>
      <trkpt lat="41.739920284599066" lon="82.90526135824621">
        <ele>1060.2</ele>
        <time>2025-09-05T10:10:26</time>
      </trkpt>
      <trkpt lat="41.73981727100909" lon="82.90527678094804">
        <ele>1060.0</ele>
        <time>2025-09-05T10:10:28</time>
      </trkpt>
      <trkpt lat="41.73925400711596" lon="82.90535682812333">
        <ele>1059.8</ele>
        <time>2025-09-05T10:10:39</time>
      </trkpt>
      <trkpt lat="41.73871396109462" lon="82.90543712675571">
        <ele>1059.6</ele>
        <time>2025-09-05T10:10:49</time>
      </trkpt>
      <trkpt lat="41.73822848126292" lon="82.90550803765655">
        <ele>1059.2</ele>
        <time>2025-09-05T10:10:58</time>
      </trkpt>
      <trkpt lat="41.73817508853972" lon="82.9055155813694">
        <ele>1059.2</ele>
        <time>2025-09-05T10:10:59</time>
      </trkpt>
      <trkpt lat="41.73763797618449" lon="82.90559588000178">
        <ele>1059.0</ele>
        <time>2025-09-05T10:11:09</time>
      </trkpt>
      <trkpt lat="41.73748500645161" lon="82.90561197325587">
        <ele>1058.8</ele>
        <time>2025-09-05T10:11:12</time>
      </trkpt>
      <trkpt lat="41.73707915470004" lon="82.90566469542682">
        <ele>1058.8</ele>
        <time>2025-09-05T10:11:20</time>
      </trkpt>
      <trkpt lat="41.73652930185199" lon="82.90574423968792">
        <ele>1058.4</ele>
        <time>2025-09-05T10:11:31</time>
      </trkpt>
      <trkpt lat="41.736479848623276" lon="82.90575144812465">
        <ele>1058.4</ele>
        <time>2025-09-05T10:11:32</time>
      </trkpt>
      <trkpt lat="41.73602412454784" lon="82.90581230074167">
        <ele>1058.4</ele>
        <time>2025-09-05T10:11:41</time>
      </trkpt>
      <trkpt lat="41.73548474907875" lon="82.90589712560177">
        <ele>1058.4</ele>
        <time>2025-09-05T10:11:52</time>
      </trkpt>
      <trkpt lat="41.735104294493794" lon="82.90594766847789">
        <ele>1058.4</ele>
        <time>2025-09-05T10:12:00</time>
      </trkpt>
      <trkpt lat="41.734818471595645" lon="82.90599167346954">
        <ele>1058.2</ele>
        <time>2025-09-05T10:12:06</time>
      </trkpt>
      <trkpt lat="41.734721660614014" lon="82.90603484027088">
        <ele>1058.2</ele>
        <time>2025-09-05T10:12:08</time>
      </trkpt>
      <trkpt lat="41.734398705884814" lon="82.90613944642246">
        <ele>1058.2</ele>
        <time>2025-09-05T10:12:14</time>
      </trkpt>
      <trkpt lat="41.734343050047755" lon="82.90615017525852">
        <ele>1058.2</ele>
        <time>2025-09-05T10:12:15</time>
      </trkpt>
      <trkpt lat="41.73383602872491" lon="82.90622636675835">
        <ele>1058.2</ele>
        <time>2025-09-05T10:12:24</time>
      </trkpt>
      <trkpt lat="41.733569065108895" lon="82.90626266039908">
        <ele>1058.0</ele>
        <time>2025-09-05T10:12:30</time>
      </trkpt>
      <trkpt lat="41.733292043209076" lon="82.90628135204315">
        <ele>1057.6</ele>
        <time>2025-09-05T10:12:37</time>
      </trkpt>
      <trkpt lat="41.732931872829795" lon="82.90633005090058">
        <ele>1057.4</ele>
        <time>2025-09-05T10:12:44</time>
      </trkpt>
      <trkpt lat="41.73288191668689" lon="82.90634564124048">
        <ele>1057.4</ele>
        <time>2025-09-05T10:12:45</time>
      </trkpt>
      <trkpt lat="41.73274311237037" lon="82.90643700398505">
        <ele>1057.4</ele>
        <time>2025-09-05T10:12:48</time>
      </trkpt>
      <trkpt lat="41.732625849545" lon="82.90667429566383">
        <ele>1057.2</ele>
        <time>2025-09-05T10:12:52</time>
      </trkpt>
      <trkpt lat="41.73259735107422" lon="82.90682005695999">
        <ele>1057.2</ele>
        <time>2025-09-05T10:12:54</time>
      </trkpt>
      <trkpt lat="41.73258796334267" lon="82.90689641609788">
        <ele>1057.0</ele>
        <time>2025-09-05T10:12:55</time>
      </trkpt>
      <trkpt lat="41.73258134163916" lon="82.90704946964979">
        <ele>1057.2</ele>
        <time>2025-09-05T10:12:57</time>
      </trkpt>
      <trkpt lat="41.732588885352015" lon="82.90772370994091">
        <ele>1057.0</ele>
        <time>2025-09-05T10:13:06</time>
      </trkpt>
      <trkpt lat="41.73259433358908" lon="82.90835252031684">
        <ele>1057.2</ele>
        <time>2025-09-05T10:13:15</time>
      </trkpt>
      <trkpt lat="41.73260514624417" lon="82.90892567485571">
        <ele>1057.6</ele>
        <time>2025-09-05T10:13:24</time>
      </trkpt>
      <trkpt lat="41.73260849900544" lon="82.90928651578724">
        <ele>1058.0</ele>
        <time>2025-09-05T10:13:30</time>
      </trkpt>
      <trkpt lat="41.7326105106622" lon="82.90934761986136">
        <ele>1058.2</ele>
        <time>2025-09-05T10:13:31</time>
      </trkpt>
      <trkpt lat="41.732588885352015" lon="82.90963562205434">
        <ele>1058.2</ele>
        <time>2025-09-05T10:13:36</time>
      </trkpt>
      <trkpt lat="41.732584442943335" lon="82.90969580411911">
        <ele>1058.4</ele>
        <time>2025-09-05T10:13:37</time>
      </trkpt>
      <trkpt lat="41.73259399831295" lon="82.91010366752744">
        <ele>1058.6</ele>
        <time>2025-09-05T10:13:44</time>
      </trkpt>
      <trkpt lat="41.732589304447174" lon="82.91033676825464">
        <ele>1058.6</ele>
        <time>2025-09-05T10:13:48</time>
      </trkpt>
      <trkpt lat="41.73259089700878" lon="82.91044774465263">
        <ele>1058.6</ele>
        <time>2025-09-05T10:13:50</time>
      </trkpt>
      <trkpt lat="41.73259248957038" lon="82.9105562902987">
        <ele>1058.8</ele>
        <time>2025-09-05T10:13:52</time>
      </trkpt>
      <trkpt lat="41.73261143267155" lon="82.9107724595815">
        <ele>1058.8</ele>
        <time>2025-09-05T10:13:56</time>
      </trkpt>
      <trkpt lat="41.73261880874634" lon="82.91122902184725">
        <ele>1059.2</ele>
        <time>2025-09-05T10:14:04</time>
      </trkpt>
      <trkpt lat="41.73263029195368" lon="82.91157770901918">
        <ele>1059.4</ele>
        <time>2025-09-05T10:14:10</time>
      </trkpt>
      <trkpt lat="41.732630878686905" lon="82.91169849224389">
        <ele>1059.6</ele>
        <time>2025-09-05T10:14:12</time>
      </trkpt>
      <trkpt lat="41.73261696472764" lon="82.91193519718945">
        <ele>1059.8</ele>
        <time>2025-09-05T10:14:16</time>
      </trkpt>
      <trkpt lat="41.73262375406921" lon="82.91227164678276">
        <ele>1060.2</ele>
        <time>2025-09-05T10:14:22</time>
      </trkpt>
      <trkpt lat="41.73262677155435" lon="82.91260415688157">
        <ele>1060.6</ele>
        <time>2025-09-05T10:14:28</time>
      </trkpt>
      <trkpt lat="41.732631800696254" lon="82.9128756467253">
        <ele>1061.2</ele>
        <time>2025-09-05T10:14:33</time>
      </trkpt>
      <trkpt lat="41.73263213597238" lon="82.91293147020042">
        <ele>1061.2</ele>
        <time>2025-09-05T10:14:34</time>
      </trkpt>
      <trkpt lat="41.73264781013131" lon="82.91330044157803">
        <ele>1061.4</ele>
        <time>2025-09-05T10:14:41</time>
      </trkpt>
      <trkpt lat="41.73265443183482" lon="82.91366212069988">
        <ele>1061.8</ele>
        <time>2025-09-05T10:14:48</time>
      </trkpt>
      <trkpt lat="41.732662143185735" lon="82.91376454755664">
        <ele>1062.0</ele>
        <time>2025-09-05T10:14:50</time>
      </trkpt>
      <trkpt lat="41.73267354257405" lon="82.91403871960938">
        <ele>1062.4</ele>
        <time>2025-09-05T10:14:55</time>
      </trkpt>
      <trkpt lat="41.73267899081111" lon="82.9143778514117">
        <ele>1062.6</ele>
        <time>2025-09-05T10:15:01</time>
      </trkpt>
      <trkpt lat="41.73269265331328" lon="82.91476719081402">
        <ele>1062.6</ele>
        <time>2025-09-05T10:15:08</time>
      </trkpt>
      <trkpt lat="41.73269617371261" lon="82.91513180360198">
        <ele>1062.8</ele>
        <time>2025-09-05T10:15:15</time>
      </trkpt>
      <trkpt lat="41.73270639963448" lon="82.91550605557859">
        <ele>1063.0</ele>
        <time>2025-09-05T10:15:22</time>
      </trkpt>
      <trkpt lat="41.732713943347335" lon="82.91585541330278">
        <ele>1063.4</ele>
        <time>2025-09-05T10:15:29</time>
      </trkpt>
      <trkpt lat="41.732708076015115" lon="82.91612111963332">
        <ele>1063.6</ele>
        <time>2025-09-05T10:15:35</time>
      </trkpt>
      <trkpt lat="41.73270623199642" lon="82.91616872884333">
        <ele>1063.6</ele>
        <time>2025-09-05T10:15:36</time>
      </trkpt>
      <trkpt lat="41.73268351703882" lon="82.91631155647337">
        <ele>1063.6</ele>
        <time>2025-09-05T10:15:39</time>
      </trkpt>
      <trkpt lat="41.732640182599425" lon="82.91637391783297">
        <ele>1063.6</ele>
        <time>2025-09-05T10:15:41</time>
      </trkpt>
      <trkpt lat="41.73255326226354" lon="82.91639923118055">
        <ele>1063.6</ele>
        <time>2025-09-05T10:15:44</time>
      </trkpt>
      <trkpt lat="41.73248905688524" lon="82.9164120554924">
        <ele>1063.6</ele>
        <time>2025-09-05T10:15:46</time>
      </trkpt>
      <trkpt lat="41.73230700194836" lon="82.91644407436252">
        <ele>1064.0</ele>
        <time>2025-09-05T10:15:53</time>
      </trkpt>
      <trkpt lat="41.732142716646194" lon="82.91643527336419">
        <ele>1064.0</ele>
        <time>2025-09-05T10:15:59</time>
      </trkpt>
      <trkpt lat="41.731920931488276" lon="82.91643409989774">
        <ele>1064.0</ele>
        <time>2025-09-05T10:16:05</time>
      </trkpt>
      <trkpt lat="41.73171741887927" lon="82.9164088703692">
        <ele>1064.0</ele>
        <time>2025-09-05T10:16:10</time>
      </trkpt>
      <trkpt lat="41.731449449434876" lon="82.91637157090008">
        <ele>1063.8</ele>
        <time>2025-09-05T10:16:16</time>
      </trkpt>
      <trkpt lat="41.73114040866494" lon="82.91639453731477">
        <ele>1063.8</ele>
        <time>2025-09-05T10:16:23</time>
      </trkpt>
      <trkpt lat="41.73100403510034" lon="82.91648481041193">
        <ele>1063.8</ele>
        <time>2025-09-05T10:16:28</time>
      </trkpt>
      <trkpt lat="41.73089163377881" lon="82.91659209877253">
        <ele>1063.8</ele>
        <time>2025-09-05T10:16:32</time>
      </trkpt>
      <trkpt lat="41.730656772851944" lon="82.91683391667902">
        <ele>1063.4</ele>
        <time>2025-09-05T10:16:39</time>
      </trkpt>
      <trkpt lat="41.73042853362858" lon="82.91708830744028">
        <ele>1063.0</ele>
        <time>2025-09-05T10:16:45</time>
      </trkpt>
      <trkpt lat="41.73031948506832" lon="82.91722015477717">
        <ele>1063.0</ele>
        <time>2025-09-05T10:16:48</time>
      </trkpt>
      <trkpt lat="41.73020171932876" lon="82.91734370402992">
        <ele>1062.8</ele>
        <time>2025-09-05T10:16:51</time>
      </trkpt>
      <trkpt lat="41.73001983202994" lon="82.91752550750971">
        <ele>1062.6</ele>
        <time>2025-09-05T10:16:55</time>
      </trkpt>
      <trkpt lat="41.72998370602727" lon="82.91756800375879">
        <ele>1062.6</ele>
        <time>2025-09-05T10:16:56</time>
      </trkpt>
      <trkpt lat="41.72976233996451" lon="82.91782407090068">
        <ele>1062.6</ele>
        <time>2025-09-05T10:17:02</time>
      </trkpt>
      <trkpt lat="41.7296576499939" lon="82.91794770397246">
        <ele>1062.4</ele>
        <time>2025-09-05T10:17:05</time>
      </trkpt>
      <trkpt lat="41.729559833183885" lon="82.91805599816144">
        <ele>1062.4</ele>
        <time>2025-09-05T10:17:08</time>
      </trkpt>
      <trkpt lat="41.72949613071978" lon="82.91813193820417">
        <ele>1062.2</ele>
        <time>2025-09-05T10:17:10</time>
      </trkpt>
      <trkpt lat="41.729327319189906" lon="82.91833469644189">
        <ele>1062.0</ele>
        <time>2025-09-05T10:17:15</time>
      </trkpt>
      <trkpt lat="41.72910553403199" lon="82.91853376664221">
        <ele>1061.8</ele>
        <time>2025-09-05T10:17:21</time>
      </trkpt>
      <trkpt lat="41.72882876358926" lon="82.91879653930664">
        <ele>1061.8</ele>
        <time>2025-09-05T10:17:28</time>
      </trkpt>
      <trkpt lat="41.72846708446741" lon="82.91910549625754">
        <ele>1061.4</ele>
        <time>2025-09-05T10:17:37</time>
      </trkpt>
      <trkpt lat="41.72823205590248" lon="82.91931630112231">
        <ele>1061.4</ele>
        <time>2025-09-05T10:17:43</time>
      </trkpt>
      <trkpt lat="41.728154104202986" lon="82.91938696056604">
        <ele>1061.2</ele>
        <time>2025-09-05T10:17:45</time>
      </trkpt>
      <trkpt lat="41.72794162295759" lon="82.91954244486988">
        <ele>1061.2</ele>
        <time>2025-09-05T10:17:50</time>
      </trkpt>
      <trkpt lat="41.72757231630385" lon="82.91978258639574">
        <ele>1061.0</ele>
        <time>2025-09-05T10:17:58</time>
      </trkpt>
      <trkpt lat="41.72751951031387" lon="82.91980085894465">
        <ele>1060.8</ele>
        <time>2025-09-05T10:17:59</time>
      </trkpt>
      <trkpt lat="41.727468464523554" lon="82.91981309652328">
        <ele>1060.8</ele>
        <time>2025-09-05T10:18:00</time>
      </trkpt>
      <trkpt lat="41.72730937600136" lon="82.91983086615801">
        <ele>1060.6</ele>
        <time>2025-09-05T10:18:03</time>
      </trkpt>
      <trkpt lat="41.72697443515062" lon="82.91986405849457">
        <ele>1060.4</ele>
        <time>2025-09-05T10:18:09</time>
      </trkpt>
      <trkpt lat="41.72661527059972" lon="82.91989926248789">
        <ele>1060.2</ele>
        <time>2025-09-05T10:18:16</time>
      </trkpt>
      <trkpt lat="41.72623733058572" lon="82.91992750950158">
        <ele>1060.0</ele>
        <time>2025-09-05T10:18:23</time>
      </trkpt>
      <trkpt lat="41.72594924457371" lon="82.91996128857136">
        <ele>1059.6</ele>
        <time>2025-09-05T10:18:28</time>
      </trkpt>
      <trkpt lat="41.725597037002444" lon="82.92000588029623">
        <ele>1059.2</ele>
        <time>2025-09-05T10:18:34</time>
      </trkpt>
      <trkpt lat="41.7254232801497" lon="82.92002113536">
        <ele>1059.0</ele>
        <time>2025-09-05T10:18:37</time>
      </trkpt>
      <trkpt lat="41.72530819661915" lon="82.92004141956568">
        <ele>1058.8</ele>
        <time>2025-09-05T10:18:39</time>
      </trkpt>
      <trkpt lat="41.72499890439212" lon="82.92008752003312">
        <ele>1058.4</ele>
        <time>2025-09-05T10:18:45</time>
      </trkpt>
      <trkpt lat="41.724650049582124" lon="82.92014367878437">
        <ele>1058.0</ele>
        <time>2025-09-05T10:18:52</time>
      </trkpt>
      <trkpt lat="41.72434880398214" lon="82.92021048255265">
        <ele>1057.8</ele>
        <time>2025-09-05T10:18:58</time>
      </trkpt>
      <trkpt lat="41.72405418008566" lon="82.9202420823276">
        <ele>1057.6</ele>
        <time>2025-09-05T10:19:04</time>
      </trkpt>
      <trkpt lat="41.72373717650771" lon="82.9202851653099">
        <ele>1057.8</ele>
        <time>2025-09-05T10:19:11</time>
      </trkpt>
      <trkpt lat="41.72348563559353" lon="82.92031483724713">
        <ele>1057.6</ele>
        <time>2025-09-05T10:19:18</time>
      </trkpt>
      <trkpt lat="41.72342201694846" lon="82.92033595964313">
        <ele>1057.4</ele>
        <time>2025-09-05T10:19:21</time>
      </trkpt>
      <trkpt lat="41.723404666408896" lon="82.92035423219204">
        <ele>1057.4</ele>
        <time>2025-09-05T10:19:22</time>
      </trkpt>
      <trkpt lat="41.7233251221478" lon="82.92045003734529">
        <ele>1057.0</ele>
        <time>2025-09-05T10:19:29</time>
      </trkpt>
      <trkpt lat="41.72331900335848" lon="82.9204529710114">
        <ele>1057.0</ele>
        <time>2025-09-05T10:19:30</time>
      </trkpt>
      <trkpt lat="41.7233148124069" lon="82.92045967653394">
        <ele>1056.6</ele>
        <time>2025-09-05T10:19:36</time>
      </trkpt>
      <trkpt lat="41.723313219845295" lon="82.92046118527651">
        <ele>1056.2</ele>
        <time>2025-09-05T10:19:52</time>
      </trkpt>
      <trkpt lat="41.72330332919955" lon="82.92046227492392">
        <ele>1056.2</ele>
        <time>2025-09-05T10:19:57</time>
      </trkpt>
      <trkpt lat="41.72326695173979" lon="82.9204683098942">
        <ele>1056.2</ele>
        <time>2025-09-05T10:19:59</time>
      </trkpt>
      <trkpt lat="41.72309420071542" lon="82.92047920636833">
        <ele>1056.4</ele>
        <time>2025-09-05T10:20:06</time>
      </trkpt>
      <trkpt lat="41.72302898950875" lon="82.9205217026174">
        <ele>1056.4</ele>
        <time>2025-09-05T10:20:09</time>
      </trkpt>
      <trkpt lat="41.723024463281035" lon="82.92055087164044">
        <ele>1056.4</ele>
        <time>2025-09-05T10:20:10</time>
      </trkpt>
      <trkpt lat="41.72304131090641" lon="82.92073619551957">
        <ele>1056.6</ele>
        <time>2025-09-05T10:20:15</time>
      </trkpt>
      <trkpt lat="41.72304751351476" lon="82.92087357491255">
        <ele>1056.6</ele>
        <time>2025-09-05T10:20:18</time>
      </trkpt>
      <trkpt lat="41.72305220738053" lon="82.92097516357899">
        <ele>1056.6</ele>
        <time>2025-09-05T10:20:20</time>
      </trkpt>
      <trkpt lat="41.72306821681559" lon="82.92134245857596">
        <ele>1056.2</ele>
        <time>2025-09-05T10:20:27</time>
      </trkpt>
      <trkpt lat="41.723086489364505" lon="82.92160623706877">
        <ele>1055.8</ele>
        <time>2025-09-05T10:20:32</time>
      </trkpt>
      <trkpt lat="41.72308657318354" lon="82.92165040969849">
        <ele>1055.6</ele>
        <time>2025-09-05T10:20:33</time>
      </trkpt>
      <trkpt lat="41.72308590263128" lon="82.9217411018908">
        <ele>1055.2</ele>
        <time>2025-09-05T10:20:37</time>
      </trkpt>
      <trkpt lat="41.723085064440966" lon="82.9218151140958">
        <ele>1054.8</ele>
        <time>2025-09-05T10:20:41</time>
      </trkpt>
      <trkpt lat="41.7230885848403" lon="82.921894909814">
        <ele>1054.6</ele>
        <time>2025-09-05T10:20:44</time>
      </trkpt>
      <trkpt lat="41.723065450787544" lon="82.92199951596558">
        <ele>1054.4</ele>
        <time>2025-09-05T10:20:49</time>
      </trkpt>
      <trkpt lat="41.723038628697395" lon="82.92203505523503">
        <ele>1054.4</ele>
        <time>2025-09-05T10:20:51</time>
      </trkpt>
      <trkpt lat="41.72302337363362" lon="82.92210848070681">
        <ele>1054.4</ele>
        <time>2025-09-05T10:20:54</time>
      </trkpt>
      <trkpt lat="41.72303359955549" lon="82.92221426032484">
        <ele>1054.4</ele>
        <time>2025-09-05T10:20:57</time>
      </trkpt>
      <trkpt lat="41.72305254265666" lon="82.92234753258526">
        <ele>1054.2</ele>
        <time>2025-09-05T10:21:00</time>
      </trkpt>
      <trkpt lat="41.7230917699635" lon="82.92259127832949">
        <ele>1054.0</ele>
        <time>2025-09-05T10:21:05</time>
      </trkpt>
      <trkpt lat="41.72311356291175" lon="82.92273879982531">
        <ele>1053.8</ele>
        <time>2025-09-05T10:21:08</time>
      </trkpt>
      <trkpt lat="41.72315840609372" lon="82.92303057387471">
        <ele>1053.4</ele>
        <time>2025-09-05T10:21:14</time>
      </trkpt>
      <trkpt lat="41.72318832948804" lon="82.92321170680225">
        <ele>1053.2</ele>
        <time>2025-09-05T10:21:19</time>
      </trkpt>
      <trkpt lat="41.72319998033345" lon="82.92326023802161">
        <ele>1053.0</ele>
        <time>2025-09-05T10:21:23</time>
      </trkpt>
      <trkpt lat="41.723201824352145" lon="82.92326292023063">
        <ele>1052.8</ele>
        <time>2025-09-05T10:21:24</time>
      </trkpt>
      <trkpt lat="41.72325345687568" lon="82.92329954914749">
        <ele>1052.4</ele>
        <time>2025-09-05T10:21:32</time>
      </trkpt>
      <trkpt lat="41.723309364169836" lon="82.92335847392678">
        <ele>1052.2</ele>
        <time>2025-09-05T10:21:41</time>
      </trkpt>
      <trkpt lat="41.72335043549538" lon="82.9234060831368">
        <ele>1052.0</ele>
        <time>2025-09-05T10:21:52</time>
      </trkpt>
      <trkpt lat="41.7233682051301" lon="82.92353566735983">
        <ele>1052.0</ele>
        <time>2025-09-05T10:21:57</time>
      </trkpt>
      <trkpt lat="41.72334926202893" lon="82.923723757267">
        <ele>1052.0</ele>
        <time>2025-09-05T10:22:03</time>
      </trkpt>
      <trkpt lat="41.723201321437955" lon="82.923877062276">
        <ele>1052.0</ele>
        <time>2025-09-05T10:22:08</time>
      </trkpt>
      <trkpt lat="41.723125046119094" lon="82.92395308613777">
        <ele>1051.8</ele>
        <time>2025-09-05T10:22:10</time>
      </trkpt>
      <trkpt lat="41.72292061150074" lon="82.92414427734911">
        <ele>1050.8</ele>
        <time>2025-09-05T10:22:15</time>
      </trkpt>
      <trkpt lat="41.72273050993681" lon="82.92432172223926">
        <ele>1049.6</ele>
        <time>2025-09-05T10:22:20</time>
      </trkpt>
      <trkpt lat="41.72262690961361" lon="82.92442238889635">
        <ele>1049.2</ele>
        <time>2025-09-05T10:22:23</time>
      </trkpt>
      <trkpt lat="41.72239967621863" lon="82.92464811354876">
        <ele>1049.0</ele>
        <time>2025-09-05T10:22:31</time>
      </trkpt>
      <trkpt lat="41.72235776670277" lon="82.92468750849366">
        <ele>1049.0</ele>
        <time>2025-09-05T10:22:35</time>
      </trkpt>
      <trkpt lat="41.72235910780728" lon="82.92469304054976">
        <ele>1049.2</ele>
        <time>2025-09-05T10:22:47</time>
      </trkpt>
      <trkpt lat="41.722359862178564" lon="82.92469438165426">
        <ele>1049.0</ele>
        <time>2025-09-05T10:23:02</time>
      </trkpt>
      <trkpt lat="41.7223044577986" lon="82.92476269416511">
        <ele>1049.0</ele>
        <time>2025-09-05T10:23:08</time>
      </trkpt>
      <trkpt lat="41.722295908257365" lon="82.92477920651436">
        <ele>1049.0</ele>
        <time>2025-09-05T10:23:09</time>
      </trkpt>
      <trkpt lat="41.722289118915796" lon="82.92482128366828">
        <ele>1049.0</ele>
        <time>2025-09-05T10:23:13</time>
      </trkpt>
      <trkpt lat="41.72229272313416" lon="82.92484844103456">
        <ele>1048.8</ele>
        <time>2025-09-05T10:23:22</time>
      </trkpt>
      <trkpt lat="41.72231409698725" lon="82.92490451596677">
        <ele>1048.8</ele>
        <time>2025-09-05T10:23:32</time>
      </trkpt>
      <trkpt lat="41.722319796681404" lon="82.92490895837545">
        <ele>1048.6</ele>
        <time>2025-09-05T10:23:44</time>
      </trkpt>
      <trkpt lat="41.722317868843675" lon="82.92491080239415">
        <ele>1048.6</ele>
        <time>2025-09-05T10:23:58</time>
      </trkpt>
      <trkpt lat="41.72231753356755" lon="82.92491180822253">
        <ele>1049.0</ele>
        <time>2025-09-05T10:24:22</time>
      </trkpt>
      <trkpt lat="41.72231803648174" lon="82.9249117244035">
        <ele>1048.8</ele>
        <time>2025-09-05T10:24:27</time>
      </trkpt>
    </trkseg>
  </trk>
</gpx>